{"type":"FeatureCollection","features":[{"type":"Feature","properties":{},"geometry":{"type":"Polygon","coordinates":[[[12.244423,41.794083],[12.244319,41.794043],[12.244258,41.793999],[12.244138,41.79367],[12.244119,41.793519],[12.244174,41.793232],[12.244256,41.792956],[12.244428,41.792491],[12.244751,41.791748],[12.24702,41.792098],[12.247769,41.7925],[12.248069,41.793236],[12.247703,41.794385],[12.247408,41.794328],[12.246831,41.794218],[12.246503,41.794155],[12.24614,41.794095],[12.245475,41.793984],[12.245234,41.793943],[12.24515,41.794175],[12.244423,41.794083]]]}},{"type":"Feature","properties":{},"geometry":{"type":"Polygon","coordinates":[[[12.241535,41.7926],[12.24275,41.790092],[12.24387,41.790436],[12.244459,41.790621],[12.244478,41.790752],[12.244055,41.791659],[12.243753,41.792276],[12.243392,41.793061],[12.243269,41.793116],[12.241535,41.7926]]]}},{"type":"Feature","properties":{},"geometry":{"type":"Polygon","coordinates":[[[12.243483,41.794747],[12.243284,41.795108],[12.242636,41.795313],[12.241414,41.794979],[12.24078,41.796262],[12.242466,41.796723],[12.242914,41.795813],[12.242928,41.795805],[12.242943,41.795797],[12.242959,41.79579],[12.242978,41.795782],[12.24417,41.795361],[12.24306,41.797673],[12.239773,41.796768],[12.239651,41.796663],[12.239652,41.796489],[12.240784,41.794238],[12.241005,41.794145],[12.2412,41.794162],[12.243483,41.794747]]]}},{"type":"Feature","properties":{},"geometry":{"type":"Polygon","coordinates":[[[12.247116,41.789981],[12.246499,41.789926],[12.246904,41.787445],[12.24741,41.787484],[12.247497,41.787574],[12.247116,41.789981]]]}},{"type":"Feature","properties":{},"geometry":{"type":"Polygon","coordinates":[[[12.265175,41.800655],[12.267052,41.796761],[12.267672,41.796936],[12.265864,41.800634],[12.265772,41.800771],[12.265676,41.800802],[12.265175,41.800655]]]}},{"type":"Feature","properties":{},"geometry":{"type":"Polygon","coordinates":[[[12.247469,41.79815],[12.248446,41.79617],[12.249417,41.796456],[12.248048,41.799237],[12.247982,41.799318],[12.247933,41.799362],[12.247873,41.799389],[12.247805,41.799389],[12.247728,41.799375],[12.245306,41.7987],[12.245175,41.798662],[12.245105,41.798626],[12.245043,41.798589],[12.244959,41.7985],[12.244915,41.798392],[12.244912,41.798269],[12.244947,41.798185],[12.246461,41.795087],[12.247454,41.795344],[12.247328,41.795603],[12.247146,41.795978],[12.246951,41.796381],[12.24678,41.796733],[12.246591,41.797121],[12.246395,41.797527],[12.24627,41.79778],[12.246271,41.797856],[12.246308,41.797928],[12.246375,41.797986],[12.247179,41.798212],[12.247258,41.798222],[12.247337,41.798215],[12.24741,41.79819],[12.247469,41.79815]]]}},{"type":"Feature","properties":{},"geometry":{"type":"Polygon","coordinates":[[[12.241511,41.788874],[12.241858,41.788155],[12.242812,41.788423],[12.24422,41.788823],[12.244292,41.788855],[12.244349,41.788904],[12.244028,41.789552],[12.241511,41.788874]]]}},{"type":"Feature","properties":{"ref":"Area Manutenzione"},"geometry":{"type":"Polygon","coordinates":[[[12.262185,41.797904],[12.261969,41.797584],[12.262045,41.797555],[12.262187,41.797501],[12.262292,41.797273],[12.262929,41.797046],[12.263171,41.796872],[12.263408,41.796564],[12.263437,41.796526],[12.264123,41.79681],[12.263725,41.797336],[12.262185,41.797904]]]}},{"type":"Feature","properties":{},"geometry":{"type":"Polygon","coordinates":[[[12.242352,41.787406],[12.245629,41.788173],[12.24533,41.788903],[12.242051,41.788129],[12.242352,41.787406]]]}},{"type":"Feature","properties":{},"geometry":{"type":"Polygon","coordinates":[[[12.24266,41.786676],[12.242968,41.785947],[12.244427,41.786289],[12.244297,41.786598],[12.245855,41.786963],[12.24579,41.787119],[12.245928,41.787151],[12.245816,41.787416],[12.24266,41.786676]]]}},{"type":"Feature","properties":{},"geometry":{"type":"Polygon","coordinates":[[[12.251076,41.796946],[12.252612,41.799409],[12.252742,41.799364],[12.252863,41.799323],[12.253634,41.799046],[12.252681,41.797568],[12.25322,41.797374],[12.254403,41.79934],[12.253645,41.799597],[12.252768,41.799894],[12.252364,41.800002],[12.252287,41.800003],[12.252204,41.799989],[12.252133,41.79997],[12.252065,41.79994],[12.252022,41.7999],[12.250338,41.797203],[12.251076,41.796946]]]}},{"type":"Feature","properties":{},"geometry":{"type":"Polygon","coordinates":[[[12.254715,41.796663],[12.255033,41.797157],[12.255732,41.79826],[12.255819,41.79829],[12.25635,41.798101],[12.256366,41.798096],[12.256567,41.798024],[12.255338,41.796066],[12.255925,41.795845],[12.257447,41.798267],[12.255505,41.798956],[12.254099,41.796752],[12.25437,41.796659],[12.25454,41.796723],[12.254715,41.796663]]]}},{"type":"Feature","properties":{},"geometry":{"type":"Polygon","coordinates":[[[12.257683,41.795314],[12.257741,41.795408],[12.258921,41.797257],[12.259616,41.797014],[12.258374,41.795063],[12.25899,41.794845],[12.260455,41.797193],[12.258626,41.797845],[12.257088,41.795527],[12.257683,41.795314]]]}},{"type":"Feature","properties":{},"geometry":{"type":"Polygon","coordinates":[[[12.261252,41.794483],[12.262545,41.796539],[12.262461,41.796664],[12.261876,41.796871],[12.260571,41.794762],[12.260561,41.794732],[12.260564,41.794663],[12.260575,41.794608],[12.260598,41.794555],[12.260739,41.794565],[12.260898,41.79451],[12.261017,41.794561],[12.261252,41.794483]]]}},{"type":"Feature","properties":{},"geometry":{"type":"Polygon","coordinates":[[[12.261434,41.798916],[12.261425,41.798942],[12.261394,41.798959],[12.259441,41.799642],[12.259186,41.799234],[12.26109,41.79856],[12.261217,41.798558],[12.261434,41.798916]]]}},{"type":"Feature","properties":{},"geometry":{"type":"Polygon","coordinates":[[[12.260681,41.801558],[12.260382,41.801074],[12.260564,41.801007],[12.26053,41.800944],[12.260798,41.80085],[12.260832,41.80091],[12.261265,41.800761],[12.261234,41.80071],[12.261473,41.800624],[12.261509,41.800678],[12.261878,41.800551],[12.261847,41.800502],[12.262113,41.80041],[12.262149,41.800459],[12.262185,41.800511],[12.262432,41.800567],[12.262641,41.800889],[12.26133,41.801333],[12.260681,41.801558]]]}},{"type":"Feature","properties":{},"geometry":{"type":"Polygon","coordinates":[[[12.264335,41.800728],[12.264171,41.801071],[12.264003,41.801025],[12.263669,41.800503],[12.265567,41.796509],[12.266228,41.796689],[12.266281,41.796741],[12.264949,41.79946],[12.264335,41.800728]]]}},{"type":"Feature","properties":{},"geometry":{"type":"Polygon","coordinates":[[[12.261098,41.802129],[12.263051,41.801452],[12.263141,41.801606],[12.263176,41.801623],[12.263268,41.801785],[12.263227,41.801826],[12.263377,41.802068],[12.263407,41.802118],[12.263662,41.802539],[12.261763,41.803196],[12.26143,41.802666],[12.261529,41.802633],[12.261472,41.802529],[12.261263,41.802499],[12.261131,41.802292],[12.261167,41.802235],[12.261098,41.802129]]]}},{"type":"Feature","properties":{},"geometry":{"type":"Polygon","coordinates":[[[12.270049,41.804412],[12.270384,41.803733],[12.272302,41.804249],[12.272265,41.804326],[12.272328,41.804344],[12.272022,41.804952],[12.270049,41.804412]]]}},{"type":"Feature","properties":{},"geometry":{"type":"Polygon","coordinates":[[[12.274002,41.79589],[12.274219,41.795674],[12.274509,41.795834],[12.274298,41.796049],[12.274002,41.79589]]]}}]}