{"type":"FeatureCollection","features":[{"type":"Feature","properties":{},"geometry":{"type":"Point","coordinates":[12.259463,41.845987]}},{"type":"Feature","properties":{"ref":"D5"},"geometry":{"type":"Point","coordinates":[12.272363,41.81229]}},{"type":"Feature","properties":{},"geometry":{"type":"Point","coordinates":[12.260389,41.844876]}},{"type":"Feature","properties":{},"geometry":{"type":"Point","coordinates":[12.265391,41.832172]}},{"type":"Feature","properties":{},"geometry":{"type":"Point","coordinates":[12.233153,41.806241]}},{"type":"Feature","properties":{"ref":"G1"},"geometry":{"type":"Point","coordinates":[12.251838,41.801488]}},{"type":"Feature","properties":{},"geometry":{"type":"Point","coordinates":[12.270923,41.81898]}},{"type":"Feature","properties":{"ref":"R1"},"geometry":{"type":"Point","coordinates":[12.247742,41.801275]}},{"type":"Feature","properties":{"ref":"EG1"},"geometry":{"type":"Point","coordinates":[12.263805,41.803331]}},{"type":"Feature","properties":{"ref":"CD1"},"geometry":{"type":"Point","coordinates":[12.263564,41.830184]}},{"type":"Feature","properties":{},"geometry":{"type":"Point","coordinates":[12.272526,41.80861]}},{"type":"Feature","properties":{},"geometry":{"type":"Point","coordinates":[12.262697,41.838618]}},{"type":"Feature","properties":{},"geometry":{"type":"Point","coordinates":[12.266087,41.830497]}},{"type":"Feature","properties":{},"geometry":{"type":"Point","coordinates":[12.268207,41.825422]}},{"type":"Feature","properties":{},"geometry":{"type":"Point","coordinates":[12.267512,41.827089]}},{"type":"Feature","properties":{},"geometry":{"type":"Point","coordinates":[12.273454,41.813728]}},{"type":"Feature","properties":{"ref":"CM1"},"geometry":{"type":"Point","coordinates":[12.272162,41.808667]}},{"type":"Feature","properties":{"ref":"D4"},"geometry":{"type":"Point","coordinates":[12.27345,41.808791]}},{"type":"Feature","properties":{},"geometry":{"type":"Point","coordinates":[12.274318,41.811642]}},{"type":"Feature","properties":{},"geometry":{"type":"Point","coordinates":[12.270912,41.809148]}},{"type":"Feature","properties":{"ref":"DM1"},"geometry":{"type":"Point","coordinates":[12.270497,41.806787]}},{"type":"Feature","properties":{"ref":"D3"},"geometry":{"type":"Point","coordinates":[12.266955,41.805088]}},{"type":"Feature","properties":{"ref":"D2"},"geometry":{"type":"Point","coordinates":[12.264304,41.804355]}},{"type":"Feature","properties":{"ref":"D1"},"geometry":{"type":"Point","coordinates":[12.255589,41.80195]}},{"type":"Feature","properties":{},"geometry":{"type":"Point","coordinates":[12.270014,41.808894]}},{"type":"Feature","properties":{"ref":"B4"},"geometry":{"type":"Point","coordinates":[12.269029,41.807095]}},{"type":"Feature","properties":{"ref":"D7"},"geometry":{"type":"Point","coordinates":[12.268896,41.820557]}},{"type":"Feature","properties":{"ref":"D6"},"geometry":{"type":"Point","coordinates":[12.270998,41.815553]}},{"type":"Feature","properties":{"ref":"C1"},"geometry":{"type":"Point","coordinates":[12.271127,41.811983]}},{"type":"Feature","properties":{"ref":"B3"},"geometry":{"type":"Point","coordinates":[12.260161,41.804635]}},{"type":"Feature","properties":{},"geometry":{"type":"Point","coordinates":[12.254354,41.803682]}},{"type":"Feature","properties":{"ref":"P1"},"geometry":{"type":"Point","coordinates":[12.254347,41.802552]}},{"type":"Feature","properties":{"ref":"EA1"},"geometry":{"type":"Point","coordinates":[12.26223,41.803274]}},{"type":"Feature","properties":{"ref":"NG1"},"geometry":{"type":"Point","coordinates":[12.260605,41.80247]}},{"type":"Feature","properties":{"ref":"EH2"},"geometry":{"type":"Point","coordinates":[12.263057,41.799304]}},{"type":"Feature","properties":{"ref":"NE1"},"geometry":{"type":"Point","coordinates":[12.260191,41.794582]}},{"type":"Feature","properties":{"ref":"H2"},"geometry":{"type":"Point","coordinates":[12.260484,41.797713]}},{"type":"Feature","properties":{},"geometry":{"type":"Point","coordinates":[12.247408,41.802547]}},{"type":"Feature","properties":{},"geometry":{"type":"Point","coordinates":[12.240001,41.800633]}},{"type":"Feature","properties":{},"geometry":{"type":"Point","coordinates":[12.228218,41.815594]}},{"type":"Feature","properties":{},"geometry":{"type":"Point","coordinates":[12.228196,41.814742]}},{"type":"Feature","properties":{},"geometry":{"type":"Point","coordinates":[12.230988,41.808106]}},{"type":"Feature","properties":{"ref":"A5"},"geometry":{"type":"Point","coordinates":[12.234292,41.804469]}},{"type":"Feature","properties":{"ref":"A6"},"geometry":{"type":"Point","coordinates":[12.231512,41.811109]}},{"type":"Feature","properties":{"ref":"A Nord"},"geometry":{"type":"Point","coordinates":[12.235672,41.801136]}},{"type":"Feature","properties":{"ref":"A Sud"},"geometry":{"type":"Point","coordinates":[12.236309,41.79962]}},{"type":"Feature","properties":{"ref":"M1"},"geometry":{"type":"Point","coordinates":[12.238216,41.796833]}},{"type":"Feature","properties":{},"geometry":{"type":"Point","coordinates":[12.241945,41.781954]}},{"type":"Feature","properties":{},"geometry":{"type":"Point","coordinates":[12.241546,41.782943]}},{"type":"Feature","properties":{},"geometry":{"type":"Point","coordinates":[12.238888,41.789957]}},{"type":"Feature","properties":{},"geometry":{"type":"Point","coordinates":[12.235376,41.797223]}},{"type":"Feature","properties":{},"geometry":{"type":"Point","coordinates":[12.23532,41.797791]}},{"type":"Feature","properties":{},"geometry":{"type":"Point","coordinates":[12.237355,41.793715]}},{"type":"Feature","properties":{"ref":"Y1"},"geometry":{"type":"Point","coordinates":[12.241337,41.78936]}},{"type":"Feature","properties":{"ref":"W1"},"geometry":{"type":"Point","coordinates":[12.239989,41.792582]}},{"type":"Feature","properties":{"ref":"V1"},"geometry":{"type":"Point","coordinates":[12.239664,41.793318]}},{"type":"Feature","properties":{"ref":"A3"},"geometry":{"type":"Point","coordinates":[12.238302,41.794886]}},{"type":"Feature","properties":{"ref":"A4"},"geometry":{"type":"Point","coordinates":[12.237167,41.797583]}},{"type":"Feature","properties":{"ref":"A2"},"geometry":{"type":"Point","coordinates":[12.240003,41.790816]}},{"type":"Feature","properties":{"ref":"H1"},"geometry":{"type":"Point","coordinates":[12.238778,41.798751]}},{"type":"Feature","properties":{"ref":"T1"},"geometry":{"type":"Point","coordinates":[12.242256,41.799761]}},{"type":"Feature","properties":{"ref":"B2"},"geometry":{"type":"Point","coordinates":[12.244409,41.800879]}},{"type":"Feature","properties":{"ref":"B1"},"geometry":{"type":"Point","coordinates":[12.238455,41.799405]}},{"type":"Feature","properties":{"ref":"H3"},"geometry":{"type":"Point","coordinates":[12.263162,41.796301]}},{"type":"Feature","properties":{"ref":"A1"},"geometry":{"type":"Point","coordinates":[12.241442,41.787392]}}]}