{"type":"FeatureCollection","features":[{"type":"Feature","properties":{"runway":"07/25","criticality":3},"geometry":{"type":"Polygon","coordinates":[[[12.26939,41.80982],[12.269576,41.809442],[12.232237,41.799143],[12.232051,41.799521],[12.26939,41.80982]]]}},{"type":"Feature","properties":{"runway":"16L/34R","criticality":3},"geometry":{"type":"Polygon","coordinates":[[[12.275843,41.812481],[12.275157,41.812321],[12.261157,41.845921],[12.261843,41.846081],[12.275843,41.812481]]]}},{"type":"Feature","properties":{"runway":"16R/34L","criticality":3},"geometry":{"type":"Polygon","coordinates":[[[12.240743,41.782081],[12.240057,41.781921],[12.226057,41.815418],[12.226743,41.815578],[12.240743,41.782081]]]}}]}