{"type":"FeatureCollection","features":[{"type":"Feature","properties":{"ref":"105"},"geometry":{"type":"Point","coordinates":[12.270566,41.803915]}},{"type":"Feature","properties":{"ref":"104"},"geometry":{"type":"Point","coordinates":[12.270886,41.804005]}},{"type":"Feature","properties":{"ref":"102"},"geometry":{"type":"Point","coordinates":[12.27125,41.804107]}},{"type":"Feature","properties":{"ref":"101"},"geometry":{"type":"Point","coordinates":[12.271995,41.804312]}},{"type":"Feature","properties":{"ref":"103"},"geometry":{"type":"Point","coordinates":[12.272166,41.804236]}},{"type":"Feature","properties":{"ref":"203"},"geometry":{"type":"Point","coordinates":[12.260739,41.800946]}},{"type":"Feature","properties":{"ref":"314"},"geometry":{"type":"Point","coordinates":[12.262342,41.796249]}},{"type":"Feature","properties":{"ref":"315"},"geometry":{"type":"Point","coordinates":[12.262066,41.795806]}},{"type":"Feature","properties":{"ref":"318"},"geometry":{"type":"Point","coordinates":[12.261333,41.794639]}},{"type":"Feature","properties":{"ref":"317"},"geometry":{"type":"Point","coordinates":[12.261568,41.795015]}},{"type":"Feature","properties":{"ref":"316"},"geometry":{"type":"Point","coordinates":[12.261837,41.795444]}},{"type":"Feature","properties":{"ref":"404"},"geometry":{"type":"Point","coordinates":[12.255409,41.797896]}},{"type":"Feature","properties":{"ref":"403"},"geometry":{"type":"Point","coordinates":[12.255189,41.797514]}},{"type":"Feature","properties":{"ref":"402"},"geometry":{"type":"Point","coordinates":[12.254946,41.797119]}},{"type":"Feature","properties":{"ref":"401"},"geometry":{"type":"Point","coordinates":[12.254689,41.796698]}},{"type":"Feature","properties":{"ref":"502"},"geometry":{"type":"Point","coordinates":[12.252813,41.797748]}},{"type":"Feature","properties":{"ref":"504"},"geometry":{"type":"Point","coordinates":[12.25312,41.798196]}},{"type":"Feature","properties":{"ref":"506"},"geometry":{"type":"Point","coordinates":[12.253402,41.798639]}},{"type":"Feature","properties":{"ref":"518"},"geometry":{"type":"Point","coordinates":[12.253694,41.799053]}},{"type":"Feature","properties":{"ref":"508"},"geometry":{"type":"Point","coordinates":[12.253606,41.79908]}},{"type":"Feature","properties":{"ref":"510"},"geometry":{"type":"Point","coordinates":[12.253163,41.799317]}},{"type":"Feature","properties":{"ref":"509"},"geometry":{"type":"Point","coordinates":[12.252437,41.799379]}},{"type":"Feature","properties":{"ref":"507"},"geometry":{"type":"Point","coordinates":[12.252254,41.798871]}},{"type":"Feature","properties":{"ref":"505"},"geometry":{"type":"Point","coordinates":[12.251834,41.798267]}},{"type":"Feature","properties":{"ref":"503"},"geometry":{"type":"Point","coordinates":[12.251444,41.797671]}},{"type":"Feature","properties":{"ref":"501"},"geometry":{"type":"Point","coordinates":[12.251093,41.797224]}},{"type":"Feature","properties":{"ref":"408"},"geometry":{"type":"Point","coordinates":[12.256474,41.797734]}},{"type":"Feature","properties":{"ref":"409"},"geometry":{"type":"Point","coordinates":[12.256232,41.797309]}},{"type":"Feature","properties":{"ref":"410"},"geometry":{"type":"Point","coordinates":[12.255999,41.796937]}},{"type":"Feature","properties":{"ref":"405"},"geometry":{"type":"Point","coordinates":[12.255654,41.798277]}},{"type":"Feature","properties":{"ref":"406"},"geometry":{"type":"Point","coordinates":[12.255703,41.798362]}},{"type":"Feature","properties":{"ref":"407"},"geometry":{"type":"Point","coordinates":[12.2568,41.798188]}},{"type":"Feature","properties":{"ref":"411"},"geometry":{"type":"Point","coordinates":[12.255826,41.796554]}},{"type":"Feature","properties":{"ref":"412"},"geometry":{"type":"Point","coordinates":[12.255577,41.796236]}},{"type":"Feature","properties":{"ref":"306"},"geometry":{"type":"Point","coordinates":[12.258821,41.797298]}},{"type":"Feature","properties":{"ref":"307"},"geometry":{"type":"Point","coordinates":[12.259358,41.797197]}},{"type":"Feature","properties":{"ref":"304"},"geometry":{"type":"Point","coordinates":[12.258379,41.796563]}},{"type":"Feature","properties":{"ref":"305"},"geometry":{"type":"Point","coordinates":[12.258603,41.796929]}},{"type":"Feature","properties":{"ref":"303"},"geometry":{"type":"Point","coordinates":[12.258151,41.796193]}},{"type":"Feature","properties":{"ref":"302"},"geometry":{"type":"Point","coordinates":[12.257934,41.795822]}},{"type":"Feature","properties":{"ref":"301"},"geometry":{"type":"Point","coordinates":[12.257688,41.795453]}},{"type":"Feature","properties":{"ref":"308"},"geometry":{"type":"Point","coordinates":[12.259618,41.796998]}},{"type":"Feature","properties":{"ref":"309"},"geometry":{"type":"Point","coordinates":[12.259391,41.796623]}},{"type":"Feature","properties":{"ref":"310"},"geometry":{"type":"Point","coordinates":[12.259159,41.79627]}},{"type":"Feature","properties":{"ref":"311"},"geometry":{"type":"Point","coordinates":[12.258943,41.795896]}},{"type":"Feature","properties":{"ref":"312"},"geometry":{"type":"Point","coordinates":[12.258708,41.795527]}},{"type":"Feature","properties":{"ref":"313"},"geometry":{"type":"Point","coordinates":[12.258484,41.795155]}},{"type":"Feature","properties":{"ref":"399"},"geometry":{"type":"Point","coordinates":[12.261265,41.794567]}},{"type":"Feature","properties":{"ref":"322"},"geometry":{"type":"Point","coordinates":[12.260604,41.79914]}},{"type":"Feature","properties":{"ref":"321"},"geometry":{"type":"Point","coordinates":[12.259999,41.799359]}},{"type":"Feature","properties":{"ref":"323"},"geometry":{"type":"Point","coordinates":[12.261233,41.798943]}},{"type":"Feature","properties":{"ref":"202"},"geometry":{"type":"Point","coordinates":[12.261442,41.800701]}},{"type":"Feature","properties":{"ref":"201"},"geometry":{"type":"Point","coordinates":[12.262048,41.800486]}},{"type":"Feature","properties":{"ref":"209"},"geometry":{"type":"Point","coordinates":[12.26225,41.802515]}},{"type":"Feature","properties":{"ref":"208"},"geometry":{"type":"Point","coordinates":[12.262687,41.802365]}},{"type":"Feature","properties":{"ref":"207"},"geometry":{"type":"Point","coordinates":[12.263136,41.802211]}},{"type":"Feature","properties":{"ref":"210"},"geometry":{"type":"Point","coordinates":[12.261805,41.802667]}},{"type":"Feature","properties":{"ref":"206"},"geometry":{"type":"Point","coordinates":[12.262983,41.80203]}},{"type":"Feature","properties":{"ref":"205"},"geometry":{"type":"Point","coordinates":[12.262376,41.802239]}},{"type":"Feature","properties":{"ref":"204"},"geometry":{"type":"Point","coordinates":[12.261674,41.802481]}},{"type":"Feature","properties":{"ref":"221"},"geometry":{"type":"Point","coordinates":[12.264303,41.800514]}},{"type":"Feature","properties":{"ref":"222"},"geometry":{"type":"Point","coordinates":[12.264487,41.800143]}},{"type":"Feature","properties":{"ref":"223"},"geometry":{"type":"Point","coordinates":[12.264951,41.799205]}},{"type":"Feature","properties":{"ref":"224"},"geometry":{"type":"Point","coordinates":[12.265134,41.798839]}},{"type":"Feature","properties":{"ref":"225"},"geometry":{"type":"Point","coordinates":[12.265346,41.798404]}},{"type":"Feature","properties":{"ref":"226"},"geometry":{"type":"Point","coordinates":[12.265518,41.798051]}},{"type":"Feature","properties":{"ref":"227"},"geometry":{"type":"Point","coordinates":[12.26573,41.797613]}},{"type":"Feature","properties":{"ref":"228"},"geometry":{"type":"Point","coordinates":[12.265913,41.797241]}},{"type":"Feature","properties":{"ref":"229"},"geometry":{"type":"Point","coordinates":[12.266099,41.796873]}},{"type":"Feature","properties":{"ref":"230"},"geometry":{"type":"Point","coordinates":[12.265319,41.800493]}},{"type":"Feature","properties":{"ref":"231"},"geometry":{"type":"Point","coordinates":[12.265532,41.800013]}},{"type":"Feature","properties":{"ref":"232"},"geometry":{"type":"Point","coordinates":[12.265882,41.799329]}},{"type":"Feature","properties":{"ref":"233"},"geometry":{"type":"Point","coordinates":[12.266066,41.798946]}},{"type":"Feature","properties":{"ref":"234"},"geometry":{"type":"Point","coordinates":[12.266277,41.798505]}},{"type":"Feature","properties":{"ref":"235"},"geometry":{"type":"Point","coordinates":[12.266456,41.798131]}},{"type":"Feature","properties":{"ref":"236"},"geometry":{"type":"Point","coordinates":[12.266679,41.797686]}},{"type":"Feature","properties":{"ref":"237"},"geometry":{"type":"Point","coordinates":[12.266847,41.797325]}},{"type":"Feature","properties":{"ref":"238"},"geometry":{"type":"Point","coordinates":[12.267023,41.796965]}}]}