{"type":"FeatureCollection","features":[{"type":"Feature","properties":{"ref":"A"},"geometry":{"type":"LineString","coordinates":[[12.243014,41.783623],[12.24175,41.786655],[12.241589,41.78704],[12.241442,41.787392],[12.241022,41.788401],[12.240868,41.788745],[12.240655,41.789265],[12.240544,41.789526],[12.240485,41.789664],[12.240325,41.790062],[12.240003,41.790816],[12.239463,41.792079],[12.2393,41.792468],[12.239254,41.79258],[12.239218,41.792665],[12.239164,41.792794],[12.239138,41.792858],[12.239112,41.792923],[12.23902,41.793158],[12.238866,41.793524],[12.238733,41.79385],[12.238302,41.794886],[12.237735,41.796232],[12.237556,41.796659],[12.237394,41.797042],[12.237363,41.797116],[12.237271,41.797336],[12.237167,41.797583],[12.237118,41.797702],[12.236899,41.798229],[12.236723,41.798666],[12.236698,41.798724],[12.23651,41.799156],[12.236309,41.79962],[12.2362,41.799882],[12.235986,41.80039],[12.235672,41.801136],[12.235144,41.802389],[12.234292,41.804469],[12.233634,41.806029],[12.233505,41.806346],[12.232717,41.80819],[12.231512,41.811109],[12.230901,41.812573],[12.23042,41.813709]]}},{"type":"Feature","properties":{"ref":"AH"},"geometry":{"type":"LineString","coordinates":[[12.235765,41.793122],[12.236092,41.792586],[12.236452,41.792028],[12.23689,41.791514],[12.237175,41.79122],[12.237538,41.790908],[12.238888,41.789957],[12.239417,41.789584],[12.239651,41.789425],[12.239906,41.78931],[12.240149,41.789259],[12.240397,41.789243],[12.240655,41.789265]]}},{"type":"Feature","properties":{"ref":"AC"},"geometry":{"type":"LineString","coordinates":[[12.232717,41.80819],[12.232608,41.808299],[12.232448,41.808365],[12.232212,41.808389],[12.230988,41.808106],[12.230256,41.807937],[12.230065,41.807858],[12.229907,41.807728],[12.229777,41.807488],[12.229849,41.807177]]}},{"type":"Feature","properties":{"ref":"R"},"geometry":{"type":"LineString","coordinates":[[12.249672,41.79687],[12.249542,41.797139],[12.24934,41.797524],[12.249133,41.797919],[12.249072,41.798025],[12.248946,41.798298],[12.248242,41.799704],[12.247962,41.800329],[12.24794,41.800374],[12.247912,41.800434],[12.247808,41.800668],[12.24778,41.800803],[12.247736,41.801139],[12.247742,41.801275],[12.247746,41.801375],[12.247745,41.801632],[12.24773,41.801777]]}},{"type":"Feature","properties":{"ref":"DA"},"geometry":{"type":"LineString","coordinates":[[12.262045,41.844684],[12.261905,41.844989],[12.261824,41.845111],[12.261741,41.845213],[12.261613,41.845326],[12.261459,41.845435],[12.260887,41.845825],[12.260772,41.845895],[12.260637,41.845957],[12.260473,41.846015],[12.260308,41.846055],[12.260149,41.846075],[12.259969,41.846078],[12.259801,41.846069],[12.259622,41.846035],[12.259463,41.845987],[12.25933,41.845937],[12.259205,41.845873],[12.259086,41.845796],[12.258964,41.845691],[12.258859,41.845571],[12.258786,41.845451],[12.258728,41.845313],[12.258706,41.84518],[12.258704,41.845064],[12.258725,41.844901],[12.258786,41.844737],[12.25891,41.844443],[12.259122,41.843936]]}},{"type":"Feature","properties":{"ref":"EG"},"geometry":{"type":"LineString","coordinates":[[12.264232,41.804335],[12.264067,41.804245],[12.263951,41.804171],[12.263867,41.804093],[12.263803,41.804008],[12.263755,41.803911],[12.263724,41.803804],[12.263713,41.803747],[12.263706,41.803649],[12.263714,41.803561],[12.263741,41.803466],[12.263805,41.803331],[12.263906,41.803125],[12.264028,41.802883],[12.26413,41.802678],[12.264162,41.802565],[12.264175,41.802484],[12.264177,41.802399],[12.264173,41.802339],[12.264163,41.802269],[12.264137,41.802174],[12.264103,41.802105],[12.264084,41.802068],[12.263601,41.801287],[12.263534,41.801179],[12.263529,41.801171],[12.263289,41.800788],[12.263199,41.800644],[12.263168,41.800593],[12.263031,41.80037],[12.262944,41.800229],[12.262528,41.799545],[12.262504,41.799506],[12.262199,41.799015],[12.262051,41.798773],[12.261837,41.798406],[12.261533,41.797931],[12.261484,41.79785]]}},{"type":"Feature","properties":{"ref":"DK"},"geometry":{"type":"LineString","coordinates":[[12.274058,41.815949],[12.274202,41.815524],[12.27425,41.815318],[12.274252,41.815096],[12.274214,41.814858],[12.274167,41.814632],[12.274095,41.814415],[12.274033,41.814277],[12.273967,41.814156],[12.273896,41.814058],[12.273812,41.81397],[12.273705,41.81388],[12.273591,41.8138],[12.273454,41.813728],[12.273316,41.813671],[12.273148,41.813622],[12.272974,41.813579],[12.272837,41.813529],[12.272714,41.813467],[12.272583,41.813381],[12.272497,41.813308],[12.272414,41.813221],[12.272343,41.813123],[12.272294,41.813025],[12.272259,41.812921],[12.272241,41.812828],[12.272238,41.81268],[12.272266,41.812542],[12.272363,41.81229]]}},{"type":"Feature","properties":{"ref":"DH"},"geometry":{"type":"LineString","coordinates":[[12.27088,41.823552],[12.271152,41.822784],[12.271267,41.82236],[12.271344,41.821981],[12.271393,41.821624],[12.27141,41.821269],[12.271404,41.820894],[12.271372,41.820649],[12.271302,41.820319],[12.271197,41.819951],[12.270923,41.81898],[12.270894,41.818889],[12.27084,41.818714],[12.270834,41.818685],[12.270587,41.817895],[12.270524,41.817677],[12.270487,41.817441],[12.270468,41.817159],[12.270497,41.816911],[12.270562,41.816639],[12.270729,41.816195]]}},{"type":"Feature","properties":{"ref":"DG"},"geometry":{"type":"LineString","coordinates":[[12.268122,41.83015],[12.268344,41.829562],[12.268456,41.82922],[12.26852,41.829024],[12.268604,41.828668],[12.268656,41.82836],[12.268703,41.827926],[12.268711,41.827573],[12.268695,41.827241],[12.268628,41.826813],[12.268509,41.8264],[12.268207,41.825422],[12.267861,41.824245],[12.267804,41.824031],[12.267779,41.82379],[12.267778,41.823603],[12.267791,41.823437],[12.267823,41.823217],[12.267866,41.823082],[12.268155,41.822348]]}},{"type":"Feature","properties":{"ref":"DE"},"geometry":{"type":"LineString","coordinates":[[12.266097,41.834994],[12.266351,41.834222],[12.266457,41.833829],[12.266532,41.833454],[12.266579,41.833067],[12.266589,41.832744],[12.266577,41.83241],[12.266549,41.832183],[12.266512,41.831961],[12.266449,41.831717],[12.266385,41.831488],[12.266087,41.830497],[12.265765,41.829419],[12.265706,41.829202],[12.265683,41.829086],[12.265662,41.828911],[12.265655,41.828743],[12.265665,41.828521],[12.265691,41.828366],[12.265726,41.828221],[12.265782,41.828045],[12.26591,41.827701]]}},{"type":"Feature","properties":{"ref":"DB"},"geometry":{"type":"LineString","coordinates":[[12.259122,41.843936],[12.259097,41.844056],[12.259098,41.844164],[12.259118,41.84428],[12.259152,41.844372],[12.259206,41.844469],[12.259272,41.844554],[12.259375,41.844649],[12.259486,41.844723],[12.259606,41.844789],[12.259751,41.844844],[12.259899,41.844877],[12.260048,41.844892],[12.260178,41.844897],[12.260301,41.84489],[12.260389,41.844876],[12.260506,41.84485],[12.26063,41.84481],[12.261615,41.844423],[12.261815,41.844331],[12.26195,41.84425],[12.262082,41.844152],[12.2622,41.844042],[12.262292,41.843937],[12.262368,41.843834],[12.262433,41.843727],[12.262507,41.84358]]}},{"type":"Feature","properties":{"ref":"DC"},"geometry":{"type":"LineString","coordinates":[[12.266097,41.834994],[12.26592,41.83535],[12.265577,41.835977],[12.265411,41.836231],[12.265243,41.836484],[12.265067,41.83671],[12.264867,41.836938],[12.264657,41.837158],[12.264448,41.83736],[12.264269,41.837514],[12.264029,41.837703],[12.262697,41.838618],[12.262454,41.838787],[12.262355,41.838839],[12.262252,41.838876],[12.262143,41.838896],[12.262026,41.838898],[12.261924,41.838889],[12.261838,41.838866],[12.261747,41.838832],[12.261665,41.838786],[12.261576,41.838716],[12.261515,41.838639],[12.261472,41.83855],[12.261458,41.838457],[12.261469,41.838357],[12.261591,41.838036]]}},{"type":"Feature","properties":{"ref":"DD"},"geometry":{"type":"LineString","coordinates":[[12.268826,41.828467],[12.268567,41.829002],[12.268456,41.82922],[12.268414,41.829301],[12.268112,41.829774],[12.267878,41.830104],[12.267689,41.830346],[12.267475,41.830581],[12.267256,41.830807],[12.267009,41.831021],[12.266728,41.831243],[12.266385,41.831488],[12.265391,41.832172],[12.265154,41.832334],[12.265043,41.832394],[12.264937,41.832427],[12.264837,41.83244],[12.26473,41.832446],[12.264622,41.832436],[12.264512,41.832409],[12.264418,41.83237],[12.264332,41.832319],[12.264295,41.832291],[12.26423,41.832242],[12.264165,41.832175],[12.26412,41.832115],[12.26409,41.832066],[12.264061,41.832014],[12.26404,41.831951],[12.264002,41.831825]]}},{"type":"Feature","properties":{"ref":"DF"},"geometry":{"type":"LineString","coordinates":[[12.27088,41.823552],[12.270513,41.824245],[12.27028,41.824633],[12.270065,41.824942],[12.269768,41.825324],[12.269483,41.825612],[12.269202,41.82588],[12.268893,41.826132],[12.268509,41.8264],[12.267512,41.827089],[12.267311,41.827227],[12.26722,41.827286],[12.267179,41.827306],[12.267143,41.827319],[12.267122,41.827326],[12.267099,41.827332],[12.267075,41.827337],[12.267051,41.827343],[12.267005,41.82735],[12.266978,41.827354],[12.266952,41.827356],[12.266919,41.827359],[12.2669,41.82736],[12.266851,41.827361],[12.266795,41.827357],[12.266745,41.827351],[12.26669,41.82734],[12.266666,41.827333],[12.266641,41.827326],[12.266618,41.827318],[12.266595,41.827309],[12.266549,41.827289],[12.266528,41.827277],[12.266508,41.827266],[12.266486,41.827251],[12.266466,41.827237],[12.266387,41.827172],[12.266344,41.827119],[12.266308,41.827055],[12.266286,41.826982],[12.266282,41.826897],[12.26629,41.826824],[12.266492,41.826326]]}},{"type":"Feature","properties":{"ref":"D"},"geometry":{"type":"LineString","coordinates":[[12.261769,41.837612],[12.262437,41.836017],[12.263046,41.83456],[12.263958,41.832381],[12.26409,41.832066],[12.264193,41.831818],[12.264513,41.831054],[12.26591,41.827701],[12.265943,41.827608],[12.266492,41.826326],[12.268155,41.822348],[12.268896,41.820557],[12.26952,41.819083],[12.269859,41.818286],[12.270729,41.816195],[12.270998,41.815553],[12.272363,41.81229]]}},{"type":"Feature","properties":{"ref":"D"},"geometry":{"type":"LineString","coordinates":[[12.272363,41.81229],[12.272882,41.811038],[12.272979,41.810806],[12.273178,41.810348],[12.273338,41.809978],[12.273426,41.80975],[12.273488,41.80956],[12.27352,41.809364],[12.273518,41.809166],[12.273485,41.808968],[12.27345,41.808791],[12.273145,41.807485],[12.27308,41.807239],[12.273005,41.807077],[12.272942,41.806984],[12.272859,41.806888],[12.272732,41.806783],[12.272619,41.806707],[12.272478,41.806631],[12.272347,41.806577],[12.272213,41.806533],[12.272073,41.806491],[12.270984,41.806198],[12.270835,41.80613],[12.270456,41.806027],[12.269854,41.80589],[12.269497,41.805791],[12.266955,41.805088],[12.264304,41.804355],[12.264232,41.804335],[12.263257,41.804067],[12.2623,41.803803],[12.262135,41.803757],[12.262026,41.803727],[12.261779,41.803659],[12.261755,41.803652],[12.261257,41.803515],[12.260803,41.803389],[12.259959,41.803156],[12.255589,41.80195],[12.254029,41.801522],[12.253803,41.801458],[12.253212,41.801292],[12.252959,41.801223],[12.252745,41.801163],[12.252524,41.8011],[12.252346,41.801053],[12.2521,41.800996],[12.251964,41.800971],[12.251836,41.800953],[12.251703,41.800936],[12.251562,41.800925],[12.251429,41.800921],[12.251252,41.800921],[12.251076,41.800932],[12.250905,41.800948],[12.2505,41.801001]]}},{"type":"Feature","properties":{"ref":"CL"},"geometry":{"type":"LineString","coordinates":[[12.273373,41.81117],[12.272979,41.810806],[12.272796,41.810635],[12.27275,41.81059],[12.272689,41.810543],[12.272614,41.810498],[12.272526,41.810462],[12.272421,41.81043],[12.27184,41.810253],[12.271185,41.810078],[12.270442,41.80988],[12.270085,41.809784],[12.269481,41.809625]]}},{"type":"Feature","properties":{"ref":"Y"},"geometry":{"type":"LineString","coordinates":[[12.240655,41.789265],[12.241122,41.789331],[12.241337,41.78936],[12.241621,41.789392],[12.241786,41.789414],[12.242137,41.78946],[12.24243,41.789506],[12.24249,41.78952],[12.242645,41.789559],[12.242708,41.789575],[12.243059,41.789668],[12.243091,41.789677],[12.243464,41.789782],[12.243623,41.789827],[12.243944,41.789917],[12.24404,41.789941],[12.24419,41.789965],[12.244419,41.789984],[12.244655,41.789968],[12.244949,41.78991],[12.245159,41.789872],[12.245315,41.789858],[12.245578,41.789854],[12.245931,41.789859],[12.246039,41.789848],[12.246135,41.789828],[12.246182,41.789805],[12.246234,41.78977],[12.246276,41.789721],[12.246289,41.789677],[12.2463,41.789622],[12.246355,41.789278],[12.24639,41.789062],[12.24643,41.788804],[12.246495,41.788401],[12.24653,41.788184],[12.246559,41.788003],[12.24662,41.787597]]}},{"type":"Feature","properties":{"ref":"AB"},"geometry":{"type":"LineString","coordinates":[[12.226835,41.814445],[12.226843,41.814611],[12.226873,41.814711],[12.226936,41.814804],[12.227025,41.814885],[12.227116,41.814933],[12.227224,41.81497],[12.227327,41.814982],[12.227427,41.814988],[12.227532,41.814981],[12.22764,41.814963],[12.228196,41.814742],[12.228992,41.814424],[12.229813,41.814103],[12.230135,41.81397],[12.230294,41.813861],[12.23042,41.813709]]}},{"type":"Feature","properties":{"ref":"AD"},"geometry":{"type":"LineString","coordinates":[[12.232425,41.801106],[12.232148,41.802001],[12.23203,41.802584],[12.231992,41.802982],[12.231985,41.803422],[12.232071,41.804064],[12.232226,41.80468],[12.232623,41.805936],[12.23271,41.806081],[12.232875,41.806185],[12.233001,41.806223],[12.233153,41.806241],[12.233261,41.806231],[12.233391,41.806188],[12.233509,41.806125],[12.233634,41.806029]]}},{"type":"Feature","properties":{"ref":"G"},"geometry":{"type":"LineString","coordinates":[[12.250026,41.802022],[12.250313,41.801971],[12.250635,41.801891],[12.251018,41.801769],[12.251838,41.801488],[12.252425,41.801278],[12.252745,41.801163],[12.253036,41.801059],[12.253184,41.801009],[12.253511,41.800894],[12.253865,41.800769],[12.254319,41.800607],[12.254364,41.80059],[12.255156,41.800307],[12.25553,41.800179],[12.255665,41.800129],[12.255991,41.800015],[12.257232,41.799582],[12.257274,41.799568],[12.258149,41.799262],[12.258187,41.799249],[12.258549,41.799119],[12.25884,41.799014],[12.259316,41.798859],[12.259904,41.79865],[12.260498,41.798439],[12.260587,41.798407],[12.260935,41.798282],[12.261058,41.798241],[12.261222,41.798173],[12.26132,41.798131],[12.261386,41.798095],[12.261444,41.798052],[12.261476,41.798006],[12.261498,41.797933],[12.261484,41.79785]]}},{"type":"Feature","properties":{"ref":"BA"},"geometry":{"type":"LineString","coordinates":[[12.271145,41.807681],[12.271202,41.807703],[12.27125,41.807733],[12.2713,41.807772],[12.271344,41.807812],[12.271384,41.807866],[12.271405,41.807926],[12.271419,41.807991],[12.271414,41.80807],[12.271384,41.808172],[12.270912,41.809148],[12.270701,41.809579],[12.270658,41.809645],[12.270604,41.809695],[12.270533,41.809739],[12.270466,41.809768],[12.270409,41.809787],[12.270326,41.809799],[12.270244,41.809802],[12.270169,41.809797],[12.270085,41.809784]]}},{"type":"Feature","properties":{},"geometry":{"type":"LineString","coordinates":[[12.239417,41.789584],[12.239567,41.789541],[12.239693,41.789529],[12.23983,41.789534],[12.239972,41.789567],[12.240061,41.789605],[12.240185,41.789695],[12.240251,41.789763],[12.2403,41.789851],[12.240328,41.78994],[12.240325,41.790062]]}},{"type":"Feature","properties":{"ref":"CD"},"geometry":{"type":"LineString","coordinates":[[12.264513,41.831054],[12.264469,41.831104],[12.26443,41.831141],[12.26438,41.831177],[12.264334,41.831203],[12.264276,41.831224],[12.264218,41.831236],[12.264149,41.831242],[12.264084,41.83124],[12.264028,41.831231],[12.263966,41.83121],[12.26391,41.831182],[12.263856,41.831147],[12.26381,41.831106],[12.26377,41.831046]]}},{"type":"Feature","properties":{"ref":"Backtrack"},"geometry":{"type":"LineString","coordinates":[[12.263046,41.83456],[12.262977,41.834669],[12.262909,41.834739],[12.262827,41.834802],[12.262697,41.83486],[12.26255,41.834919],[12.261999,41.83512],[12.261868,41.835173],[12.261798,41.835212],[12.261747,41.835258],[12.261693,41.835326],[12.261629,41.83547],[12.261592,41.835561],[12.261574,41.83564],[12.261572,41.835708],[12.261584,41.835767],[12.261603,41.835821],[12.261625,41.835861],[12.261793,41.836079],[12.261843,41.83613],[12.261894,41.836163],[12.261948,41.836187],[12.262014,41.836206],[12.262075,41.836214],[12.262146,41.836213],[12.262206,41.836202],[12.262272,41.836178],[12.262336,41.836141],[12.26239,41.836096],[12.262437,41.836017]]}},{"type":"Feature","properties":{"ref":"M"},"geometry":{"type":"LineString","coordinates":[[12.247962,41.800329],[12.247921,41.800204],[12.24788,41.800121],[12.247809,41.800035],[12.247749,41.799982],[12.247612,41.799902],[12.246013,41.799454],[12.244529,41.799045],[12.244463,41.799028],[12.244403,41.799013],[12.244347,41.798997],[12.244288,41.798973],[12.244249,41.798955],[12.244217,41.798934],[12.244183,41.798911],[12.244157,41.798889],[12.244129,41.798863],[12.244095,41.798822],[12.244059,41.798777],[12.24401,41.798676],[12.243962,41.798577],[12.243946,41.798547],[12.243919,41.798504],[12.243887,41.798463],[12.243854,41.798428],[12.243793,41.798381],[12.243744,41.79835],[12.243721,41.798342],[12.24366,41.798325],[12.243103,41.798168],[12.242852,41.798105],[12.24256,41.798031],[12.24153,41.797757],[12.240636,41.797511],[12.240535,41.797483],[12.239227,41.797122],[12.239156,41.797102],[12.23867,41.79696],[12.238216,41.796833],[12.238052,41.796788],[12.237889,41.796782],[12.237747,41.796814],[12.237635,41.796852],[12.237511,41.796913],[12.237394,41.797042]]}},{"type":"Feature","properties":{"ref":"Z"},"geometry":{"type":"LineString","coordinates":[[12.238836,41.796568],[12.239353,41.795515],[12.239678,41.794857],[12.240173,41.793851],[12.240227,41.793768],[12.240278,41.79368],[12.240343,41.793622],[12.240412,41.793521],[12.24059,41.793177],[12.240605,41.793149],[12.240639,41.793078],[12.240908,41.792516],[12.241103,41.792107],[12.241399,41.79149],[12.241692,41.790879],[12.241989,41.79026],[12.242122,41.789981],[12.242194,41.789879],[12.242308,41.789781],[12.242423,41.789718],[12.24255,41.789663],[12.242721,41.789641],[12.243091,41.789677]]}},{"type":"Feature","properties":{},"geometry":{"type":"LineString","coordinates":[[12.253692,41.801246],[12.253668,41.801121],[12.253676,41.80103],[12.253709,41.80094],[12.25377,41.800854],[12.253865,41.800769]]}},{"type":"Feature","properties":{},"geometry":{"type":"LineString","coordinates":[[12.254029,41.801522],[12.253872,41.801447],[12.25379,41.801383],[12.253718,41.801296]]}},{"type":"Feature","properties":{},"geometry":{"type":"LineString","coordinates":[[12.253928,41.801708],[12.25383,41.801599],[12.253719,41.801516],[12.253613,41.80145],[12.253472,41.801381],[12.253212,41.801292]]}},{"type":"Feature","properties":{"ref":"H"},"geometry":{"type":"LineString","coordinates":[[12.237558,41.798413],[12.237428,41.798401],[12.237332,41.798405],[12.237247,41.798412],[12.237156,41.798428],[12.237054,41.79846],[12.236976,41.798492],[12.236883,41.798539],[12.236782,41.79861],[12.236723,41.798666]]}},{"type":"Feature","properties":{},"geometry":{"type":"LineString","coordinates":[[12.2362,41.799882],[12.236196,41.800086],[12.23626,41.800266],[12.236394,41.800422],[12.236644,41.800568],[12.236793,41.800608]]}},{"type":"Feature","properties":{},"geometry":{"type":"LineString","coordinates":[[12.255991,41.800015],[12.255957,41.800018],[12.255924,41.800017],[12.25589,41.800011],[12.255858,41.800002],[12.255828,41.799988],[12.255801,41.799975],[12.255767,41.799955],[12.255733,41.799927]]}},{"type":"Feature","properties":{"ref":"NZ"},"geometry":{"type":"LineString","coordinates":[[12.255665,41.800129],[12.255693,41.800102],[12.255717,41.800075],[12.255731,41.800052],[12.25574,41.80003],[12.255746,41.800007],[12.255749,41.799986],[12.255743,41.799957],[12.255733,41.799927],[12.255559,41.799653],[12.255534,41.799613],[12.255446,41.799482],[12.255354,41.799335],[12.255347,41.799325],[12.255317,41.799277],[12.255205,41.799097],[12.254993,41.798759],[12.254864,41.798552],[12.254627,41.798172],[12.254387,41.797788],[12.254144,41.797399],[12.253983,41.797142]]}},{"type":"Feature","properties":{},"geometry":{"type":"LineString","coordinates":[[12.25527,41.800083],[12.255313,41.800134],[12.255356,41.800163],[12.25545,41.800186],[12.25553,41.800179]]}},{"type":"Feature","properties":{"ref":"NW"},"geometry":{"type":"LineString","coordinates":[[12.255156,41.800307],[12.255263,41.800242],[12.255287,41.800199],[12.255287,41.800139],[12.25527,41.800083],[12.255102,41.79982],[12.255045,41.799728],[12.254991,41.799643],[12.254858,41.79942],[12.254772,41.799297],[12.254744,41.799257],[12.25445,41.798795],[12.254189,41.798374],[12.253906,41.797924],[12.253621,41.797469]]}},{"type":"Feature","properties":{"ref":"DM"},"geometry":{"type":"LineString","coordinates":[[12.27079,41.807582],[12.270729,41.80756],[12.2707,41.807544],[12.27067,41.807527],[12.270639,41.807503],[12.270617,41.807482],[12.270596,41.807455],[12.270577,41.807426],[12.270563,41.80739]]}},{"type":"Feature","properties":{"ref":"CL"},"geometry":{"type":"LineString","coordinates":[[12.272421,41.81043],[12.272268,41.810375],[12.27217,41.810317],[12.2721,41.810262],[12.272056,41.810212],[12.272018,41.810152],[12.271994,41.810099],[12.271979,41.810043],[12.271974,41.809997],[12.271974,41.809958],[12.27199,41.80989]]}},{"type":"Feature","properties":{"ref":"DL"},"geometry":{"type":"LineString","coordinates":[[12.274924,41.813878],[12.275089,41.813455],[12.275112,41.81335],[12.27512,41.813238],[12.275108,41.813098],[12.27507,41.812922],[12.27497,41.812402],[12.274932,41.812272],[12.274892,41.812169],[12.274843,41.812076],[12.274784,41.811995],[12.274711,41.81191],[12.274628,41.811834],[12.274527,41.811757],[12.274419,41.811693],[12.274318,41.811642],[12.274206,41.811595],[12.274074,41.811552],[12.27394,41.811515],[12.273787,41.811458],[12.273675,41.8114],[12.273562,41.81133],[12.273461,41.811256],[12.273373,41.81117],[12.273286,41.811059],[12.273219,41.810951],[12.27318,41.810862],[12.273157,41.810784],[12.27314,41.810706],[12.273134,41.810632],[12.273133,41.810555],[12.273146,41.810456],[12.273178,41.810348]]}},{"type":"Feature","properties":{"ref":"CL"},"geometry":{"type":"LineString","coordinates":[[12.272882,41.811038],[12.272901,41.810955],[12.272903,41.810891],[12.272895,41.810826],[12.272873,41.810756],[12.272839,41.810695],[12.272796,41.810635]]}},{"type":"Feature","properties":{},"geometry":{"type":"LineString","coordinates":[[12.261058,41.798241],[12.261247,41.798198],[12.261356,41.798197],[12.261467,41.798213],[12.261587,41.79825],[12.261678,41.798293],[12.261761,41.798349],[12.261837,41.798406]]}},{"type":"Feature","properties":{"ref":"D"},"geometry":{"type":"LineString","coordinates":[[12.259619,41.842733],[12.261591,41.838036],[12.261769,41.837612]]}},{"type":"Feature","properties":{"ref":"D"},"geometry":{"type":"LineString","coordinates":[[12.259122,41.843936],[12.259619,41.842733]]}},{"type":"Feature","properties":{"ref":"C"},"geometry":{"type":"LineString","coordinates":[[12.27218,41.809442],[12.27199,41.80989],[12.27184,41.810253],[12.271127,41.811983],[12.270725,41.813002],[12.26908,41.816946],[12.269005,41.817129],[12.268743,41.817747],[12.26501,41.826569],[12.264991,41.826613],[12.263633,41.829885],[12.263588,41.830021],[12.263573,41.830101],[12.263564,41.830184]]}},{"type":"Feature","properties":{"ref":"DD"},"geometry":{"type":"LineString","coordinates":[[12.264295,41.832291],[12.264238,41.832227],[12.264192,41.832158],[12.264167,41.832097],[12.264153,41.832036],[12.264153,41.831963],[12.264165,41.831894],[12.264193,41.831818]]}},{"type":"Feature","properties":{"ref":"CD"},"geometry":{"type":"LineString","coordinates":[[12.263958,41.832381],[12.264003,41.832243],[12.26402,41.832172],[12.26403,41.832097],[12.264031,41.832009],[12.264027,41.831937],[12.264002,41.831825]]}},{"type":"Feature","properties":{"ref":"CD"},"geometry":{"type":"LineString","coordinates":[[12.263564,41.830184],[12.263567,41.83032],[12.263581,41.830412],[12.263604,41.830495],[12.26368,41.83076],[12.26377,41.831046],[12.264002,41.831825]]}},{"type":"Feature","properties":{"ref":"C"},"geometry":{"type":"LineString","coordinates":[[12.27218,41.809442],[12.272526,41.80861],[12.272871,41.807775],[12.272903,41.807663],[12.272925,41.807566],[12.272926,41.807434],[12.272909,41.807316],[12.272889,41.807215],[12.272842,41.80711],[12.272775,41.807],[12.27269,41.806888],[12.272591,41.806789],[12.272465,41.806687],[12.272331,41.806607],[12.272206,41.806548],[12.272073,41.806491]]}},{"type":"Feature","properties":{"ref":"H"},"geometry":{"type":"LineString","coordinates":[[12.237118,41.797702],[12.237104,41.797802],[12.237106,41.797897],[12.237119,41.797977],[12.237147,41.79806],[12.237188,41.798134],[12.237234,41.798188],[12.237286,41.798239],[12.237361,41.798302],[12.237446,41.79836],[12.237558,41.798413]]}},{"type":"Feature","properties":{"ref":"U"},"geometry":{"type":"LineString","coordinates":[[12.270363,41.805221],[12.270354,41.805168],[12.270352,41.805129],[12.27036,41.805092],[12.27037,41.805058],[12.270395,41.805006]]}},{"type":"Feature","properties":{"ref":"U"},"geometry":{"type":"LineString","coordinates":[[12.270456,41.806027],[12.27043,41.80579],[12.270415,41.805679],[12.270394,41.805519],[12.270383,41.805337]]}},{"type":"Feature","properties":{"ref":"U"},"geometry":{"type":"LineString","coordinates":[[12.270151,41.805692],[12.270241,41.805628],[12.270394,41.805519],[12.270542,41.805403],[12.270601,41.805356],[12.270647,41.805296],[12.27069,41.805236],[12.270726,41.805174],[12.270758,41.805107]]}},{"type":"Feature","properties":{"ref":"U"},"geometry":{"type":"LineString","coordinates":[[12.269497,41.805791],[12.269586,41.805806],[12.269687,41.805813],[12.269773,41.805811],[12.269864,41.8058],[12.269939,41.805783],[12.270003,41.805763],[12.270075,41.805729],[12.270151,41.805692],[12.270241,41.805628],[12.27027,41.805598],[12.270309,41.805551],[12.270342,41.805505],[12.270354,41.805464],[12.270366,41.805426],[12.270383,41.805337],[12.270377,41.805274],[12.270363,41.805221],[12.270338,41.805155],[12.270301,41.805096],[12.270262,41.805056],[12.270202,41.805004],[12.270134,41.80496],[12.270073,41.804919]]}},{"type":"Feature","properties":{"ref":"U"},"geometry":{"type":"LineString","coordinates":[[12.271506,41.80531],[12.271195,41.805228],[12.270758,41.805107],[12.270617,41.805068],[12.270395,41.805006],[12.270073,41.804919]]}},{"type":"Feature","properties":{"ref":"U"},"geometry":{"type":"LineString","coordinates":[[12.270835,41.80613],[12.270733,41.806092],[12.270654,41.806057],[12.270589,41.806012],[12.270547,41.805974],[12.270504,41.805925],[12.270476,41.805883],[12.27043,41.80579],[12.270415,41.805679],[12.270425,41.805611],[12.270445,41.805546],[12.270476,41.805489],[12.270542,41.805403],[12.270601,41.805356],[12.270667,41.80531],[12.270743,41.80527],[12.270852,41.805238],[12.270944,41.805223],[12.271056,41.805218],[12.271195,41.805228]]}},{"type":"Feature","properties":{"ref":"BB"},"geometry":{"type":"LineString","coordinates":[[12.270568,41.807516],[12.270555,41.807623],[12.270538,41.807715],[12.270503,41.807824],[12.270455,41.807962]]}},{"type":"Feature","properties":{"ref":"BB"},"geometry":{"type":"LineString","coordinates":[[12.270049,41.807373],[12.270155,41.807415],[12.270235,41.807463],[12.27031,41.807525],[12.270365,41.807585],[12.270412,41.807655],[12.270444,41.807735],[12.270465,41.807825],[12.270468,41.807892],[12.270455,41.807962],[12.270426,41.808035],[12.270383,41.808131],[12.270014,41.808894],[12.269832,41.809271],[12.269781,41.809366],[12.269722,41.809438],[12.269644,41.809487],[12.269561,41.809523],[12.269465,41.809551],[12.269368,41.809568],[12.269304,41.809569],[12.269259,41.809563]]}},{"type":"Feature","properties":{"ref":"DM"},"geometry":{"type":"LineString","coordinates":[[12.269854,41.80589],[12.269947,41.805921],[12.270013,41.805948],[12.270081,41.805982],[12.270135,41.806015],[12.270203,41.806067],[12.27026,41.806117],[12.270304,41.806174],[12.270351,41.806243],[12.270395,41.80632],[12.270433,41.806401],[12.270455,41.806465],[12.270469,41.806527]]}},{"type":"Feature","properties":{"ref":"DM"},"geometry":{"type":"LineString","coordinates":[[12.270984,41.806198],[12.270917,41.80619],[12.270835,41.806189],[12.270758,41.806197],[12.270696,41.806213],[12.270635,41.806238],[12.270583,41.806269],[12.27054,41.806303],[12.270502,41.806344],[12.270474,41.806388],[12.270463,41.806413],[12.270459,41.806438]]}},{"type":"Feature","properties":{"ref":"DM"},"geometry":{"type":"LineString","coordinates":[[12.270456,41.806027],[12.270459,41.806438],[12.270469,41.806527],[12.270497,41.806787],[12.270525,41.807058],[12.270563,41.80739],[12.270568,41.807516]]}},{"type":"Feature","properties":{"ref":"DM"},"geometry":{"type":"LineString","coordinates":[[12.269829,41.807315],[12.269892,41.807326],[12.269963,41.807326],[12.270084,41.807323],[12.270141,41.807315],[12.270202,41.807302],[12.270257,41.807287],[12.270333,41.807259],[12.270379,41.807238],[12.270429,41.807212],[12.270456,41.807191],[12.270486,41.807159],[12.270509,41.807121],[12.270521,41.807088],[12.270525,41.807058]]}},{"type":"Feature","properties":{"ref":"DF"},"geometry":{"type":"LineString","coordinates":[[12.267311,41.827227],[12.267175,41.827321],[12.26715,41.827337],[12.267118,41.827356],[12.267077,41.827373],[12.267037,41.827388],[12.266998,41.827398],[12.266958,41.827408],[12.266914,41.827416],[12.266867,41.827422],[12.266824,41.827425],[12.266776,41.827427],[12.266733,41.827425],[12.266688,41.827422],[12.266643,41.827416],[12.266599,41.827408],[12.266556,41.827398],[12.265555,41.827156]]}},{"type":"Feature","properties":{"ref":"CE"},"geometry":{"type":"LineString","coordinates":[[12.26591,41.827701],[12.265943,41.827608],[12.265946,41.827573],[12.265943,41.827533],[12.265934,41.82749],[12.265916,41.827447],[12.265896,41.827406],[12.265873,41.82737],[12.265846,41.827335],[12.265819,41.827306],[12.265788,41.827279],[12.26575,41.827252],[12.265713,41.82723],[12.265667,41.827206],[12.265616,41.827182],[12.265555,41.827156],[12.26546,41.827136],[12.265402,41.827121],[12.265329,41.827099],[12.265282,41.82708],[12.265232,41.827052],[12.265188,41.827023],[12.265141,41.826982],[12.265099,41.82694],[12.265068,41.826895],[12.265045,41.826846],[12.265028,41.826797],[12.265015,41.826745],[12.265007,41.826665],[12.26501,41.826569]]}},{"type":"Feature","properties":{"ref":"CH"},"geometry":{"type":"LineString","coordinates":[[12.26952,41.819083],[12.269565,41.818818],[12.269528,41.818611],[12.269446,41.818379],[12.269364,41.818144],[12.269302,41.817971],[12.269271,41.817882],[12.269204,41.817693],[12.269113,41.817435],[12.269079,41.817174],[12.26908,41.816946]]}},{"type":"Feature","properties":{"ref":"DH"},"geometry":{"type":"LineString","coordinates":[[12.270894,41.818889],[12.270834,41.818685],[12.270748,41.818564],[12.270619,41.818484],[12.27048,41.81844],[12.270147,41.818356],[12.269859,41.818286],[12.269696,41.818244],[12.269476,41.818152],[12.269302,41.817971]]}},{"type":"Feature","properties":{"ref":"B"},"geometry":{"type":"LineString","coordinates":[[12.262696,41.805333],[12.269029,41.807095],[12.269829,41.807315],[12.270049,41.807373],[12.270568,41.807516],[12.27079,41.807582],[12.271145,41.807681],[12.271444,41.807765]]}},{"type":"Feature","properties":{"ref":"NG"},"geometry":{"type":"LineString","coordinates":[[12.256441,41.795928],[12.25665,41.796258],[12.256886,41.796627],[12.257121,41.797001],[12.257384,41.797416],[12.257676,41.797877],[12.257854,41.798174],[12.257963,41.798356],[12.258019,41.798433],[12.258057,41.798475],[12.25815,41.798539],[12.258187,41.798566],[12.258222,41.79861],[12.258283,41.798702],[12.258326,41.798767],[12.258382,41.798849],[12.258549,41.799119],[12.258731,41.799414],[12.258988,41.799835],[12.259803,41.801165],[12.26016,41.801749],[12.260503,41.802289],[12.260605,41.80247],[12.260727,41.802659],[12.261097,41.803256],[12.261216,41.803448],[12.261257,41.803515]]}},{"type":"Feature","properties":{"ref":"H"},"geometry":{"type":"LineString","coordinates":[[12.260689,41.797644],[12.260484,41.797713],[12.259371,41.798105],[12.258851,41.798292],[12.258354,41.79847],[12.258245,41.798506],[12.25815,41.798539],[12.257766,41.798677],[12.256968,41.798952],[12.256951,41.798959],[12.25623,41.799214],[12.255693,41.799405],[12.255604,41.799426],[12.255446,41.799482],[12.25528,41.799541],[12.25526,41.799548],[12.255183,41.799575],[12.255154,41.799585],[12.254991,41.799643],[12.254809,41.799707],[12.254586,41.799786],[12.253973,41.800003],[12.253955,41.800009],[12.253666,41.800111],[12.253562,41.800148],[12.253475,41.800179],[12.252855,41.800396],[12.252808,41.800413],[12.252426,41.800541],[12.25222,41.800596],[12.251914,41.800677],[12.251294,41.800843],[12.251276,41.800847],[12.2505,41.801001],[12.250097,41.801063],[12.249832,41.801087],[12.249509,41.801102],[12.249105,41.801081],[12.248821,41.801048],[12.248509,41.800994],[12.248326,41.800946],[12.2482,41.800913],[12.247473,41.80071],[12.247234,41.800643],[12.247074,41.800598],[12.244138,41.799825],[12.243167,41.799543],[12.242467,41.799323],[12.242118,41.799237],[12.241931,41.799199],[12.241749,41.799171],[12.241364,41.79914],[12.240921,41.799146]]}},{"type":"Feature","properties":{"ref":"BE"},"geometry":{"type":"LineString","coordinates":[[12.252311,41.804887],[12.252609,41.804937],[12.252804,41.80494],[12.253016,41.804924],[12.253268,41.804874],[12.253612,41.804766],[12.253771,41.804687],[12.253873,41.804604],[12.253957,41.804499],[12.254094,41.804232],[12.254354,41.803682],[12.254407,41.803508],[12.254399,41.803343],[12.254324,41.803208],[12.254235,41.803106],[12.254143,41.803027],[12.253977,41.802932]]}},{"type":"Feature","properties":{"ref":"BE"},"geometry":{"type":"LineString","coordinates":[[12.254931,41.805609],[12.254606,41.805487],[12.254438,41.805388],[12.254257,41.80524],[12.254107,41.805059],[12.253979,41.804884],[12.25393,41.804753],[12.253922,41.804618],[12.253957,41.804499]]}},{"type":"Feature","properties":{"ref":"BE"},"geometry":{"type":"LineString","coordinates":[[12.254354,41.803682],[12.254452,41.803534],[12.25454,41.803455],[12.254668,41.803373],[12.254836,41.80331],[12.255004,41.80329],[12.255273,41.803289]]}},{"type":"Feature","properties":{"ref":"H"},"geometry":{"type":"LineString","coordinates":[[12.236899,41.798229],[12.237558,41.798413],[12.238027,41.798543],[12.238531,41.798683],[12.238778,41.798751],[12.239157,41.798847]]}},{"type":"Feature","properties":{"ref":"P"},"geometry":{"type":"LineString","coordinates":[[12.253348,41.800563],[12.253372,41.80061],[12.253511,41.800894],[12.253561,41.800994],[12.253692,41.801246],[12.253718,41.801296],[12.253803,41.801458],[12.253861,41.801571],[12.253928,41.801708],[12.25421,41.802289],[12.254347,41.802552],[12.254363,41.802588],[12.254431,41.80274],[12.254471,41.802931],[12.254482,41.803078],[12.254484,41.803194],[12.254449,41.803418],[12.254354,41.803682]]}},{"type":"Feature","properties":{"ref":"M"},"geometry":{"type":"LineString","coordinates":[[12.247612,41.799902],[12.247732,41.799919],[12.247819,41.799919],[12.247922,41.799904],[12.248044,41.799864],[12.248142,41.799806],[12.248242,41.799704]]}},{"type":"Feature","properties":{"ref":"CF"},"geometry":{"type":"LineString","coordinates":[[12.2521,41.800996],[12.251995,41.800817],[12.251914,41.800677],[12.25174,41.800421],[12.251652,41.800277],[12.251581,41.800163],[12.251203,41.79955],[12.251044,41.799295],[12.250662,41.798683],[12.250494,41.798415],[12.250284,41.798088],[12.250067,41.79775],[12.249978,41.797612],[12.249759,41.797272],[12.249712,41.797184],[12.249682,41.797097],[12.249669,41.79702],[12.249672,41.79687]]}},{"type":"Feature","properties":{},"geometry":{"type":"LineString","coordinates":[[12.249133,41.797919],[12.249222,41.797802],[12.249282,41.797748],[12.24936,41.797696],[12.249446,41.797661],[12.249536,41.797635],[12.249648,41.797619],[12.249772,41.797626],[12.249871,41.797652],[12.249974,41.797687],[12.250067,41.79775]]}},{"type":"Feature","properties":{},"geometry":{"type":"LineString","coordinates":[[12.252346,41.801053],[12.252225,41.801004],[12.252168,41.800973],[12.252126,41.800943],[12.252097,41.80092],[12.252068,41.800896],[12.251995,41.800817]]}},{"type":"Feature","properties":{},"geometry":{"type":"LineString","coordinates":[[12.251838,41.801488],[12.251912,41.801441],[12.251961,41.801404],[12.252003,41.801365],[12.252034,41.80133],[12.252071,41.801282],[12.252097,41.801223],[12.252113,41.801165],[12.252118,41.801103],[12.252115,41.801052],[12.2521,41.800996],[12.252097,41.80092],[12.252081,41.800834],[12.252071,41.800764],[12.252073,41.800718],[12.252089,41.800681],[12.25212,41.800652],[12.25222,41.800596]]}},{"type":"Feature","properties":{},"geometry":{"type":"LineString","coordinates":[[12.263257,41.804067],[12.263355,41.804076],[12.263439,41.804068],[12.263512,41.804049],[12.26358,41.804022],[12.26362,41.803992],[12.263662,41.803948],[12.263689,41.80391],[12.263711,41.803866],[12.263724,41.803804]]}},{"type":"Feature","properties":{"ref":"EA"},"geometry":{"type":"LineString","coordinates":[[12.264163,41.802269],[12.264156,41.802327],[12.264143,41.802371],[12.264109,41.802433],[12.264069,41.802496],[12.264021,41.802562],[12.263963,41.802617],[12.263889,41.802665],[12.263814,41.802708],[12.26373,41.802748],[12.263619,41.80279],[12.263508,41.802824],[12.26348,41.802834],[12.263116,41.802965],[12.263069,41.802981],[12.263017,41.802999],[12.262628,41.803135],[12.262576,41.803153],[12.262549,41.803163],[12.262515,41.803174],[12.26223,41.803274],[12.262004,41.803353],[12.261965,41.803367]]}},{"type":"Feature","properties":{},"geometry":{"type":"LineString","coordinates":[[12.263906,41.803125],[12.263905,41.80304],[12.263898,41.802998],[12.26388,41.802956],[12.263847,41.80291],[12.263815,41.802879],[12.263773,41.802852],[12.26373,41.802835],[12.263678,41.80282],[12.263627,41.802813],[12.263579,41.802813],[12.26348,41.802834]]}},{"type":"Feature","properties":{},"geometry":{"type":"LineString","coordinates":[[12.261965,41.803367],[12.261836,41.803395],[12.261706,41.80342],[12.261589,41.803437],[12.26147,41.803448],[12.261336,41.80345],[12.261216,41.803448],[12.261082,41.803437],[12.260803,41.803389]]}},{"type":"Feature","properties":{},"geometry":{"type":"LineString","coordinates":[[12.260727,41.802659],[12.26074,41.802736],[12.260733,41.802807],[12.260704,41.802898],[12.260643,41.80299],[12.260573,41.803055],[12.260471,41.803115],[12.260351,41.803156],[12.260228,41.803176],[12.260115,41.803176],[12.259959,41.803156]]}},{"type":"Feature","properties":{"ref":"EB"},"geometry":{"type":"LineString","coordinates":[[12.262957,41.801128],[12.262847,41.801162],[12.26282,41.80117],[12.262529,41.801273],[12.26248,41.80129],[12.261915,41.801488],[12.261872,41.801502],[12.261788,41.801532],[12.261622,41.801589],[12.261213,41.80173],[12.260709,41.801902],[12.260641,41.801916],[12.260559,41.801921],[12.260483,41.801916],[12.260392,41.801897],[12.260312,41.801864],[12.260229,41.801814],[12.26016,41.801749]]}},{"type":"Feature","properties":{},"geometry":{"type":"LineString","coordinates":[[12.260709,41.801902],[12.260645,41.801936],[12.260578,41.801982],[12.260533,41.802039],[12.260507,41.8021],[12.260497,41.802158],[12.260497,41.802226],[12.260503,41.802289]]}},{"type":"Feature","properties":{"ref":"EH"},"geometry":{"type":"LineString","coordinates":[[12.26489,41.799813],[12.264829,41.799796],[12.263786,41.799507],[12.263348,41.799385],[12.263057,41.799304],[12.262896,41.799257],[12.262359,41.799112],[12.262301,41.799093],[12.262251,41.799069],[12.262199,41.799015]]}},{"type":"Feature","properties":{},"geometry":{"type":"LineString","coordinates":[[12.262896,41.799257],[12.262793,41.79925],[12.262739,41.799255],[12.262691,41.799261],[12.262659,41.799272],[12.262619,41.799289],[12.262582,41.799315],[12.262556,41.799346],[12.262533,41.799377],[12.262513,41.799417],[12.2625,41.799463],[12.262504,41.799506],[12.262528,41.799545]]}},{"type":"Feature","properties":{},"geometry":{"type":"LineString","coordinates":[[12.266707,41.791941],[12.264469,41.792735],[12.263792,41.792942],[12.260863,41.793964],[12.260668,41.794034],[12.260581,41.794066],[12.260509,41.7941],[12.26048,41.794119],[12.260441,41.794153],[12.260406,41.794191],[12.260336,41.794268],[12.260265,41.794351],[12.260243,41.794415],[12.260214,41.794483],[12.260191,41.794582]]}},{"type":"Feature","properties":{"ref":"H"},"geometry":{"type":"LineString","coordinates":[[12.260689,41.797644],[12.260786,41.797616],[12.261121,41.797497],[12.261262,41.797446],[12.261352,41.797401],[12.26142,41.797363],[12.26156,41.797292],[12.261604,41.797266],[12.261708,41.797219],[12.26264,41.796885],[12.262726,41.796836],[12.262811,41.796761],[12.263162,41.796301],[12.264755,41.794191]]}},{"type":"Feature","properties":{},"geometry":{"type":"LineString","coordinates":[[12.261484,41.79785],[12.261406,41.797711],[12.26139,41.797625],[12.261397,41.797555],[12.261414,41.797483],[12.26146,41.797405],[12.261507,41.797347],[12.26156,41.797292]]}},{"type":"Feature","properties":{},"geometry":{"type":"LineString","coordinates":[[12.258731,41.799414],[12.258669,41.799347],[12.258629,41.79932],[12.25859,41.799295],[12.258552,41.799276],[12.258507,41.799259],[12.258462,41.799249],[12.258396,41.799239],[12.258338,41.799234],[12.258282,41.799236],[12.258187,41.799249],[12.258263,41.799214],[12.258297,41.799185],[12.258332,41.799153],[12.258366,41.799115],[12.258386,41.79908],[12.258405,41.799035],[12.258415,41.798986],[12.258412,41.798944],[12.258402,41.798906],[12.258382,41.798849]]}},{"type":"Feature","properties":{},"geometry":{"type":"LineString","coordinates":[[12.258382,41.798849],[12.258326,41.798767],[12.258247,41.79871],[12.258189,41.79868],[12.258141,41.798659],[12.258086,41.798646],[12.258036,41.798638],[12.257979,41.798634],[12.257928,41.798635],[12.257869,41.798642],[12.257766,41.798677]]}},{"type":"Feature","properties":{},"geometry":{"type":"LineString","coordinates":[[12.255183,41.799575],[12.255137,41.79961],[12.255102,41.799652],[12.255081,41.7997],[12.255077,41.799746],[12.255102,41.79982]]}},{"type":"Feature","properties":{},"geometry":{"type":"LineString","coordinates":[[12.253865,41.800769],[12.253764,41.800774],[12.253638,41.800765],[12.253525,41.800731],[12.253455,41.800686],[12.253348,41.800563],[12.253329,41.800486],[12.253321,41.800401],[12.25335,41.800322],[12.253395,41.800265],[12.253443,41.800219],[12.253562,41.800148]]}},{"type":"Feature","properties":{},"geometry":{"type":"LineString","coordinates":[[12.253184,41.801009],[12.253269,41.800958],[12.253323,41.800907],[12.253355,41.800865],[12.25338,41.800815],[12.253392,41.800767],[12.253392,41.800719],[12.253372,41.80061],[12.253348,41.800563],[12.253303,41.800508],[12.253239,41.80046],[12.253165,41.800425],[12.253079,41.800399],[12.252992,41.80039],[12.252855,41.800396]]}},{"type":"Feature","properties":{},"geometry":{"type":"LineString","coordinates":[[12.252426,41.800541],[12.252299,41.800557],[12.252188,41.800555],[12.252094,41.800544],[12.251993,41.800524],[12.251904,41.800489],[12.251837,41.800452],[12.251783,41.800415],[12.251652,41.800277],[12.251677,41.800359],[12.251679,41.800439],[12.251665,41.800517],[12.251637,41.800589],[12.2516,41.800647],[12.251561,41.800699],[12.251504,41.800743],[12.251445,41.800776],[12.251294,41.800843]]}},{"type":"Feature","properties":{"ref":"BF"},"geometry":{"type":"LineString","coordinates":[[12.24853,41.803849],[12.247807,41.803624],[12.24763,41.803547],[12.247485,41.80344],[12.247391,41.803349],[12.247317,41.803224],[12.247279,41.803116],[12.247256,41.802973],[12.247279,41.802844],[12.247349,41.80267],[12.247408,41.802547],[12.247499,41.802357],[12.247572,41.802205],[12.247652,41.802041],[12.247704,41.801918],[12.247728,41.801845],[12.24773,41.801777]]}},{"type":"Feature","properties":{},"geometry":{"type":"LineString","coordinates":[[12.247065,41.801598],[12.247228,41.80162],[12.247315,41.801618],[12.247422,41.801605],[12.247519,41.80157],[12.2476,41.801521],[12.247673,41.801451],[12.247724,41.801381],[12.247742,41.801275],[12.247767,41.801438],[12.247794,41.801528],[12.247837,41.801623],[12.247894,41.801693],[12.247965,41.801758],[12.248052,41.80182],[12.248204,41.801888]]}},{"type":"Feature","properties":{},"geometry":{"type":"LineString","coordinates":[[12.247736,41.801139],[12.247733,41.801017],[12.247719,41.800962],[12.247682,41.800898],[12.247637,41.800831],[12.247577,41.800778],[12.247473,41.80071],[12.247234,41.800643],[12.247384,41.800668],[12.247464,41.800668],[12.247549,41.800653],[12.247639,41.800634],[12.247736,41.80059],[12.24781,41.800541],[12.247869,41.800484],[12.24794,41.800374],[12.247909,41.800503],[12.247912,41.80059],[12.247943,41.800662],[12.247982,41.800727],[12.248036,41.800793],[12.248102,41.800846],[12.248175,41.800884],[12.248326,41.800946]]}},{"type":"Feature","properties":{"ref":"S"},"geometry":{"type":"LineString","coordinates":[[12.244138,41.799825],[12.244027,41.79976],[12.24395,41.799707],[12.243879,41.799639],[12.243821,41.799552],[12.2438,41.799478],[12.243786,41.799411],[12.243796,41.79932],[12.243848,41.799216],[12.244018,41.798855],[12.244059,41.798777],[12.244185,41.7985],[12.244347,41.798188],[12.244663,41.797564],[12.245099,41.796702],[12.24518,41.796538],[12.245288,41.796319],[12.245458,41.795972],[12.245655,41.795569],[12.24567,41.795538],[12.245835,41.795201]]}},{"type":"Feature","properties":{},"geometry":{"type":"LineString","coordinates":[[12.244018,41.798855],[12.24401,41.798676]]}},{"type":"Feature","properties":{},"geometry":{"type":"LineString","coordinates":[[12.243848,41.799216],[12.243915,41.799153],[12.243956,41.799121],[12.243981,41.799106],[12.244009,41.799091],[12.24404,41.79908],[12.244074,41.799067],[12.24411,41.799057],[12.244161,41.799046],[12.244223,41.79904],[12.24428,41.799035],[12.244325,41.799033],[12.244366,41.799033],[12.244529,41.799045]]}},{"type":"Feature","properties":{},"geometry":{"type":"LineString","coordinates":[[12.244347,41.798188],[12.244282,41.798258],[12.244252,41.798288],[12.244228,41.798308],[12.244184,41.79834],[12.244141,41.798362],[12.244094,41.798373],[12.244046,41.79838],[12.243996,41.798383],[12.243951,41.798383],[12.243906,41.79838],[12.243862,41.798373],[12.243744,41.79835]]}},{"type":"Feature","properties":{"ref":"T"},"geometry":{"type":"LineString","coordinates":[[12.242631,41.800372],[12.242506,41.800328],[12.242406,41.800273],[12.242359,41.80023],[12.242296,41.800163],[12.242245,41.800093],[12.242218,41.800016],[12.242212,41.799923],[12.242225,41.799827],[12.242256,41.799761],[12.242289,41.799694],[12.242467,41.799323],[12.242768,41.798722],[12.242847,41.798592],[12.242881,41.798535],[12.242992,41.798398],[12.243113,41.798283],[12.243297,41.798136],[12.243434,41.798049],[12.243514,41.797974],[12.243566,41.7979],[12.244101,41.796819],[12.24453,41.79595],[12.244596,41.795824],[12.244656,41.795737],[12.244746,41.795647],[12.244874,41.795567],[12.245051,41.795492],[12.245325,41.795391],[12.245835,41.795201]]}},{"type":"Feature","properties":{},"geometry":{"type":"LineString","coordinates":[[12.245325,41.795391],[12.245447,41.795359],[12.245494,41.795359],[12.245545,41.795368],[12.245589,41.795391],[12.245626,41.795417],[12.24565,41.795452],[12.245669,41.795485],[12.24567,41.795538]]}},{"type":"Feature","properties":{},"geometry":{"type":"LineString","coordinates":[[12.242852,41.798105],[12.242951,41.798119],[12.242992,41.798124],[12.243045,41.798125],[12.243093,41.798125],[12.243144,41.798121],[12.243192,41.798114],[12.243248,41.7981],[12.243288,41.798089],[12.243322,41.798076],[12.243369,41.798057],[12.243399,41.79804],[12.243451,41.798005],[12.243566,41.7979],[12.243508,41.798017],[12.243492,41.798085],[12.243491,41.798119],[12.243499,41.79815],[12.243511,41.798179],[12.243528,41.798203],[12.243548,41.798232],[12.243571,41.798256],[12.243591,41.798276],[12.24366,41.798325],[12.243499,41.798298],[12.243446,41.798294],[12.243393,41.798295],[12.243347,41.798296],[12.243273,41.798305],[12.243214,41.798319],[12.243165,41.798334],[12.24312,41.79835],[12.243071,41.798373],[12.242995,41.798423],[12.242881,41.798535]]}},{"type":"Feature","properties":{},"geometry":{"type":"LineString","coordinates":[[12.24256,41.798031],[12.2426,41.798047],[12.242639,41.798067],[12.242674,41.798086],[12.242709,41.798108],[12.242771,41.798164],[12.242799,41.798194],[12.242827,41.798226],[12.24285,41.798265],[12.242865,41.798302],[12.242882,41.798377],[12.242884,41.798419],[12.242882,41.798464],[12.242872,41.798509],[12.242847,41.798592]]}},{"type":"Feature","properties":{"ref":"BT"},"geometry":{"type":"LineString","coordinates":[[12.242847,41.798592],[12.242752,41.798713],[12.242692,41.798765],[12.242637,41.798797],[12.242519,41.798844],[12.242409,41.798873],[12.241365,41.799075],[12.241151,41.799116],[12.241048,41.799132],[12.240967,41.799141],[12.240921,41.799146],[12.240793,41.799151],[12.240595,41.799149],[12.24045,41.79914],[12.240252,41.799119],[12.240068,41.799085],[12.239872,41.799041],[12.239639,41.79898],[12.239157,41.798847]]}},{"type":"Feature","properties":{"ref":"BG"},"geometry":{"type":"LineString","coordinates":[[12.240947,41.801748],[12.240444,41.801583],[12.2403,41.801517],[12.240183,41.801447],[12.240094,41.801361],[12.240024,41.801277],[12.239962,41.801148],[12.239928,41.801039],[12.239923,41.800944],[12.239933,41.800827],[12.239964,41.800725],[12.240001,41.800633],[12.240194,41.800258]]}},{"type":"Feature","properties":{"ref":"AA"},"geometry":{"type":"LineString","coordinates":[[12.23042,41.813709],[12.229989,41.814747],[12.229921,41.814877],[12.229781,41.814987],[12.229533,41.815082],[12.228218,41.815594],[12.228102,41.815639],[12.227923,41.815691],[12.227711,41.815697],[12.227012,41.815535],[12.226898,41.815496],[12.226781,41.815439],[12.226692,41.815357],[12.226629,41.815274],[12.2266,41.815182],[12.226591,41.815083],[12.226639,41.814893]]}},{"type":"Feature","properties":{},"geometry":{"type":"LineString","coordinates":[[12.237735,41.796232],[12.237704,41.796362],[12.237717,41.796474],[12.23776,41.796567],[12.237829,41.796653],[12.237915,41.796724],[12.238052,41.796788],[12.238271,41.796817],[12.238422,41.796814],[12.238542,41.796778],[12.238654,41.796734],[12.238736,41.796676],[12.238836,41.796568],[12.238817,41.796686],[12.238839,41.796785],[12.238882,41.796871],[12.238933,41.796948],[12.239032,41.797028],[12.239159,41.7971],[12.239192,41.797111],[12.239227,41.797122]]}},{"type":"Feature","properties":{"ref":"AE"},"geometry":{"type":"LineString","coordinates":[[12.234235,41.796719],[12.234154,41.797046],[12.234175,41.797198],[12.234227,41.797313],[12.2343,41.797408],[12.234407,41.7975],[12.234525,41.797562],[12.234739,41.797632],[12.23532,41.797791],[12.235662,41.797885],[12.235756,41.797911],[12.23608,41.798001],[12.236226,41.798042],[12.236899,41.798229]]}},{"type":"Feature","properties":{"ref":"AL"},"geometry":{"type":"LineString","coordinates":[[12.243014,41.783623],[12.243095,41.783429],[12.243234,41.783118],[12.243315,41.78291],[12.243388,41.782736],[12.243403,41.782659],[12.243403,41.782565],[12.243382,41.782491],[12.243335,41.782412],[12.243273,41.782338],[12.243176,41.782273],[12.243082,41.782227],[12.24291,41.782174],[12.241945,41.781954],[12.241848,41.781945],[12.24172,41.781951],[12.241595,41.781972],[12.241441,41.782022],[12.241186,41.782141],[12.240288,41.782579],[12.240199,41.782639],[12.240142,41.782713],[12.240006,41.782969]]}},{"type":"Feature","properties":{"ref":"AK"},"geometry":{"type":"LineString","coordinates":[[12.243014,41.783623],[12.243017,41.783542],[12.242996,41.783466],[12.242965,41.783394],[12.242902,41.783326],[12.242832,41.783271],[12.24273,41.783223],[12.242615,41.783192],[12.241546,41.782943],[12.240609,41.782723],[12.240518,41.782715],[12.2404,41.782723],[12.240306,41.782742],[12.240205,41.782791],[12.240095,41.782863],[12.239981,41.783028]]}},{"type":"Feature","properties":{"ref":"AF"},"geometry":{"type":"LineString","coordinates":[[12.235465,41.793829],[12.235334,41.794305],[12.235196,41.794859],[12.235106,41.795512],[12.235112,41.795972],[12.235202,41.796624],[12.235376,41.797223],[12.235514,41.797679],[12.235591,41.7978],[12.235756,41.797911]]}},{"type":"Feature","properties":{},"geometry":{"type":"LineString","coordinates":[[12.236723,41.798666],[12.236694,41.798504],[12.236668,41.798428],[12.236637,41.798364],[12.236601,41.798303],[12.236546,41.79824],[12.236464,41.798168],[12.236378,41.798109],[12.236226,41.798042],[12.236378,41.798051],[12.23648,41.798049],[12.236621,41.798028],[12.236745,41.797993],[12.236869,41.797941],[12.236948,41.797886],[12.237034,41.797811],[12.237118,41.797702]]}},{"type":"Feature","properties":{"ref":"AG"},"geometry":{"type":"LineString","coordinates":[[12.233938,41.797429],[12.234335,41.796667],[12.234645,41.796141],[12.234904,41.795781],[12.235279,41.795312],[12.235802,41.794828],[12.236269,41.794461],[12.237355,41.793715],[12.237825,41.793395],[12.237883,41.793356],[12.237988,41.793296],[12.238304,41.793174],[12.238548,41.793136],[12.238776,41.793129],[12.23902,41.793158]]}},{"type":"Feature","properties":{},"geometry":{"type":"LineString","coordinates":[[12.237825,41.793395],[12.23806,41.793354],[12.238211,41.793354],[12.238378,41.793396],[12.238529,41.793457],[12.238632,41.793527],[12.238705,41.793627],[12.238735,41.793716],[12.238733,41.79385]]}},{"type":"Feature","properties":{},"geometry":{"type":"LineString","coordinates":[[12.238866,41.793524],[12.238941,41.793418],[12.239002,41.793361],[12.239096,41.793306],[12.239195,41.793271],[12.239324,41.793258],[12.239483,41.793271],[12.23932,41.79321],[12.239234,41.793156],[12.239182,41.793079],[12.239143,41.792973],[12.239164,41.792794],[12.239294,41.792627],[12.239397,41.792563],[12.239556,41.792515],[12.239732,41.792512],[12.23962,41.79246],[12.23953,41.79238],[12.239474,41.792281],[12.239457,41.792195],[12.239463,41.792079]]}},{"type":"Feature","properties":{},"geometry":{"type":"LineString","coordinates":[[12.239122,41.792733],[12.239294,41.792627]]}},{"type":"Feature","properties":{},"geometry":{"type":"LineString","coordinates":[[12.240868,41.788745],[12.240822,41.788884],[12.24084,41.789027],[12.240897,41.789134],[12.240984,41.789224],[12.241119,41.789297],[12.241337,41.78936],[12.241122,41.789331],[12.240954,41.789335],[12.240807,41.789371],[12.240679,41.789438],[12.240562,41.789543],[12.240485,41.789664]]}},{"type":"Feature","properties":{"ref":"Z"},"geometry":{"type":"LineString","coordinates":[[12.241621,41.789392],[12.24178,41.789434],[12.241868,41.789471],[12.241957,41.789529],[12.242031,41.789595],[12.242084,41.789677],[12.242127,41.789772],[12.242137,41.789867],[12.242122,41.789981]]}},{"type":"Feature","properties":{"ref":"W"},"geometry":{"type":"LineString","coordinates":[[12.239732,41.792512],[12.239989,41.792582],[12.240373,41.792691],[12.2404,41.792698],[12.241131,41.792897],[12.241196,41.792915],[12.242109,41.793168],[12.243064,41.793437],[12.243138,41.793456],[12.243174,41.793466],[12.243309,41.793477],[12.243418,41.793458],[12.243477,41.793438],[12.243542,41.793416],[12.24379,41.793292],[12.244135,41.793118],[12.244402,41.792983],[12.244544,41.792944],[12.244643,41.792925],[12.244746,41.792936],[12.244833,41.792949],[12.245175,41.792999],[12.245701,41.793077],[12.245745,41.793084],[12.245758,41.793085],[12.246233,41.793156],[12.246423,41.793184],[12.246573,41.793205],[12.246769,41.793234],[12.247126,41.793285],[12.247313,41.793312],[12.247722,41.793371]]}},{"type":"Feature","properties":{"ref":"V"},"geometry":{"type":"LineString","coordinates":[[12.239483,41.793271],[12.239664,41.793318],[12.239846,41.793366],[12.239895,41.79338],[12.240274,41.79349],[12.240412,41.793521],[12.240621,41.793532],[12.240801,41.793548],[12.240967,41.793592],[12.242161,41.793925],[12.242351,41.793978],[12.242919,41.794136]]}},{"type":"Feature","properties":{},"geometry":{"type":"LineString","coordinates":[[12.240343,41.793622],[12.240419,41.793577],[12.240511,41.793551],[12.240621,41.793532]]}},{"type":"Feature","properties":{},"geometry":{"type":"LineString","coordinates":[[12.240274,41.79349],[12.240591,41.793587]]}},{"type":"Feature","properties":{},"geometry":{"type":"LineString","coordinates":[[12.240173,41.793851],[12.240201,41.793773],[12.240207,41.793699],[12.240192,41.793636],[12.24016,41.793571],[12.24012,41.793517],[12.240035,41.793454],[12.239895,41.79338],[12.24012,41.793425],[12.240201,41.793423],[12.240306,41.793401],[12.240394,41.793369],[12.240449,41.793332],[12.240507,41.793286],[12.24059,41.793177],[12.240577,41.793254],[12.240583,41.793319],[12.240612,41.793386],[12.240671,41.793443],[12.240738,41.793499],[12.240967,41.793592]]}},{"type":"Feature","properties":{},"geometry":{"type":"LineString","coordinates":[[12.24059,41.793177],[12.240627,41.793056],[12.240633,41.792984],[12.240615,41.792917],[12.240586,41.79286],[12.240539,41.792804],[12.24049,41.792763],[12.240373,41.792691],[12.240481,41.792704],[12.240574,41.792697],[12.24065,41.79268],[12.240738,41.792647],[12.240793,41.792617],[12.240908,41.792516],[12.240904,41.792597],[12.240915,41.792686],[12.240942,41.792745],[12.241,41.792812],[12.241131,41.792897],[12.241006,41.792899],[12.240927,41.792908],[12.240834,41.792932],[12.240743,41.79298],[12.240639,41.793078]]}},{"type":"Feature","properties":{"ref":"K"},"geometry":{"type":"LineString","coordinates":[[12.242161,41.793925],[12.242183,41.79393],[12.242207,41.793936],[12.242234,41.79394],[12.242265,41.793943],[12.242301,41.793945],[12.242334,41.793945],[12.242368,41.793943],[12.242401,41.793941],[12.242432,41.793937],[12.242465,41.793931],[12.242497,41.793925],[12.242526,41.793917],[12.242554,41.793908],[12.242576,41.7939],[12.2426,41.793891],[12.242632,41.793875],[12.242668,41.793858],[12.24341,41.793488],[12.243477,41.793438],[12.243508,41.793396],[12.243544,41.793335],[12.243582,41.793253],[12.243667,41.793073],[12.243705,41.792994],[12.243887,41.792617],[12.243997,41.79239],[12.244028,41.792326],[12.244072,41.792234],[12.244329,41.791709],[12.2445,41.791359],[12.244513,41.791331],[12.244696,41.790951],[12.244739,41.790861],[12.244774,41.790741],[12.244779,41.790637],[12.24477,41.790557],[12.244747,41.790472],[12.244692,41.790344],[12.244585,41.790209],[12.244453,41.790109],[12.24431,41.790026],[12.24404,41.789941]]}},{"type":"Feature","properties":{},"geometry":{"type":"LineString","coordinates":[[12.243138,41.793456],[12.243263,41.793462],[12.243321,41.793458],[12.243394,41.793436],[12.243446,41.793408],[12.243511,41.79336],[12.243582,41.793253]]}},{"type":"Feature","properties":{},"geometry":{"type":"LineString","coordinates":[[12.244746,41.792936],[12.244637,41.79292],[12.244421,41.792889],[12.244262,41.792861],[12.244209,41.792842],[12.244155,41.792809],[12.244083,41.792761],[12.244018,41.792686],[12.243977,41.792602],[12.24397,41.792527],[12.243997,41.79239]]}},{"type":"Feature","properties":{},"geometry":{"type":"LineString","coordinates":[[12.23902,41.793158],[12.239183,41.793183],[12.239483,41.793271]]}},{"type":"Feature","properties":{},"geometry":{"type":"LineString","coordinates":[[12.255693,41.799405],[12.25561,41.799434],[12.255576,41.799467],[12.25555,41.79951],[12.255539,41.799552],[12.255541,41.799594],[12.255559,41.799653]]}},{"type":"Feature","properties":{},"geometry":{"type":"LineString","coordinates":[[12.247395,41.801687],[12.247065,41.801598]]}},{"type":"Feature","properties":{},"geometry":{"type":"LineString","coordinates":[[12.247572,41.802205],[12.247683,41.802067],[12.247754,41.80201],[12.247824,41.801972],[12.247908,41.801935],[12.248005,41.801912],[12.248095,41.801902],[12.248206,41.801905],[12.248373,41.801924]]}},{"type":"Feature","properties":{},"geometry":{"type":"LineString","coordinates":[[12.258382,41.798849],[12.258444,41.798918],[12.258472,41.798943],[12.258496,41.798961],[12.258539,41.798985],[12.258597,41.799002],[12.258653,41.799013],[12.258708,41.799021],[12.258764,41.799023],[12.25884,41.799014],[12.258798,41.799048],[12.258761,41.799088],[12.258726,41.799129],[12.258706,41.799172],[12.258684,41.799231],[12.25868,41.799278],[12.258689,41.799317],[12.258731,41.799414]]}},{"type":"Feature","properties":{},"geometry":{"type":"LineString","coordinates":[[12.237988,41.793296],[12.238149,41.793211],[12.238439,41.793069],[12.238808,41.792912],[12.238984,41.792819],[12.239122,41.792733],[12.239254,41.79258]]}},{"type":"Feature","properties":{},"geometry":{"type":"LineString","coordinates":[[12.254431,41.80274],[12.254536,41.802918],[12.254646,41.803052],[12.25481,41.803165]]}},{"type":"Feature","properties":{},"geometry":{"type":"LineString","coordinates":[[12.254363,41.802588],[12.254361,41.802701],[12.254313,41.802794],[12.254222,41.802878],[12.254098,41.80292],[12.253977,41.802932]]}},{"type":"Feature","properties":{},"geometry":{"type":"LineString","coordinates":[[12.247652,41.802041],[12.247651,41.801985],[12.247643,41.801942],[12.247613,41.80187],[12.247576,41.801812],[12.247516,41.801753],[12.247395,41.801687]]}},{"type":"Feature","properties":{},"geometry":{"type":"LineString","coordinates":[[12.240194,41.800258],[12.240212,41.800204],[12.240277,41.800081],[12.240315,41.800023],[12.240364,41.799959],[12.240422,41.799912],[12.240526,41.799863],[12.240687,41.799834],[12.240859,41.799873]]}},{"type":"Feature","properties":{},"geometry":{"type":"LineString","coordinates":[[12.260076,41.793938],[12.260116,41.793976],[12.260156,41.794004],[12.26023,41.794036],[12.260295,41.794054],[12.260362,41.794068],[12.260424,41.794077],[12.260484,41.794078],[12.260581,41.794066],[12.260636,41.794046],[12.260668,41.794034],[12.260863,41.793964]]}},{"type":"Feature","properties":{},"geometry":{"type":"LineString","coordinates":[[12.260265,41.794351],[12.260278,41.794295],[12.260271,41.794251],[12.260249,41.79421],[12.260076,41.793938],[12.259045,41.792304]]}},{"type":"Feature","properties":{},"geometry":{"type":"LineString","coordinates":[[12.264755,41.794191],[12.264845,41.794083],[12.26488,41.794018],[12.264895,41.793937],[12.26488,41.793841],[12.264842,41.793771],[12.264416,41.7931],[12.264313,41.793012],[12.264209,41.792954],[12.264111,41.792921],[12.264002,41.792909],[12.263792,41.792942],[12.263948,41.79285],[12.264036,41.792746],[12.264073,41.792635],[12.264032,41.792459],[12.262644,41.790285]]}},{"type":"Feature","properties":{},"geometry":{"type":"LineString","coordinates":[[12.264469,41.792735],[12.264399,41.792829],[12.264365,41.792915],[12.264378,41.793013],[12.264416,41.7931]]}},{"type":"Feature","properties":{"ref":"J"},"geometry":{"type":"LineString","coordinates":[[12.24205,41.786937],[12.24194,41.786885],[12.241865,41.786835],[12.241801,41.786759],[12.24175,41.786655]]}},{"type":"Feature","properties":{"ref":"J"},"geometry":{"type":"LineString","coordinates":[[12.24205,41.786937],[12.241921,41.786929],[12.241814,41.786941],[12.24171,41.786971],[12.241589,41.78704]]}},{"type":"Feature","properties":{"ref":"J"},"geometry":{"type":"LineString","coordinates":[[12.24205,41.786937],[12.242866,41.787127],[12.243732,41.787328],[12.243763,41.787335],[12.244398,41.787483],[12.244654,41.787542],[12.244914,41.787602],[12.24543,41.787721],[12.245496,41.787736],[12.246254,41.787914],[12.246336,41.78794],[12.246399,41.787973],[12.246443,41.788011],[12.246476,41.788066],[12.24653,41.788184]]}},{"type":"Feature","properties":{"ref":"B"},"geometry":{"type":"LineString","coordinates":[[12.240859,41.799873],[12.241524,41.800065],[12.242631,41.800372],[12.244409,41.800879],[12.246681,41.801496],[12.247065,41.801598],[12.247395,41.801687],[12.24773,41.801777],[12.248119,41.801869],[12.248204,41.801888],[12.248373,41.801924],[12.248495,41.80195],[12.248913,41.802019],[12.249289,41.80205],[12.24964,41.802044],[12.250026,41.802022],[12.250317,41.802019],[12.250685,41.802044],[12.251052,41.802122],[12.253977,41.802932],[12.254482,41.803078],[12.25481,41.803165],[12.255273,41.803289],[12.260161,41.804635],[12.260683,41.804778],[12.260724,41.80479],[12.260917,41.804843],[12.261107,41.804895],[12.261257,41.804936],[12.261756,41.805074],[12.262237,41.805206],[12.262413,41.805255],[12.262492,41.805277],[12.262696,41.805333]]}},{"type":"Feature","properties":{},"geometry":{"type":"LineString","coordinates":[[12.242225,41.799827],[12.242181,41.799881],[12.24212,41.799935],[12.242028,41.799993],[12.241921,41.800029],[12.241812,41.800059],[12.2417,41.800075],[12.241524,41.800065]]}},{"type":"Feature","properties":{},"geometry":{"type":"LineString","coordinates":[[12.242289,41.799694],[12.242375,41.799614],[12.242466,41.799557],[12.242556,41.799515],[12.242666,41.799492],[12.242779,41.799481],[12.242894,41.799491],[12.243167,41.799543]]}},{"type":"Feature","properties":{},"geometry":{"type":"LineString","coordinates":[[12.243796,41.79932],[12.243738,41.799396],[12.243677,41.799448],[12.243585,41.799495],[12.243509,41.799524],[12.243404,41.799549],[12.243299,41.799553],[12.243167,41.799543]]}},{"type":"Feature","properties":{},"geometry":{"type":"LineString","coordinates":[[12.244185,41.7985],[12.244169,41.798599],[12.24417,41.798662],[12.244182,41.798726],[12.244206,41.798785],[12.244241,41.798839],[12.244281,41.798895],[12.244315,41.798927],[12.244383,41.798981],[12.244463,41.799028]]}},{"type":"Feature","properties":{"ref":"CM"},"geometry":{"type":"LineString","coordinates":[[12.272162,41.808667],[12.27223,41.808907],[12.272249,41.809025],[12.272251,41.809129],[12.272244,41.809204],[12.272227,41.809302],[12.27218,41.809442]]}},{"type":"Feature","properties":{"ref":"B"},"geometry":{"type":"LineString","coordinates":[[12.271444,41.807765],[12.271568,41.807812]]}},{"type":"Feature","properties":{"ref":"CM"},"geometry":{"type":"LineString","coordinates":[[12.271568,41.807812],[12.271699,41.807885],[12.271794,41.807949],[12.271876,41.808026],[12.27195,41.808111],[12.272016,41.80821],[12.27206,41.808329],[12.272162,41.808667]]}},{"type":"Feature","properties":{"ref":"B"},"geometry":{"type":"LineString","coordinates":[[12.23651,41.799156],[12.236604,41.799095],[12.236726,41.799042],[12.236886,41.799009],[12.237062,41.79902],[12.237431,41.799126],[12.237791,41.799226],[12.238455,41.799405],[12.239189,41.799607],[12.239943,41.799814],[12.240076,41.799845],[12.240235,41.799854],[12.24051,41.799827],[12.240687,41.799834],[12.240859,41.799873]]}},{"type":"Feature","properties":{"ref":"BT"},"geometry":{"type":"LineString","coordinates":[[12.240921,41.799146],[12.240832,41.799184],[12.240774,41.799218],[12.240724,41.799252],[12.24068,41.799297],[12.240654,41.799337],[12.240632,41.799376],[12.24053,41.799574],[12.240519,41.799597],[12.240495,41.799647],[12.240417,41.799808],[12.240315,41.800023]]}},{"type":"Feature","properties":{"ref":"BG"},"geometry":{"type":"LineString","coordinates":[[12.240212,41.800204],[12.240218,41.800079],[12.240192,41.800003],[12.240083,41.799889],[12.239943,41.799814]]}},{"type":"Feature","properties":{"ref":"B"},"geometry":{"type":"LineString","coordinates":[[12.237062,41.79902],[12.236879,41.798937],[12.236781,41.798846],[12.23675,41.798763],[12.236723,41.798666]]}},{"type":"Feature","properties":{},"geometry":{"type":"LineString","coordinates":[[12.239943,41.799814],[12.240087,41.79982],[12.240205,41.799815],[12.240281,41.799804],[12.240343,41.799788],[12.240399,41.799759],[12.240433,41.79973],[12.240495,41.799647]]}},{"type":"Feature","properties":{},"geometry":{"type":"LineString","coordinates":[[12.240687,41.799834],[12.240593,41.799796],[12.240533,41.799748],[12.240515,41.799706],[12.240508,41.79965],[12.240519,41.799597]]}},{"type":"Feature","properties":{},"geometry":{"type":"LineString","coordinates":[[12.254905,41.799503],[12.254962,41.799543],[12.255006,41.799565],[12.255057,41.79958],[12.255116,41.799582],[12.255183,41.799575]]}},{"type":"Feature","properties":{},"geometry":{"type":"LineString","coordinates":[[12.254809,41.799707],[12.254856,41.799677],[12.254879,41.799651],[12.254904,41.79961],[12.254912,41.79957],[12.254905,41.799503]]}},{"type":"Feature","properties":{},"geometry":{"type":"LineString","coordinates":[[12.255102,41.79982],[12.255036,41.799752],[12.254992,41.79973],[12.254943,41.799713],[12.254896,41.799702],[12.254809,41.799707]]}},{"type":"Feature","properties":{},"geometry":{"type":"LineString","coordinates":[[12.255559,41.799653],[12.255502,41.799589],[12.255458,41.799565],[12.255399,41.799549],[12.255337,41.799543],[12.25526,41.799548]]}},{"type":"Feature","properties":{},"geometry":{"type":"LineString","coordinates":[[12.255354,41.799335],[12.255408,41.79938],[12.255454,41.799402],[12.255509,41.799417],[12.255562,41.799423],[12.255693,41.799405]]}},{"type":"Feature","properties":{},"geometry":{"type":"LineString","coordinates":[[12.25526,41.799548],[12.255305,41.799519],[12.255335,41.799489],[12.255357,41.799448],[12.255371,41.799403],[12.255354,41.799335]]}},{"type":"Feature","properties":{"ref":"H"},"geometry":{"type":"LineString","coordinates":[[12.261484,41.79785],[12.261406,41.797755],[12.261329,41.79771],[12.261258,41.797671],[12.261191,41.797643],[12.261117,41.797623],[12.261043,41.797609],[12.260955,41.797603],[12.260879,41.797605],[12.260786,41.797616],[12.260689,41.797644]]}},{"type":"Feature","properties":{},"geometry":{"type":"LineString","coordinates":[[12.258019,41.798433],[12.258049,41.798461],[12.258091,41.798482],[12.25814,41.798495],[12.258189,41.798501],[12.258245,41.798506]]}},{"type":"Feature","properties":{},"geometry":{"type":"LineString","coordinates":[[12.257766,41.798677],[12.257839,41.798633],[12.257881,41.798594],[12.257915,41.798545],[12.257939,41.798492],[12.257956,41.798442],[12.257963,41.798399],[12.257963,41.798356]]}},{"type":"Feature","properties":{},"geometry":{"type":"LineString","coordinates":[[12.258283,41.798702],[12.258257,41.798639],[12.258253,41.798596],[12.258269,41.798552],[12.258294,41.798516],[12.258354,41.79847]]}},{"type":"Feature","properties":{},"geometry":{"type":"LineString","coordinates":[[12.243542,41.793416],[12.24341,41.793488]]}},{"type":"Feature","properties":{"ref":"NC"},"geometry":{"type":"LineString","coordinates":[[12.258354,41.79847],[12.258413,41.79842],[12.258434,41.798392],[12.258448,41.798363],[12.258456,41.798323],[12.258451,41.798277],[12.258419,41.798212],[12.258383,41.798149],[12.258336,41.798073],[12.258309,41.798032],[12.258112,41.797718],[12.258026,41.797585],[12.257798,41.797224],[12.257566,41.796852],[12.257332,41.796486],[12.257103,41.796123],[12.256866,41.795751]]}},{"type":"Feature","properties":{"ref":"NC"},"geometry":{"type":"LineString","coordinates":[[12.258383,41.798149],[12.258449,41.798211],[12.258489,41.798237],[12.258551,41.798268],[12.258598,41.798282],[12.258656,41.798293],[12.258721,41.7983],[12.258851,41.798292]]}},{"type":"Feature","properties":{"ref":"NH"},"geometry":{"type":"LineString","coordinates":[[12.260786,41.797616],[12.260887,41.797557],[12.260924,41.797523],[12.260953,41.797487],[12.260979,41.797436],[12.260987,41.797399],[12.260992,41.79734],[12.260975,41.79728],[12.26095,41.79724],[12.260878,41.797126],[12.260578,41.796658],[12.260347,41.796289],[12.260117,41.795923],[12.259887,41.795557],[12.259659,41.795191],[12.25943,41.794824]]}},{"type":"Feature","properties":{"ref":"NH"},"geometry":{"type":"LineString","coordinates":[[12.26095,41.79724],[12.260975,41.79728],[12.261027,41.79736],[12.261072,41.797429],[12.261121,41.797497],[12.261152,41.797531],[12.261246,41.797609],[12.261311,41.797663],[12.261354,41.797699],[12.261406,41.797755],[12.261484,41.79785]]}},{"type":"Feature","properties":{"ref":"NE"},"geometry":{"type":"LineString","coordinates":[[12.260191,41.794582],[12.26019,41.794656],[12.260194,41.794722],[12.260211,41.794782],[12.260235,41.794854],[12.260279,41.794939],[12.26032,41.795004],[12.260549,41.795367],[12.260818,41.795797],[12.260897,41.795927],[12.261042,41.796165],[12.261316,41.796601],[12.261475,41.796856],[12.261508,41.796909],[12.261539,41.79696],[12.261557,41.79702],[12.261558,41.797078],[12.261554,41.797138],[12.261536,41.797202],[12.261509,41.797257],[12.261467,41.797309],[12.26142,41.797363]]}},{"type":"Feature","properties":{"ref":"EC"},"geometry":{"type":"LineString","coordinates":[[12.263289,41.800788],[12.26326,41.80072],[12.263252,41.800672],[12.263253,41.800622],[12.263265,41.800571],[12.263297,41.800489],[12.263367,41.800348],[12.263382,41.800319],[12.263407,41.800268],[12.263596,41.799894],[12.263786,41.799507],[12.263944,41.799183],[12.264054,41.79896],[12.264234,41.798592],[12.264445,41.798161],[12.26462,41.797805],[12.264835,41.797367],[12.265015,41.796998],[12.265198,41.796625]]}},{"type":"Feature","properties":{"ref":"ED"},"geometry":{"type":"LineString","coordinates":[[12.263534,41.801179],[12.264123,41.801341],[12.264166,41.80135],[12.264218,41.801354],[12.264272,41.801347],[12.264324,41.801335],[12.264366,41.801315],[12.264406,41.801292],[12.264435,41.801269],[12.26446,41.801243],[12.264589,41.800983],[12.26481,41.800534],[12.26504,41.800066],[12.26523,41.799682],[12.265292,41.799555],[12.26671,41.796677]]}},{"type":"Feature","properties":{"ref":"EF"},"geometry":{"type":"LineString","coordinates":[[12.267845,41.797191],[12.267668,41.797551],[12.267492,41.797909],[12.267273,41.798355],[12.267088,41.798732],[12.266874,41.799166],[12.266688,41.799545],[12.266516,41.799894],[12.266347,41.800239],[12.266111,41.800703],[12.265997,41.800952],[12.265967,41.800988],[12.26593,41.801023],[12.265883,41.801045],[12.265835,41.801059],[12.265774,41.801064],[12.265726,41.801059],[12.265648,41.801044],[12.265531,41.801009],[12.264951,41.800852],[12.264911,41.800848],[12.264865,41.800849],[12.264817,41.800851],[12.26479,41.800856],[12.264755,41.800866],[12.26471,41.800884],[12.264676,41.800902],[12.264637,41.800928],[12.264589,41.800983]]}},{"type":"Feature","properties":{"ref":"EF"},"geometry":{"type":"LineString","coordinates":[[12.26446,41.801243],[12.264087,41.802019],[12.264082,41.80204],[12.264084,41.802068]]}},{"type":"Feature","properties":{},"geometry":{"type":"LineString","coordinates":[[12.263367,41.800348],[12.263333,41.800381],[12.2633,41.800404],[12.263268,41.800418],[12.263226,41.800428],[12.263182,41.80043],[12.263139,41.800424],[12.263099,41.800414],[12.263066,41.800395],[12.263031,41.80037]]}},{"type":"Feature","properties":{},"geometry":{"type":"LineString","coordinates":[[12.26489,41.799813],[12.264932,41.799834],[12.264962,41.799857],[12.264996,41.799887],[12.265015,41.799914],[12.26503,41.799944],[12.265041,41.799968],[12.265045,41.8],[12.265045,41.80003],[12.26504,41.800066]]}},{"type":"Feature","properties":{},"geometry":{"type":"LineString","coordinates":[[12.26489,41.799813],[12.264923,41.799817],[12.264963,41.79982],[12.265003,41.799815],[12.265048,41.799808],[12.265086,41.799794],[12.265126,41.799776],[12.265159,41.799759],[12.265184,41.799737],[12.265204,41.799717],[12.26523,41.799682]]}},{"type":"Feature","properties":{},"geometry":{"type":"LineString","coordinates":[[12.262957,41.801128],[12.263041,41.801103],[12.263122,41.801098],[12.263223,41.801101],[12.263325,41.801117],[12.263394,41.801139],[12.263534,41.801179]]}},{"type":"Feature","properties":{},"geometry":{"type":"LineString","coordinates":[[12.263394,41.801139],[12.263466,41.801178],[12.263526,41.801219],[12.263601,41.801287]]}},{"type":"Feature","properties":{},"geometry":{"type":"LineString","coordinates":[[12.262957,41.801128],[12.263008,41.801094],[12.26305,41.801054],[12.263103,41.800994],[12.263157,41.800921],[12.263185,41.800846],[12.263195,41.80077],[12.263191,41.800697],[12.263168,41.800593]]}},{"type":"Feature","properties":{"ref":"N"},"geometry":{"type":"LineString","coordinates":[[12.261257,41.803515],[12.261592,41.804067],[12.261622,41.804114],[12.26167,41.80419],[12.261726,41.804278],[12.261767,41.804359],[12.261802,41.804459],[12.261821,41.804593],[12.261827,41.804635],[12.261835,41.80475],[12.261818,41.804894],[12.261788,41.804987],[12.261756,41.805074]]}},{"type":"Feature","properties":{},"geometry":{"type":"LineString","coordinates":[[12.261827,41.804635],[12.261863,41.804741],[12.261913,41.804836],[12.261998,41.804956],[12.262085,41.805043],[12.262203,41.805124],[12.262333,41.805202],[12.262492,41.805277]]}},{"type":"Feature","properties":{},"geometry":{"type":"LineString","coordinates":[[12.260724,41.80479],[12.260916,41.80482],[12.26101,41.804819],[12.261121,41.804805],[12.261227,41.804783],[12.261326,41.80475],[12.261395,41.80471],[12.261473,41.804652],[12.261546,41.80458],[12.261603,41.804516],[12.261643,41.804441],[12.261676,41.804344],[12.26168,41.804272],[12.26167,41.80419]]}},{"type":"Feature","properties":{},"geometry":{"type":"LineString","coordinates":[[12.261622,41.804114],[12.26161,41.804051],[12.261613,41.803992],[12.261625,41.803925],[12.261663,41.803854],[12.261779,41.803659],[12.261909,41.803464],[12.261924,41.803444],[12.261954,41.803404],[12.262004,41.803353]]}},{"type":"Feature","properties":{},"geometry":{"type":"LineString","coordinates":[[12.261779,41.803659],[12.261619,41.803596],[12.261477,41.803535],[12.261383,41.803481],[12.261336,41.80345],[12.261284,41.803416],[12.261195,41.803345],[12.261097,41.803256]]}},{"type":"Feature","properties":{},"geometry":{"type":"LineString","coordinates":[[12.261924,41.803444],[12.261922,41.803494],[12.261939,41.803556],[12.26197,41.803609],[12.262025,41.803672],[12.262108,41.803721],[12.262181,41.803754],[12.2623,41.803803]]}},{"type":"Feature","properties":{},"geometry":{"type":"LineString","coordinates":[[12.261625,41.803925],[12.261688,41.803848],[12.261744,41.803807],[12.261815,41.803762],[12.261874,41.803747],[12.261956,41.803732],[12.262026,41.803727]]}},{"type":"Feature","properties":{"ref":"BC"},"geometry":{"type":"LineString","coordinates":[[12.261756,41.805074],[12.261737,41.805116],[12.261728,41.805174],[12.261724,41.805229],[12.261728,41.805286],[12.26174,41.805332],[12.261758,41.805385],[12.261827,41.805493],[12.261866,41.805547],[12.261954,41.805673],[12.262048,41.80582],[12.262084,41.805892],[12.26211,41.805951],[12.262131,41.806027],[12.262137,41.806117],[12.262129,41.806199],[12.262115,41.806267],[12.262085,41.80634],[12.262017,41.806507]]}},{"type":"Feature","properties":{"ref":"BD"},"geometry":{"type":"LineString","coordinates":[[12.261257,41.804936],[12.261311,41.804972],[12.261384,41.805022],[12.261448,41.805079],[12.261499,41.805141],[12.261541,41.805199],[12.261567,41.805269],[12.261583,41.805368],[12.261584,41.805433],[12.261576,41.805499],[12.261532,41.805608],[12.26123,41.806324]]}},{"type":"Feature","properties":{},"geometry":{"type":"LineString","coordinates":[[12.261257,41.804936],[12.261329,41.804967],[12.261373,41.804992],[12.261443,41.805039],[12.261495,41.805082],[12.261556,41.805133],[12.261634,41.805225],[12.261695,41.805306],[12.261758,41.805385]]}},{"type":"Feature","properties":{},"geometry":{"type":"LineString","coordinates":[[12.261576,41.805499],[12.261756,41.805074]]}},{"type":"Feature","properties":{},"geometry":{"type":"LineString","coordinates":[[12.262237,41.805206],[12.262201,41.805201],[12.262168,41.805202],[12.262128,41.805207],[12.26208,41.805221],[12.262033,41.805239],[12.261989,41.805259],[12.261949,41.805289],[12.261917,41.805318],[12.26189,41.805351],[12.26187,41.805388],[12.261858,41.805426],[12.261854,41.805462],[12.261855,41.805501],[12.261866,41.805547]]}}]}