{
"type": "FeatureCollection",
"name": "aprons",
"crs": { "type": "name", "properties": { "name": "urn:ogc:def:crs:OGC:1.3:CRS84" } },
"features": [
{"type":"Feature","properties":{"id":"way/33313131","@id":"way/33313131","abandoned":null,"access":null,"addr:city":null,"addr:housenumber":null,"addr:postcode":null,"addr:street":null,"addr:suburb":null,"aerodrome":null,"aerodrome:type":null,"aeroway":"apron","air_conditioning":null,"amenity":null,"archaeological_site":null,"baby_feeding":null,"barrier":null,"bicycle":null,"branch":null,"brand":null,"brand:wikidata":null,"brand:wikipedia":null,"bridge":null,"building":null,"building:colour":null,"building:height":null,"building:levels":null,"changing_table":null,"check_date":null,"check_date:opening_hours":null,"city_served":null,"compressed_air":null,"contact:email":null,"contact:phone":null,"contact:website":null,"content":null,"covered":null,"created_by":null,"cuisine":null,"cutting":null,"denomination":null,"description":null,"drinking_water":null,"ele":null,"email":null,"emergency":null,"fee":null,"female":null,"fixme":null,"foot":null,"fuel:diesel":null,"fuel:lpg":null,"fuel:octane_95":null,"healthcare":null,"height":null,"highway":null,"historic":null,"historic:civilization":null,"holding_position:type":null,"horse":null,"iata":null,"icao":null,"indoor":null,"internet_access":null,"landuse":null,"lanes":null,"layer":null,"leisure":null,"length":null,"level":null,"lit":null,"local_ref":null,"male":null,"man_made":null,"maxheight":null,"maxheight:signed":null,"maxspeed":null,"maxweight:signed":null,"min_height":null,"motor_vehicle":null,"motorcar":null,"museum":null,"music":null,"name":null,"name:ar":null,"name:bg":null,"name:de":null,"name:en":null,"name:es":null,"name:etymology:wikidata":null,"name:fa":null,"name:it":null,"name:ko":null,"name:ru":null,"name:signed":null,"navigationaid":null,"network":null,"nobrand":null,"note":null,"office":null,"official_name":null,"official_name:it":null,"official_name:ru":null,"old_name":null,"oneway":null,"opening_hours":null,"operator":null,"operator:wikidata":null,"operator:wikipedia":null,"parking":null,"passengers":null,"payment:cash":null,"payment:credit_cards":null,"payment:mastercard":null,"payment:visa":null,"phone":null,"psv":null,"public_transport":null,"railway":null,"ref":null,"ref:mise":null,"religion":null,"roof:colour":null,"roof:height":null,"roof:levels":null,"roof:shape":null,"ruins":null,"runway":null,"self_service":null,"service":null,"shelter_type":null,"shop":null,"short_operator":null,"sidewalk":null,"smoothness":null,"source":null,"source:date":null,"start_date":null,"surface":null,"takeaway":null,"taxi":null,"toilets":null,"toilets:disposal":null,"toilets:wheelchair":null,"tourism":null,"tourist_bus":null,"tower:type":null,"tracktype":null,"train":null,"tunnel":null,"type":null,"website":null,"website_1":null,"wheelchair":null,"width":null,"wikidata":null,"wikimedia_commons":null,"wikipedia":null},"geometry":{"type":"Polygon","coordinates":[[[12.244423,41.7940833],[12.2443193,41.7940428],[12.2442582,41.7939989],[12.2441384,41.7936696],[12.2441194,41.7935193],[12.2441736,41.7932317],[12.244256,41.7929557],[12.244428,41.7924914],[12.2447505,41.7917484],[12.2470202,41.7920977],[12.2477687,41.7924997],[12.2480685,41.7932357],[12.2477029,41.7943846],[12.2474077,41.7943282],[12.2468311,41.794218],[12.2465035,41.7941554],[12.2461402,41.794095],[12.2454745,41.7939844],[12.2452343,41.7939433],[12.2451503,41.7941754],[12.244423,41.7940833]]]}},
{"type":"Feature","properties":{"id":"way/33313134","@id":"way/33313134","abandoned":null,"access":null,"addr:city":null,"addr:housenumber":null,"addr:postcode":null,"addr:street":null,"addr:suburb":null,"aerodrome":null,"aerodrome:type":null,"aeroway":"apron","air_conditioning":null,"amenity":null,"archaeological_site":null,"baby_feeding":null,"barrier":null,"bicycle":null,"branch":null,"brand":null,"brand:wikidata":null,"brand:wikipedia":null,"bridge":null,"building":null,"building:colour":null,"building:height":null,"building:levels":null,"changing_table":null,"check_date":null,"check_date:opening_hours":null,"city_served":null,"compressed_air":null,"contact:email":null,"contact:phone":null,"contact:website":null,"content":null,"covered":null,"created_by":null,"cuisine":null,"cutting":null,"denomination":null,"description":null,"drinking_water":null,"ele":null,"email":null,"emergency":null,"fee":null,"female":null,"fixme":null,"foot":null,"fuel:diesel":null,"fuel:lpg":null,"fuel:octane_95":null,"healthcare":null,"height":null,"highway":null,"historic":null,"historic:civilization":null,"holding_position:type":null,"horse":null,"iata":null,"icao":null,"indoor":null,"internet_access":null,"landuse":null,"lanes":null,"layer":null,"leisure":null,"length":null,"level":null,"lit":null,"local_ref":null,"male":null,"man_made":null,"maxheight":null,"maxheight:signed":null,"maxspeed":null,"maxweight:signed":null,"min_height":null,"motor_vehicle":null,"motorcar":null,"museum":null,"music":null,"name":null,"name:ar":null,"name:bg":null,"name:de":null,"name:en":null,"name:es":null,"name:etymology:wikidata":null,"name:fa":null,"name:it":null,"name:ko":null,"name:ru":null,"name:signed":null,"navigationaid":null,"network":null,"nobrand":null,"note":null,"office":null,"official_name":null,"official_name:it":null,"official_name:ru":null,"old_name":null,"oneway":null,"opening_hours":null,"operator":null,"operator:wikidata":null,"operator:wikipedia":null,"parking":null,"passengers":null,"payment:cash":null,"payment:credit_cards":null,"payment:mastercard":null,"payment:visa":null,"phone":null,"psv":null,"public_transport":null,"railway":null,"ref":null,"ref:mise":null,"religion":null,"roof:colour":null,"roof:height":null,"roof:levels":null,"roof:shape":null,"ruins":null,"runway":null,"self_service":null,"service":null,"shelter_type":null,"shop":null,"short_operator":null,"sidewalk":null,"smoothness":null,"source":null,"source:date":null,"start_date":null,"surface":null,"takeaway":null,"taxi":null,"toilets":null,"toilets:disposal":null,"toilets:wheelchair":null,"tourism":null,"tourist_bus":null,"tower:type":null,"tracktype":null,"train":null,"tunnel":null,"type":null,"website":null,"website_1":null,"wheelchair":null,"width":null,"wikidata":null,"wikimedia_commons":null,"wikipedia":null},"geometry":{"type":"Polygon","coordinates":[[[12.2415354,41.7925995],[12.2427504,41.7900919],[12.2438703,41.7904362],[12.2444585,41.7906205],[12.2444778,41.7907516],[12.2440547,41.7916593],[12.2437534,41.7922755],[12.2433918,41.7930612],[12.2432689,41.7931156],[12.2415354,41.7925995]]]}},
{"type":"Feature","properties":{"id":"way/33313140","@id":"way/33313140","abandoned":null,"access":null,"addr:city":null,"addr:housenumber":null,"addr:postcode":null,"addr:street":null,"addr:suburb":null,"aerodrome":null,"aerodrome:type":null,"aeroway":"apron","air_conditioning":null,"amenity":null,"archaeological_site":null,"baby_feeding":null,"barrier":null,"bicycle":null,"branch":null,"brand":null,"brand:wikidata":null,"brand:wikipedia":null,"bridge":null,"building":null,"building:colour":null,"building:height":null,"building:levels":null,"changing_table":null,"check_date":null,"check_date:opening_hours":null,"city_served":null,"compressed_air":null,"contact:email":null,"contact:phone":null,"contact:website":null,"content":null,"covered":null,"created_by":null,"cuisine":null,"cutting":null,"denomination":null,"description":null,"drinking_water":null,"ele":null,"email":null,"emergency":null,"fee":null,"female":null,"fixme":null,"foot":null,"fuel:diesel":null,"fuel:lpg":null,"fuel:octane_95":null,"healthcare":null,"height":null,"highway":null,"historic":null,"historic:civilization":null,"holding_position:type":null,"horse":null,"iata":null,"icao":null,"indoor":null,"internet_access":null,"landuse":null,"lanes":null,"layer":null,"leisure":null,"length":null,"level":null,"lit":null,"local_ref":null,"male":null,"man_made":null,"maxheight":null,"maxheight:signed":null,"maxspeed":null,"maxweight:signed":null,"min_height":null,"motor_vehicle":null,"motorcar":null,"museum":null,"music":null,"name":null,"name:ar":null,"name:bg":null,"name:de":null,"name:en":null,"name:es":null,"name:etymology:wikidata":null,"name:fa":null,"name:it":null,"name:ko":null,"name:ru":null,"name:signed":null,"navigationaid":null,"network":null,"nobrand":null,"note":null,"office":null,"official_name":null,"official_name:it":null,"official_name:ru":null,"old_name":null,"oneway":null,"opening_hours":null,"operator":null,"operator:wikidata":null,"operator:wikipedia":null,"parking":null,"passengers":null,"payment:cash":null,"payment:credit_cards":null,"payment:mastercard":null,"payment:visa":null,"phone":null,"psv":null,"public_transport":null,"railway":null,"ref":null,"ref:mise":null,"religion":null,"roof:colour":null,"roof:height":null,"roof:levels":null,"roof:shape":null,"ruins":null,"runway":null,"self_service":null,"service":null,"shelter_type":null,"shop":null,"short_operator":null,"sidewalk":null,"smoothness":null,"source":null,"source:date":null,"start_date":null,"surface":null,"takeaway":null,"taxi":null,"toilets":null,"toilets:disposal":null,"toilets:wheelchair":null,"tourism":null,"tourist_bus":null,"tower:type":null,"tracktype":null,"train":null,"tunnel":null,"type":null,"website":null,"website_1":null,"wheelchair":null,"width":null,"wikidata":null,"wikimedia_commons":null,"wikipedia":null},"geometry":{"type":"Polygon","coordinates":[[[12.2434825,41.7947467],[12.2432837,41.7951082],[12.2426358,41.7953128],[12.2414138,41.794979],[12.2407802,41.7962623],[12.2424656,41.7967225],[12.2429136,41.7958134],[12.2429275,41.7958048],[12.2429429,41.795797],[12.2429595,41.7957896],[12.242978,41.795782],[12.2441697,41.7953609],[12.2430596,41.7976726],[12.239773,41.7967683],[12.2396506,41.7966628],[12.2396523,41.7964891],[12.2407837,41.7942384],[12.2410046,41.7941447],[12.2412004,41.7941616],[12.2434825,41.7947467]]]}},
{"type":"Feature","properties":{"id":"way/163147088","@id":"way/163147088","abandoned":null,"access":null,"addr:city":null,"addr:housenumber":null,"addr:postcode":null,"addr:street":null,"addr:suburb":null,"aerodrome":null,"aerodrome:type":null,"aeroway":"apron","air_conditioning":null,"amenity":null,"archaeological_site":null,"baby_feeding":null,"barrier":null,"bicycle":null,"branch":null,"brand":null,"brand:wikidata":null,"brand:wikipedia":null,"bridge":null,"building":null,"building:colour":null,"building:height":null,"building:levels":null,"changing_table":null,"check_date":null,"check_date:opening_hours":null,"city_served":null,"compressed_air":null,"contact:email":null,"contact:phone":null,"contact:website":null,"content":null,"covered":null,"created_by":null,"cuisine":null,"cutting":null,"denomination":null,"description":null,"drinking_water":null,"ele":null,"email":null,"emergency":null,"fee":null,"female":null,"fixme":null,"foot":null,"fuel:diesel":null,"fuel:lpg":null,"fuel:octane_95":null,"healthcare":null,"height":null,"highway":null,"historic":null,"historic:civilization":null,"holding_position:type":null,"horse":null,"iata":null,"icao":null,"indoor":null,"internet_access":null,"landuse":null,"lanes":null,"layer":null,"leisure":null,"length":null,"level":null,"lit":null,"local_ref":null,"male":null,"man_made":null,"maxheight":null,"maxheight:signed":null,"maxspeed":null,"maxweight:signed":null,"min_height":null,"motor_vehicle":null,"motorcar":null,"museum":null,"music":null,"name":null,"name:ar":null,"name:bg":null,"name:de":null,"name:en":null,"name:es":null,"name:etymology:wikidata":null,"name:fa":null,"name:it":null,"name:ko":null,"name:ru":null,"name:signed":null,"navigationaid":null,"network":null,"nobrand":null,"note":null,"office":null,"official_name":null,"official_name:it":null,"official_name:ru":null,"old_name":null,"oneway":null,"opening_hours":null,"operator":null,"operator:wikidata":null,"operator:wikipedia":null,"parking":null,"passengers":null,"payment:cash":null,"payment:credit_cards":null,"payment:mastercard":null,"payment:visa":null,"phone":null,"psv":null,"public_transport":null,"railway":null,"ref":null,"ref:mise":null,"religion":null,"roof:colour":null,"roof:height":null,"roof:levels":null,"roof:shape":null,"ruins":null,"runway":null,"self_service":null,"service":null,"shelter_type":null,"shop":null,"short_operator":null,"sidewalk":null,"smoothness":null,"source":null,"source:date":null,"start_date":null,"surface":null,"takeaway":null,"taxi":null,"toilets":null,"toilets:disposal":null,"toilets:wheelchair":null,"tourism":null,"tourist_bus":null,"tower:type":null,"tracktype":null,"train":null,"tunnel":null,"type":null,"website":null,"website_1":null,"wheelchair":null,"width":null,"wikidata":null,"wikimedia_commons":null,"wikipedia":null},"geometry":{"type":"Polygon","coordinates":[[[12.2471163,41.7899807],[12.2464987,41.7899264],[12.2469036,41.7874451],[12.2474102,41.7874845],[12.2474967,41.7875739],[12.2471163,41.7899807]]]}},
{"type":"Feature","properties":{"id":"way/163148475","@id":"way/163148475","abandoned":null,"access":null,"addr:city":null,"addr:housenumber":null,"addr:postcode":null,"addr:street":null,"addr:suburb":null,"aerodrome":null,"aerodrome:type":null,"aeroway":"apron","air_conditioning":null,"amenity":null,"archaeological_site":null,"baby_feeding":null,"barrier":null,"bicycle":null,"branch":null,"brand":null,"brand:wikidata":null,"brand:wikipedia":null,"bridge":null,"building":null,"building:colour":null,"building:height":null,"building:levels":null,"changing_table":null,"check_date":null,"check_date:opening_hours":null,"city_served":null,"compressed_air":null,"contact:email":null,"contact:phone":null,"contact:website":null,"content":null,"covered":null,"created_by":null,"cuisine":null,"cutting":null,"denomination":null,"description":null,"drinking_water":null,"ele":null,"email":null,"emergency":null,"fee":null,"female":null,"fixme":null,"foot":null,"fuel:diesel":null,"fuel:lpg":null,"fuel:octane_95":null,"healthcare":null,"height":null,"highway":null,"historic":null,"historic:civilization":null,"holding_position:type":null,"horse":null,"iata":null,"icao":null,"indoor":null,"internet_access":null,"landuse":null,"lanes":null,"layer":null,"leisure":null,"length":null,"level":null,"lit":null,"local_ref":null,"male":null,"man_made":null,"maxheight":null,"maxheight:signed":null,"maxspeed":null,"maxweight:signed":null,"min_height":null,"motor_vehicle":null,"motorcar":null,"museum":null,"music":null,"name":null,"name:ar":null,"name:bg":null,"name:de":null,"name:en":null,"name:es":null,"name:etymology:wikidata":null,"name:fa":null,"name:it":null,"name:ko":null,"name:ru":null,"name:signed":null,"navigationaid":null,"network":null,"nobrand":null,"note":null,"office":null,"official_name":null,"official_name:it":null,"official_name:ru":null,"old_name":null,"oneway":null,"opening_hours":null,"operator":null,"operator:wikidata":null,"operator:wikipedia":null,"parking":null,"passengers":null,"payment:cash":null,"payment:credit_cards":null,"payment:mastercard":null,"payment:visa":null,"phone":null,"psv":null,"public_transport":null,"railway":null,"ref":null,"ref:mise":null,"religion":null,"roof:colour":null,"roof:height":null,"roof:levels":null,"roof:shape":null,"ruins":null,"runway":null,"self_service":null,"service":null,"shelter_type":null,"shop":null,"short_operator":null,"sidewalk":null,"smoothness":null,"source":null,"source:date":null,"start_date":null,"surface":null,"takeaway":null,"taxi":null,"toilets":null,"toilets:disposal":null,"toilets:wheelchair":null,"tourism":null,"tourist_bus":null,"tower:type":null,"tracktype":null,"train":null,"tunnel":null,"type":null,"website":null,"website_1":null,"wheelchair":null,"width":null,"wikidata":null,"wikimedia_commons":null,"wikipedia":null},"geometry":{"type":"Polygon","coordinates":[[[12.2651747,41.800655],[12.2670521,41.7967611],[12.2676718,41.7969357],[12.2658641,41.8006337],[12.2657721,41.8007713],[12.2656758,41.8008018],[12.2651747,41.800655]]]}},
{"type":"Feature","properties":{"id":"way/494925229","@id":"way/494925229","abandoned":null,"access":null,"addr:city":null,"addr:housenumber":null,"addr:postcode":null,"addr:street":null,"addr:suburb":null,"aerodrome":null,"aerodrome:type":null,"aeroway":"apron","air_conditioning":null,"amenity":null,"archaeological_site":null,"baby_feeding":null,"barrier":null,"bicycle":null,"branch":null,"brand":null,"brand:wikidata":null,"brand:wikipedia":null,"bridge":null,"building":null,"building:colour":null,"building:height":null,"building:levels":null,"changing_table":null,"check_date":null,"check_date:opening_hours":null,"city_served":null,"compressed_air":null,"contact:email":null,"contact:phone":null,"contact:website":null,"content":null,"covered":null,"created_by":null,"cuisine":null,"cutting":null,"denomination":null,"description":null,"drinking_water":null,"ele":null,"email":null,"emergency":null,"fee":null,"female":null,"fixme":null,"foot":null,"fuel:diesel":null,"fuel:lpg":null,"fuel:octane_95":null,"healthcare":null,"height":null,"highway":null,"historic":null,"historic:civilization":null,"holding_position:type":null,"horse":null,"iata":null,"icao":null,"indoor":null,"internet_access":null,"landuse":null,"lanes":null,"layer":null,"leisure":null,"length":null,"level":null,"lit":null,"local_ref":null,"male":null,"man_made":null,"maxheight":null,"maxheight:signed":null,"maxspeed":null,"maxweight:signed":null,"min_height":null,"motor_vehicle":null,"motorcar":null,"museum":null,"music":null,"name":null,"name:ar":null,"name:bg":null,"name:de":null,"name:en":null,"name:es":null,"name:etymology:wikidata":null,"name:fa":null,"name:it":null,"name:ko":null,"name:ru":null,"name:signed":null,"navigationaid":null,"network":null,"nobrand":null,"note":null,"office":null,"official_name":null,"official_name:it":null,"official_name:ru":null,"old_name":null,"oneway":null,"opening_hours":null,"operator":null,"operator:wikidata":null,"operator:wikipedia":null,"parking":null,"passengers":null,"payment:cash":null,"payment:credit_cards":null,"payment:mastercard":null,"payment:visa":null,"phone":null,"psv":null,"public_transport":null,"railway":null,"ref":null,"ref:mise":null,"religion":null,"roof:colour":null,"roof:height":null,"roof:levels":null,"roof:shape":null,"ruins":null,"runway":null,"self_service":null,"service":null,"shelter_type":null,"shop":null,"short_operator":null,"sidewalk":null,"smoothness":null,"source":null,"source:date":null,"start_date":null,"surface":null,"takeaway":null,"taxi":null,"toilets":null,"toilets:disposal":null,"toilets:wheelchair":null,"tourism":null,"tourist_bus":null,"tower:type":null,"tracktype":null,"train":null,"tunnel":null,"type":null,"website":null,"website_1":null,"wheelchair":null,"width":null,"wikidata":null,"wikimedia_commons":null,"wikipedia":null},"geometry":{"type":"Polygon","coordinates":[[[12.2474693,41.7981497],[12.2484459,41.7961702],[12.2494166,41.796456],[12.2480479,41.7992373],[12.2479823,41.7993177],[12.2479327,41.799362],[12.2478729,41.7993894],[12.2478052,41.7993894],[12.247728,41.799375],[12.2453058,41.7987003],[12.245175,41.7986615],[12.2451055,41.7986263],[12.245043,41.7985885],[12.2449591,41.7984996],[12.2449152,41.7983925],[12.2449123,41.7982687],[12.2449469,41.7981854],[12.2464613,41.7950871],[12.2474537,41.7953439],[12.2473279,41.7956032],[12.2471462,41.7959778],[12.2469506,41.796381],[12.2467798,41.7967331],[12.2465915,41.7971214],[12.2463949,41.7975267],[12.2462697,41.7977797],[12.2462713,41.7978563],[12.2463079,41.797928],[12.2463751,41.797986],[12.2471794,41.798212],[12.2472581,41.7982223],[12.2473374,41.7982147],[12.24741,41.7981897],[12.2474693,41.7981497]]]}},
{"type":"Feature","properties":{"id":"way/495042175","@id":"way/495042175","abandoned":null,"access":null,"addr:city":null,"addr:housenumber":null,"addr:postcode":null,"addr:street":null,"addr:suburb":null,"aerodrome":null,"aerodrome:type":null,"aeroway":"apron","air_conditioning":null,"amenity":null,"archaeological_site":null,"baby_feeding":null,"barrier":null,"bicycle":null,"branch":null,"brand":null,"brand:wikidata":null,"brand:wikipedia":null,"bridge":null,"building":null,"building:colour":null,"building:height":null,"building:levels":null,"changing_table":null,"check_date":null,"check_date:opening_hours":null,"city_served":null,"compressed_air":null,"contact:email":null,"contact:phone":null,"contact:website":null,"content":null,"covered":null,"created_by":null,"cuisine":null,"cutting":null,"denomination":null,"description":null,"drinking_water":null,"ele":null,"email":null,"emergency":null,"fee":null,"female":null,"fixme":null,"foot":null,"fuel:diesel":null,"fuel:lpg":null,"fuel:octane_95":null,"healthcare":null,"height":null,"highway":null,"historic":null,"historic:civilization":null,"holding_position:type":null,"horse":null,"iata":null,"icao":null,"indoor":null,"internet_access":null,"landuse":null,"lanes":null,"layer":null,"leisure":null,"length":null,"level":null,"lit":null,"local_ref":null,"male":null,"man_made":null,"maxheight":null,"maxheight:signed":null,"maxspeed":null,"maxweight:signed":null,"min_height":null,"motor_vehicle":null,"motorcar":null,"museum":null,"music":null,"name":null,"name:ar":null,"name:bg":null,"name:de":null,"name:en":null,"name:es":null,"name:etymology:wikidata":null,"name:fa":null,"name:it":null,"name:ko":null,"name:ru":null,"name:signed":null,"navigationaid":null,"network":null,"nobrand":null,"note":null,"office":null,"official_name":null,"official_name:it":null,"official_name:ru":null,"old_name":null,"oneway":null,"opening_hours":null,"operator":null,"operator:wikidata":null,"operator:wikipedia":null,"parking":null,"passengers":null,"payment:cash":null,"payment:credit_cards":null,"payment:mastercard":null,"payment:visa":null,"phone":null,"psv":null,"public_transport":null,"railway":null,"ref":null,"ref:mise":null,"religion":null,"roof:colour":null,"roof:height":null,"roof:levels":null,"roof:shape":null,"ruins":null,"runway":null,"self_service":null,"service":null,"shelter_type":null,"shop":null,"short_operator":null,"sidewalk":null,"smoothness":null,"source":null,"source:date":null,"start_date":null,"surface":null,"takeaway":null,"taxi":null,"toilets":null,"toilets:disposal":null,"toilets:wheelchair":null,"tourism":null,"tourist_bus":null,"tower:type":null,"tracktype":null,"train":null,"tunnel":null,"type":null,"website":null,"website_1":null,"wheelchair":null,"width":null,"wikidata":null,"wikimedia_commons":null,"wikipedia":null},"geometry":{"type":"Polygon","coordinates":[[[12.2415113,41.7888741],[12.2418585,41.7881551],[12.2428119,41.7884233],[12.2442201,41.7888233],[12.2442922,41.7888554],[12.2443487,41.7889035],[12.2440276,41.789552],[12.2415113,41.7888741]]]}},
{"type":"Feature","properties":{"id":"way/634135586","@id":"way/634135586","abandoned":null,"access":null,"addr:city":null,"addr:housenumber":null,"addr:postcode":null,"addr:street":null,"addr:suburb":null,"aerodrome":null,"aerodrome:type":null,"aeroway":"apron","air_conditioning":null,"amenity":null,"archaeological_site":null,"baby_feeding":null,"barrier":null,"bicycle":null,"branch":null,"brand":null,"brand:wikidata":null,"brand:wikipedia":null,"bridge":null,"building":null,"building:colour":null,"building:height":null,"building:levels":null,"changing_table":null,"check_date":null,"check_date:opening_hours":null,"city_served":null,"compressed_air":null,"contact:email":null,"contact:phone":null,"contact:website":null,"content":null,"covered":null,"created_by":null,"cuisine":null,"cutting":null,"denomination":null,"description":null,"drinking_water":null,"ele":null,"email":null,"emergency":null,"fee":null,"female":null,"fixme":null,"foot":null,"fuel:diesel":null,"fuel:lpg":null,"fuel:octane_95":null,"healthcare":null,"height":null,"highway":null,"historic":null,"historic:civilization":null,"holding_position:type":null,"horse":null,"iata":null,"icao":null,"indoor":null,"internet_access":null,"landuse":null,"lanes":null,"layer":null,"leisure":null,"length":null,"level":null,"lit":null,"local_ref":null,"male":null,"man_made":null,"maxheight":null,"maxheight:signed":null,"maxspeed":null,"maxweight:signed":null,"min_height":null,"motor_vehicle":null,"motorcar":null,"museum":null,"music":null,"name":null,"name:ar":null,"name:bg":null,"name:de":null,"name:en":null,"name:es":null,"name:etymology:wikidata":null,"name:fa":null,"name:it":null,"name:ko":null,"name:ru":null,"name:signed":null,"navigationaid":null,"network":null,"nobrand":null,"note":null,"office":null,"official_name":null,"official_name:it":null,"official_name:ru":null,"old_name":null,"oneway":null,"opening_hours":null,"operator":null,"operator:wikidata":null,"operator:wikipedia":null,"parking":null,"passengers":null,"payment:cash":null,"payment:credit_cards":null,"payment:mastercard":null,"payment:visa":null,"phone":null,"psv":null,"public_transport":null,"railway":null,"ref":"Area Manutenzione","ref:mise":null,"religion":null,"roof:colour":null,"roof:height":null,"roof:levels":null,"roof:shape":null,"ruins":null,"runway":null,"self_service":null,"service":null,"shelter_type":null,"shop":null,"short_operator":null,"sidewalk":null,"smoothness":null,"source":null,"source:date":null,"start_date":null,"surface":"concrete","takeaway":null,"taxi":null,"toilets":null,"toilets:disposal":null,"toilets:wheelchair":null,"tourism":null,"tourist_bus":null,"tower:type":null,"tracktype":null,"train":null,"tunnel":null,"type":null,"website":null,"website_1":null,"wheelchair":null,"width":null,"wikidata":null,"wikimedia_commons":null,"wikipedia":null},"geometry":{"type":"Polygon","coordinates":[[[12.2621847,41.7979043],[12.2619686,41.7975835],[12.2620446,41.797555],[12.262187,41.7975014],[12.262292,41.7972726],[12.2629286,41.7970459],[12.2631714,41.796872],[12.263408,41.7965642],[12.2634371,41.7965264],[12.264123,41.7968099],[12.263725,41.7973364],[12.2621847,41.7979043]]]}},
{"type":"Feature","properties":{"id":"way/786981242","@id":"way/786981242","abandoned":null,"access":null,"addr:city":null,"addr:housenumber":null,"addr:postcode":null,"addr:street":null,"addr:suburb":null,"aerodrome":null,"aerodrome:type":null,"aeroway":"apron","air_conditioning":null,"amenity":null,"archaeological_site":null,"baby_feeding":null,"barrier":null,"bicycle":null,"branch":null,"brand":null,"brand:wikidata":null,"brand:wikipedia":null,"bridge":null,"building":null,"building:colour":null,"building:height":null,"building:levels":null,"changing_table":null,"check_date":null,"check_date:opening_hours":null,"city_served":null,"compressed_air":null,"contact:email":null,"contact:phone":null,"contact:website":null,"content":null,"covered":null,"created_by":null,"cuisine":null,"cutting":null,"denomination":null,"description":null,"drinking_water":null,"ele":null,"email":null,"emergency":null,"fee":null,"female":null,"fixme":null,"foot":null,"fuel:diesel":null,"fuel:lpg":null,"fuel:octane_95":null,"healthcare":null,"height":null,"highway":null,"historic":null,"historic:civilization":null,"holding_position:type":null,"horse":null,"iata":null,"icao":null,"indoor":null,"internet_access":null,"landuse":null,"lanes":null,"layer":null,"leisure":null,"length":null,"level":null,"lit":null,"local_ref":null,"male":null,"man_made":null,"maxheight":null,"maxheight:signed":null,"maxspeed":null,"maxweight:signed":null,"min_height":null,"motor_vehicle":null,"motorcar":null,"museum":null,"music":null,"name":null,"name:ar":null,"name:bg":null,"name:de":null,"name:en":null,"name:es":null,"name:etymology:wikidata":null,"name:fa":null,"name:it":null,"name:ko":null,"name:ru":null,"name:signed":null,"navigationaid":null,"network":null,"nobrand":null,"note":null,"office":null,"official_name":null,"official_name:it":null,"official_name:ru":null,"old_name":null,"oneway":null,"opening_hours":null,"operator":null,"operator:wikidata":null,"operator:wikipedia":null,"parking":null,"passengers":null,"payment:cash":null,"payment:credit_cards":null,"payment:mastercard":null,"payment:visa":null,"phone":null,"psv":null,"public_transport":null,"railway":null,"ref":null,"ref:mise":null,"religion":null,"roof:colour":null,"roof:height":null,"roof:levels":null,"roof:shape":null,"ruins":null,"runway":null,"self_service":null,"service":null,"shelter_type":null,"shop":null,"short_operator":null,"sidewalk":null,"smoothness":null,"source":null,"source:date":null,"start_date":null,"surface":null,"takeaway":null,"taxi":null,"toilets":null,"toilets:disposal":null,"toilets:wheelchair":null,"tourism":null,"tourist_bus":null,"tower:type":null,"tracktype":null,"train":null,"tunnel":null,"type":null,"website":null,"website_1":null,"wheelchair":null,"width":null,"wikidata":null,"wikimedia_commons":null,"wikipedia":null},"geometry":{"type":"Polygon","coordinates":[[[12.2423524,41.7874061],[12.2456286,41.788173],[12.2453299,41.788903],[12.2420506,41.7881293],[12.2423524,41.7874061]]]}},
{"type":"Feature","properties":{"id":"way/786981243","@id":"way/786981243","abandoned":null,"access":null,"addr:city":null,"addr:housenumber":null,"addr:postcode":null,"addr:street":null,"addr:suburb":null,"aerodrome":null,"aerodrome:type":null,"aeroway":"apron","air_conditioning":null,"amenity":null,"archaeological_site":null,"baby_feeding":null,"barrier":null,"bicycle":null,"branch":null,"brand":null,"brand:wikidata":null,"brand:wikipedia":null,"bridge":null,"building":null,"building:colour":null,"building:height":null,"building:levels":null,"changing_table":null,"check_date":null,"check_date:opening_hours":null,"city_served":null,"compressed_air":null,"contact:email":null,"contact:phone":null,"contact:website":null,"content":null,"covered":null,"created_by":null,"cuisine":null,"cutting":null,"denomination":null,"description":null,"drinking_water":null,"ele":null,"email":null,"emergency":null,"fee":null,"female":null,"fixme":null,"foot":null,"fuel:diesel":null,"fuel:lpg":null,"fuel:octane_95":null,"healthcare":null,"height":null,"highway":null,"historic":null,"historic:civilization":null,"holding_position:type":null,"horse":null,"iata":null,"icao":null,"indoor":null,"internet_access":null,"landuse":null,"lanes":null,"layer":null,"leisure":null,"length":null,"level":null,"lit":null,"local_ref":null,"male":null,"man_made":null,"maxheight":null,"maxheight:signed":null,"maxspeed":null,"maxweight:signed":null,"min_height":null,"motor_vehicle":null,"motorcar":null,"museum":null,"music":null,"name":null,"name:ar":null,"name:bg":null,"name:de":null,"name:en":null,"name:es":null,"name:etymology:wikidata":null,"name:fa":null,"name:it":null,"name:ko":null,"name:ru":null,"name:signed":null,"navigationaid":null,"network":null,"nobrand":null,"note":null,"office":null,"official_name":null,"official_name:it":null,"official_name:ru":null,"old_name":null,"oneway":null,"opening_hours":null,"operator":null,"operator:wikidata":null,"operator:wikipedia":null,"parking":null,"passengers":null,"payment:cash":null,"payment:credit_cards":null,"payment:mastercard":null,"payment:visa":null,"phone":null,"psv":null,"public_transport":null,"railway":null,"ref":null,"ref:mise":null,"religion":null,"roof:colour":null,"roof:height":null,"roof:levels":null,"roof:shape":null,"ruins":null,"runway":null,"self_service":null,"service":null,"shelter_type":null,"shop":null,"short_operator":null,"sidewalk":null,"smoothness":null,"source":null,"source:date":null,"start_date":null,"surface":null,"takeaway":null,"taxi":null,"toilets":null,"toilets:disposal":null,"toilets:wheelchair":null,"tourism":null,"tourist_bus":null,"tower:type":null,"tracktype":null,"train":null,"tunnel":null,"type":null,"website":null,"website_1":null,"wheelchair":null,"width":null,"wikidata":null,"wikimedia_commons":null,"wikipedia":null},"geometry":{"type":"Polygon","coordinates":[[[12.2426598,41.7866762],[12.2429675,41.7859469],[12.2444272,41.7862893],[12.2442969,41.7865983],[12.2458552,41.7869635],[12.2457897,41.7871189],[12.2459276,41.7871512],[12.2458156,41.7874165],[12.2426598,41.7866762]]]}},
{"type":"Feature","properties":{"id":"way/1198048906","@id":"way/1198048906","abandoned":null,"access":null,"addr:city":null,"addr:housenumber":null,"addr:postcode":null,"addr:street":null,"addr:suburb":null,"aerodrome":null,"aerodrome:type":null,"aeroway":"apron","air_conditioning":null,"amenity":null,"archaeological_site":null,"baby_feeding":null,"barrier":null,"bicycle":null,"branch":null,"brand":null,"brand:wikidata":null,"brand:wikipedia":null,"bridge":null,"building":null,"building:colour":null,"building:height":null,"building:levels":null,"changing_table":null,"check_date":null,"check_date:opening_hours":null,"city_served":null,"compressed_air":null,"contact:email":null,"contact:phone":null,"contact:website":null,"content":null,"covered":null,"created_by":null,"cuisine":null,"cutting":null,"denomination":null,"description":null,"drinking_water":null,"ele":null,"email":null,"emergency":null,"fee":null,"female":null,"fixme":null,"foot":null,"fuel:diesel":null,"fuel:lpg":null,"fuel:octane_95":null,"healthcare":null,"height":null,"highway":null,"historic":null,"historic:civilization":null,"holding_position:type":null,"horse":null,"iata":null,"icao":null,"indoor":null,"internet_access":null,"landuse":null,"lanes":null,"layer":null,"leisure":null,"length":null,"level":null,"lit":null,"local_ref":null,"male":null,"man_made":null,"maxheight":null,"maxheight:signed":null,"maxspeed":null,"maxweight:signed":null,"min_height":null,"motor_vehicle":null,"motorcar":null,"museum":null,"music":null,"name":null,"name:ar":null,"name:bg":null,"name:de":null,"name:en":null,"name:es":null,"name:etymology:wikidata":null,"name:fa":null,"name:it":null,"name:ko":null,"name:ru":null,"name:signed":null,"navigationaid":null,"network":null,"nobrand":null,"note":null,"office":null,"official_name":null,"official_name:it":null,"official_name:ru":null,"old_name":null,"oneway":null,"opening_hours":null,"operator":null,"operator:wikidata":null,"operator:wikipedia":null,"parking":null,"passengers":null,"payment:cash":null,"payment:credit_cards":null,"payment:mastercard":null,"payment:visa":null,"phone":null,"psv":null,"public_transport":null,"railway":null,"ref":null,"ref:mise":null,"religion":null,"roof:colour":null,"roof:height":null,"roof:levels":null,"roof:shape":null,"ruins":null,"runway":null,"self_service":null,"service":null,"shelter_type":null,"shop":null,"short_operator":null,"sidewalk":null,"smoothness":null,"source":null,"source:date":null,"start_date":null,"surface":null,"takeaway":null,"taxi":null,"toilets":null,"toilets:disposal":null,"toilets:wheelchair":null,"tourism":null,"tourist_bus":null,"tower:type":null,"tracktype":null,"train":null,"tunnel":null,"type":null,"website":null,"website_1":null,"wheelchair":null,"width":null,"wikidata":null,"wikimedia_commons":null,"wikipedia":null},"geometry":{"type":"Polygon","coordinates":[[[12.2510761,41.7969463],[12.2526121,41.7994089],[12.2527421,41.7993642],[12.2528629,41.7993226],[12.2536342,41.799046],[12.2526812,41.7975685],[12.2532197,41.7973739],[12.2544029,41.7993403],[12.2536455,41.7995971],[12.2527678,41.7998943],[12.2523644,41.8000016],[12.2522865,41.8000034],[12.2522039,41.7999893],[12.2521331,41.79997],[12.2520647,41.7999401],[12.2520222,41.7998996],[12.2503376,41.7972031],[12.2510761,41.7969463]]]}},
{"type":"Feature","properties":{"id":"way/1198048907","@id":"way/1198048907","abandoned":null,"access":null,"addr:city":null,"addr:housenumber":null,"addr:postcode":null,"addr:street":null,"addr:suburb":null,"aerodrome":null,"aerodrome:type":null,"aeroway":"apron","air_conditioning":null,"amenity":null,"archaeological_site":null,"baby_feeding":null,"barrier":null,"bicycle":null,"branch":null,"brand":null,"brand:wikidata":null,"brand:wikipedia":null,"bridge":null,"building":null,"building:colour":null,"building:height":null,"building:levels":null,"changing_table":null,"check_date":null,"check_date:opening_hours":null,"city_served":null,"compressed_air":null,"contact:email":null,"contact:phone":null,"contact:website":null,"content":null,"covered":null,"created_by":null,"cuisine":null,"cutting":null,"denomination":null,"description":null,"drinking_water":null,"ele":null,"email":null,"emergency":null,"fee":null,"female":null,"fixme":null,"foot":null,"fuel:diesel":null,"fuel:lpg":null,"fuel:octane_95":null,"healthcare":null,"height":null,"highway":null,"historic":null,"historic:civilization":null,"holding_position:type":null,"horse":null,"iata":null,"icao":null,"indoor":null,"internet_access":null,"landuse":null,"lanes":null,"layer":null,"leisure":null,"length":null,"level":null,"lit":null,"local_ref":null,"male":null,"man_made":null,"maxheight":null,"maxheight:signed":null,"maxspeed":null,"maxweight:signed":null,"min_height":null,"motor_vehicle":null,"motorcar":null,"museum":null,"music":null,"name":null,"name:ar":null,"name:bg":null,"name:de":null,"name:en":null,"name:es":null,"name:etymology:wikidata":null,"name:fa":null,"name:it":null,"name:ko":null,"name:ru":null,"name:signed":null,"navigationaid":null,"network":null,"nobrand":null,"note":null,"office":null,"official_name":null,"official_name:it":null,"official_name:ru":null,"old_name":null,"oneway":null,"opening_hours":null,"operator":null,"operator:wikidata":null,"operator:wikipedia":null,"parking":null,"passengers":null,"payment:cash":null,"payment:credit_cards":null,"payment:mastercard":null,"payment:visa":null,"phone":null,"psv":null,"public_transport":null,"railway":null,"ref":null,"ref:mise":null,"religion":null,"roof:colour":null,"roof:height":null,"roof:levels":null,"roof:shape":null,"ruins":null,"runway":null,"self_service":null,"service":null,"shelter_type":null,"shop":null,"short_operator":null,"sidewalk":null,"smoothness":null,"source":null,"source:date":null,"start_date":null,"surface":null,"takeaway":null,"taxi":null,"toilets":null,"toilets:disposal":null,"toilets:wheelchair":null,"tourism":null,"tourist_bus":null,"tower:type":null,"tracktype":null,"train":null,"tunnel":null,"type":null,"website":null,"website_1":null,"wheelchair":null,"width":null,"wikidata":null,"wikimedia_commons":null,"wikipedia":null},"geometry":{"type":"Polygon","coordinates":[[[12.2547148,41.7966627],[12.2550333,41.797157],[12.2557317,41.7982599],[12.255819,41.7982898],[12.2563495,41.7981014],[12.2563656,41.7980957],[12.256567,41.7980242],[12.2553377,41.7960664],[12.2559252,41.7958448],[12.2574471,41.7982669],[12.2555052,41.7989564],[12.254099,41.7967524],[12.2543703,41.7966592],[12.2545402,41.7967225],[12.2547148,41.7966627]]]}},
{"type":"Feature","properties":{"id":"way/1198048908","@id":"way/1198048908","abandoned":null,"access":null,"addr:city":null,"addr:housenumber":null,"addr:postcode":null,"addr:street":null,"addr:suburb":null,"aerodrome":null,"aerodrome:type":null,"aeroway":"apron","air_conditioning":null,"amenity":null,"archaeological_site":null,"baby_feeding":null,"barrier":null,"bicycle":null,"branch":null,"brand":null,"brand:wikidata":null,"brand:wikipedia":null,"bridge":null,"building":null,"building:colour":null,"building:height":null,"building:levels":null,"changing_table":null,"check_date":null,"check_date:opening_hours":null,"city_served":null,"compressed_air":null,"contact:email":null,"contact:phone":null,"contact:website":null,"content":null,"covered":null,"created_by":null,"cuisine":null,"cutting":null,"denomination":null,"description":null,"drinking_water":null,"ele":null,"email":null,"emergency":null,"fee":null,"female":null,"fixme":null,"foot":null,"fuel:diesel":null,"fuel:lpg":null,"fuel:octane_95":null,"healthcare":null,"height":null,"highway":null,"historic":null,"historic:civilization":null,"holding_position:type":null,"horse":null,"iata":null,"icao":null,"indoor":null,"internet_access":null,"landuse":null,"lanes":null,"layer":null,"leisure":null,"length":null,"level":null,"lit":null,"local_ref":null,"male":null,"man_made":null,"maxheight":null,"maxheight:signed":null,"maxspeed":null,"maxweight:signed":null,"min_height":null,"motor_vehicle":null,"motorcar":null,"museum":null,"music":null,"name":null,"name:ar":null,"name:bg":null,"name:de":null,"name:en":null,"name:es":null,"name:etymology:wikidata":null,"name:fa":null,"name:it":null,"name:ko":null,"name:ru":null,"name:signed":null,"navigationaid":null,"network":null,"nobrand":null,"note":null,"office":null,"official_name":null,"official_name:it":null,"official_name:ru":null,"old_name":null,"oneway":null,"opening_hours":null,"operator":null,"operator:wikidata":null,"operator:wikipedia":null,"parking":null,"passengers":null,"payment:cash":null,"payment:credit_cards":null,"payment:mastercard":null,"payment:visa":null,"phone":null,"psv":null,"public_transport":null,"railway":null,"ref":null,"ref:mise":null,"religion":null,"roof:colour":null,"roof:height":null,"roof:levels":null,"roof:shape":null,"ruins":null,"runway":null,"self_service":null,"service":null,"shelter_type":null,"shop":null,"short_operator":null,"sidewalk":null,"smoothness":null,"source":null,"source:date":null,"start_date":null,"surface":null,"takeaway":null,"taxi":null,"toilets":null,"toilets:disposal":null,"toilets:wheelchair":null,"tourism":null,"tourist_bus":null,"tower:type":null,"tracktype":null,"train":null,"tunnel":null,"type":null,"website":null,"website_1":null,"wheelchair":null,"width":null,"wikidata":null,"wikimedia_commons":null,"wikipedia":null},"geometry":{"type":"Polygon","coordinates":[[[12.2576832,41.7953138],[12.2577412,41.7954078],[12.2589205,41.7972568],[12.2596156,41.7970139],[12.2583738,41.7950626],[12.2589896,41.7948445],[12.2604549,41.7971928],[12.2586263,41.7978453],[12.2570879,41.795527],[12.2576832,41.7953138]]]}},
{"type":"Feature","properties":{"id":"way/1198048909","@id":"way/1198048909","abandoned":null,"access":null,"addr:city":null,"addr:housenumber":null,"addr:postcode":null,"addr:street":null,"addr:suburb":null,"aerodrome":null,"aerodrome:type":null,"aeroway":"apron","air_conditioning":null,"amenity":null,"archaeological_site":null,"baby_feeding":null,"barrier":null,"bicycle":null,"branch":null,"brand":null,"brand:wikidata":null,"brand:wikipedia":null,"bridge":null,"building":null,"building:colour":null,"building:height":null,"building:levels":null,"changing_table":null,"check_date":null,"check_date:opening_hours":null,"city_served":null,"compressed_air":null,"contact:email":null,"contact:phone":null,"contact:website":null,"content":null,"covered":null,"created_by":null,"cuisine":null,"cutting":null,"denomination":null,"description":null,"drinking_water":null,"ele":null,"email":null,"emergency":null,"fee":null,"female":null,"fixme":null,"foot":null,"fuel:diesel":null,"fuel:lpg":null,"fuel:octane_95":null,"healthcare":null,"height":null,"highway":null,"historic":null,"historic:civilization":null,"holding_position:type":null,"horse":null,"iata":null,"icao":null,"indoor":null,"internet_access":null,"landuse":null,"lanes":null,"layer":null,"leisure":null,"length":null,"level":null,"lit":null,"local_ref":null,"male":null,"man_made":null,"maxheight":null,"maxheight:signed":null,"maxspeed":null,"maxweight:signed":null,"min_height":null,"motor_vehicle":null,"motorcar":null,"museum":null,"music":null,"name":null,"name:ar":null,"name:bg":null,"name:de":null,"name:en":null,"name:es":null,"name:etymology:wikidata":null,"name:fa":null,"name:it":null,"name:ko":null,"name:ru":null,"name:signed":null,"navigationaid":null,"network":null,"nobrand":null,"note":null,"office":null,"official_name":null,"official_name:it":null,"official_name:ru":null,"old_name":null,"oneway":null,"opening_hours":null,"operator":null,"operator:wikidata":null,"operator:wikipedia":null,"parking":null,"passengers":null,"payment:cash":null,"payment:credit_cards":null,"payment:mastercard":null,"payment:visa":null,"phone":null,"psv":null,"public_transport":null,"railway":null,"ref":null,"ref:mise":null,"religion":null,"roof:colour":null,"roof:height":null,"roof:levels":null,"roof:shape":null,"ruins":null,"runway":null,"self_service":null,"service":null,"shelter_type":null,"shop":null,"short_operator":null,"sidewalk":null,"smoothness":null,"source":null,"source:date":null,"start_date":null,"surface":null,"takeaway":null,"taxi":null,"toilets":null,"toilets:disposal":null,"toilets:wheelchair":null,"tourism":null,"tourist_bus":null,"tower:type":null,"tracktype":null,"train":null,"tunnel":null,"type":null,"website":null,"website_1":null,"wheelchair":null,"width":null,"wikidata":null,"wikimedia_commons":null,"wikipedia":null},"geometry":{"type":"Polygon","coordinates":[[[12.2612521,41.7944828],[12.2625453,41.7965388],[12.2624612,41.7966641],[12.2618759,41.7968707],[12.2605714,41.794762],[12.2605605,41.7947318],[12.2605636,41.7946634],[12.2605745,41.7946076],[12.2605979,41.7945554],[12.2607395,41.7945647],[12.2608983,41.7945102],[12.2610166,41.7945612],[12.2612521,41.7944828]]]}},
{"type":"Feature","properties":{"id":"way/1198052786","@id":"way/1198052786","abandoned":null,"access":null,"addr:city":null,"addr:housenumber":null,"addr:postcode":null,"addr:street":null,"addr:suburb":null,"aerodrome":null,"aerodrome:type":null,"aeroway":"apron","air_conditioning":null,"amenity":null,"archaeological_site":null,"baby_feeding":null,"barrier":null,"bicycle":null,"branch":null,"brand":null,"brand:wikidata":null,"brand:wikipedia":null,"bridge":null,"building":null,"building:colour":null,"building:height":null,"building:levels":null,"changing_table":null,"check_date":null,"check_date:opening_hours":null,"city_served":null,"compressed_air":null,"contact:email":null,"contact:phone":null,"contact:website":null,"content":null,"covered":null,"created_by":null,"cuisine":null,"cutting":null,"denomination":null,"description":null,"drinking_water":null,"ele":null,"email":null,"emergency":null,"fee":null,"female":null,"fixme":null,"foot":null,"fuel:diesel":null,"fuel:lpg":null,"fuel:octane_95":null,"healthcare":null,"height":null,"highway":null,"historic":null,"historic:civilization":null,"holding_position:type":null,"horse":null,"iata":null,"icao":null,"indoor":null,"internet_access":null,"landuse":null,"lanes":null,"layer":null,"leisure":null,"length":null,"level":null,"lit":null,"local_ref":null,"male":null,"man_made":null,"maxheight":null,"maxheight:signed":null,"maxspeed":null,"maxweight:signed":null,"min_height":null,"motor_vehicle":null,"motorcar":null,"museum":null,"music":null,"name":null,"name:ar":null,"name:bg":null,"name:de":null,"name:en":null,"name:es":null,"name:etymology:wikidata":null,"name:fa":null,"name:it":null,"name:ko":null,"name:ru":null,"name:signed":null,"navigationaid":null,"network":null,"nobrand":null,"note":null,"office":null,"official_name":null,"official_name:it":null,"official_name:ru":null,"old_name":null,"oneway":null,"opening_hours":null,"operator":null,"operator:wikidata":null,"operator:wikipedia":null,"parking":null,"passengers":null,"payment:cash":null,"payment:credit_cards":null,"payment:mastercard":null,"payment:visa":null,"phone":null,"psv":null,"public_transport":null,"railway":null,"ref":null,"ref:mise":null,"religion":null,"roof:colour":null,"roof:height":null,"roof:levels":null,"roof:shape":null,"ruins":null,"runway":null,"self_service":null,"service":null,"shelter_type":null,"shop":null,"short_operator":null,"sidewalk":null,"smoothness":null,"source":null,"source:date":null,"start_date":null,"surface":null,"takeaway":null,"taxi":null,"toilets":null,"toilets:disposal":null,"toilets:wheelchair":null,"tourism":null,"tourist_bus":null,"tower:type":null,"tracktype":null,"train":null,"tunnel":null,"type":null,"website":null,"website_1":null,"wheelchair":null,"width":null,"wikidata":null,"wikimedia_commons":null,"wikipedia":null},"geometry":{"type":"Polygon","coordinates":[[[12.2614341,41.7989165],[12.2614248,41.7989418],[12.261394,41.7989586],[12.2594406,41.7996416],[12.2591859,41.7992343],[12.26109,41.7985597],[12.2612174,41.7985582],[12.2614341,41.7989165]]]}},
{"type":"Feature","properties":{"id":"way/1198057879","@id":"way/1198057879","abandoned":null,"access":null,"addr:city":null,"addr:housenumber":null,"addr:postcode":null,"addr:street":null,"addr:suburb":null,"aerodrome":null,"aerodrome:type":null,"aeroway":"apron","air_conditioning":null,"amenity":null,"archaeological_site":null,"baby_feeding":null,"barrier":null,"bicycle":null,"branch":null,"brand":null,"brand:wikidata":null,"brand:wikipedia":null,"bridge":null,"building":null,"building:colour":null,"building:height":null,"building:levels":null,"changing_table":null,"check_date":null,"check_date:opening_hours":null,"city_served":null,"compressed_air":null,"contact:email":null,"contact:phone":null,"contact:website":null,"content":null,"covered":null,"created_by":null,"cuisine":null,"cutting":null,"denomination":null,"description":null,"drinking_water":null,"ele":null,"email":null,"emergency":null,"fee":null,"female":null,"fixme":null,"foot":null,"fuel:diesel":null,"fuel:lpg":null,"fuel:octane_95":null,"healthcare":null,"height":null,"highway":null,"historic":null,"historic:civilization":null,"holding_position:type":null,"horse":null,"iata":null,"icao":null,"indoor":null,"internet_access":null,"landuse":null,"lanes":null,"layer":null,"leisure":null,"length":null,"level":null,"lit":null,"local_ref":null,"male":null,"man_made":null,"maxheight":null,"maxheight:signed":null,"maxspeed":null,"maxweight:signed":null,"min_height":null,"motor_vehicle":null,"motorcar":null,"museum":null,"music":null,"name":null,"name:ar":null,"name:bg":null,"name:de":null,"name:en":null,"name:es":null,"name:etymology:wikidata":null,"name:fa":null,"name:it":null,"name:ko":null,"name:ru":null,"name:signed":null,"navigationaid":null,"network":null,"nobrand":null,"note":null,"office":null,"official_name":null,"official_name:it":null,"official_name:ru":null,"old_name":null,"oneway":null,"opening_hours":null,"operator":null,"operator:wikidata":null,"operator:wikipedia":null,"parking":null,"passengers":null,"payment:cash":null,"payment:credit_cards":null,"payment:mastercard":null,"payment:visa":null,"phone":null,"psv":null,"public_transport":null,"railway":null,"ref":null,"ref:mise":null,"religion":null,"roof:colour":null,"roof:height":null,"roof:levels":null,"roof:shape":null,"ruins":null,"runway":null,"self_service":null,"service":null,"shelter_type":null,"shop":null,"short_operator":null,"sidewalk":null,"smoothness":null,"source":null,"source:date":null,"start_date":null,"surface":null,"takeaway":null,"taxi":null,"toilets":null,"toilets:disposal":null,"toilets:wheelchair":null,"tourism":null,"tourist_bus":null,"tower:type":null,"tracktype":null,"train":null,"tunnel":null,"type":null,"website":null,"website_1":null,"wheelchair":null,"width":null,"wikidata":null,"wikimedia_commons":null,"wikipedia":null},"geometry":{"type":"Polygon","coordinates":[[[12.2606811,41.8015575],[12.2603822,41.8010736],[12.2605644,41.8010075],[12.2605301,41.8009436],[12.2607979,41.8008496],[12.2608321,41.80091],[12.2612649,41.8007614],[12.2612337,41.8007104],[12.2614735,41.8006245],[12.2615093,41.8006779],[12.2618782,41.8005514],[12.2618471,41.8005015],[12.2621133,41.8004098],[12.2621491,41.8004586],[12.2621849,41.8005108],[12.2624324,41.8005665],[12.262641,41.8008891],[12.2613303,41.8013335],[12.2606811,41.8015575]]]}},
{"type":"Feature","properties":{"id":"way/1198066289","@id":"way/1198066289","abandoned":null,"access":null,"addr:city":null,"addr:housenumber":null,"addr:postcode":null,"addr:street":null,"addr:suburb":null,"aerodrome":null,"aerodrome:type":null,"aeroway":"apron","air_conditioning":null,"amenity":null,"archaeological_site":null,"baby_feeding":null,"barrier":null,"bicycle":null,"branch":null,"brand":null,"brand:wikidata":null,"brand:wikipedia":null,"bridge":null,"building":null,"building:colour":null,"building:height":null,"building:levels":null,"changing_table":null,"check_date":null,"check_date:opening_hours":null,"city_served":null,"compressed_air":null,"contact:email":null,"contact:phone":null,"contact:website":null,"content":null,"covered":null,"created_by":null,"cuisine":null,"cutting":null,"denomination":null,"description":null,"drinking_water":null,"ele":null,"email":null,"emergency":null,"fee":null,"female":null,"fixme":null,"foot":null,"fuel:diesel":null,"fuel:lpg":null,"fuel:octane_95":null,"healthcare":null,"height":null,"highway":null,"historic":null,"historic:civilization":null,"holding_position:type":null,"horse":null,"iata":null,"icao":null,"indoor":null,"internet_access":null,"landuse":null,"lanes":null,"layer":null,"leisure":null,"length":null,"level":null,"lit":null,"local_ref":null,"male":null,"man_made":null,"maxheight":null,"maxheight:signed":null,"maxspeed":null,"maxweight:signed":null,"min_height":null,"motor_vehicle":null,"motorcar":null,"museum":null,"music":null,"name":null,"name:ar":null,"name:bg":null,"name:de":null,"name:en":null,"name:es":null,"name:etymology:wikidata":null,"name:fa":null,"name:it":null,"name:ko":null,"name:ru":null,"name:signed":null,"navigationaid":null,"network":null,"nobrand":null,"note":null,"office":null,"official_name":null,"official_name:it":null,"official_name:ru":null,"old_name":null,"oneway":null,"opening_hours":null,"operator":null,"operator:wikidata":null,"operator:wikipedia":null,"parking":null,"passengers":null,"payment:cash":null,"payment:credit_cards":null,"payment:mastercard":null,"payment:visa":null,"phone":null,"psv":null,"public_transport":null,"railway":null,"ref":null,"ref:mise":null,"religion":null,"roof:colour":null,"roof:height":null,"roof:levels":null,"roof:shape":null,"ruins":null,"runway":null,"self_service":null,"service":null,"shelter_type":null,"shop":null,"short_operator":null,"sidewalk":null,"smoothness":null,"source":null,"source:date":null,"start_date":null,"surface":null,"takeaway":null,"taxi":null,"toilets":null,"toilets:disposal":null,"toilets:wheelchair":null,"tourism":null,"tourist_bus":null,"tower:type":null,"tracktype":null,"train":null,"tunnel":null,"type":null,"website":null,"website_1":null,"wheelchair":null,"width":null,"wikidata":null,"wikimedia_commons":null,"wikipedia":null},"geometry":{"type":"Polygon","coordinates":[[[12.2643347,41.8007278],[12.2641706,41.8010712],[12.2640033,41.8010252],[12.2636686,41.8005033],[12.265567,41.7965088],[12.2662282,41.7966888],[12.266281,41.7967409],[12.2649488,41.7994603],[12.2643347,41.8007278]]]}},
{"type":"Feature","properties":{"id":"way/1198066301","@id":"way/1198066301","abandoned":null,"access":null,"addr:city":null,"addr:housenumber":null,"addr:postcode":null,"addr:street":null,"addr:suburb":null,"aerodrome":null,"aerodrome:type":null,"aeroway":"apron","air_conditioning":null,"amenity":null,"archaeological_site":null,"baby_feeding":null,"barrier":null,"bicycle":null,"branch":null,"brand":null,"brand:wikidata":null,"brand:wikipedia":null,"bridge":null,"building":null,"building:colour":null,"building:height":null,"building:levels":null,"changing_table":null,"check_date":null,"check_date:opening_hours":null,"city_served":null,"compressed_air":null,"contact:email":null,"contact:phone":null,"contact:website":null,"content":null,"covered":null,"created_by":null,"cuisine":null,"cutting":null,"denomination":null,"description":null,"drinking_water":null,"ele":null,"email":null,"emergency":null,"fee":null,"female":null,"fixme":null,"foot":null,"fuel:diesel":null,"fuel:lpg":null,"fuel:octane_95":null,"healthcare":null,"height":null,"highway":null,"historic":null,"historic:civilization":null,"holding_position:type":null,"horse":null,"iata":null,"icao":null,"indoor":null,"internet_access":null,"landuse":null,"lanes":null,"layer":null,"leisure":null,"length":null,"level":null,"lit":null,"local_ref":null,"male":null,"man_made":null,"maxheight":null,"maxheight:signed":null,"maxspeed":null,"maxweight:signed":null,"min_height":null,"motor_vehicle":null,"motorcar":null,"museum":null,"music":null,"name":null,"name:ar":null,"name:bg":null,"name:de":null,"name:en":null,"name:es":null,"name:etymology:wikidata":null,"name:fa":null,"name:it":null,"name:ko":null,"name:ru":null,"name:signed":null,"navigationaid":null,"network":null,"nobrand":null,"note":null,"office":null,"official_name":null,"official_name:it":null,"official_name:ru":null,"old_name":null,"oneway":null,"opening_hours":null,"operator":null,"operator:wikidata":null,"operator:wikipedia":null,"parking":null,"passengers":null,"payment:cash":null,"payment:credit_cards":null,"payment:mastercard":null,"payment:visa":null,"phone":null,"psv":null,"public_transport":null,"railway":null,"ref":null,"ref:mise":null,"religion":null,"roof:colour":null,"roof:height":null,"roof:levels":null,"roof:shape":null,"ruins":null,"runway":null,"self_service":null,"service":null,"shelter_type":null,"shop":null,"short_operator":null,"sidewalk":null,"smoothness":null,"source":null,"source:date":null,"start_date":null,"surface":null,"takeaway":null,"taxi":null,"toilets":null,"toilets:disposal":null,"toilets:wheelchair":null,"tourism":null,"tourist_bus":null,"tower:type":null,"tracktype":null,"train":null,"tunnel":null,"type":null,"website":null,"website_1":null,"wheelchair":null,"width":null,"wikidata":null,"wikimedia_commons":null,"wikipedia":null},"geometry":{"type":"Polygon","coordinates":[[[12.2610981,41.8021291],[12.263051,41.801452],[12.2631411,41.8016063],[12.2631756,41.8016234],[12.2632676,41.8017848],[12.2632273,41.8018263],[12.2633768,41.8020677],[12.2634074,41.8021183],[12.2636624,41.8025392],[12.2617631,41.8031963],[12.2614297,41.8026663],[12.2615293,41.8026335],[12.2614718,41.8025292],[12.2612629,41.8024992],[12.2611307,41.802292],[12.2611671,41.8022349],[12.2610981,41.8021291]]]}},
{"type":"Feature","properties":{"id":"way/1198076938","@id":"way/1198076938","abandoned":null,"access":null,"addr:city":null,"addr:housenumber":null,"addr:postcode":null,"addr:street":null,"addr:suburb":null,"aerodrome":null,"aerodrome:type":null,"aeroway":"apron","air_conditioning":null,"amenity":null,"archaeological_site":null,"baby_feeding":null,"barrier":null,"bicycle":null,"branch":null,"brand":null,"brand:wikidata":null,"brand:wikipedia":null,"bridge":null,"building":null,"building:colour":null,"building:height":null,"building:levels":null,"changing_table":null,"check_date":null,"check_date:opening_hours":null,"city_served":null,"compressed_air":null,"contact:email":null,"contact:phone":null,"contact:website":null,"content":null,"covered":null,"created_by":null,"cuisine":null,"cutting":null,"denomination":null,"description":null,"drinking_water":null,"ele":null,"email":null,"emergency":null,"fee":null,"female":null,"fixme":null,"foot":null,"fuel:diesel":null,"fuel:lpg":null,"fuel:octane_95":null,"healthcare":null,"height":null,"highway":null,"historic":null,"historic:civilization":null,"holding_position:type":null,"horse":null,"iata":null,"icao":null,"indoor":null,"internet_access":null,"landuse":null,"lanes":null,"layer":null,"leisure":null,"length":null,"level":null,"lit":null,"local_ref":null,"male":null,"man_made":null,"maxheight":null,"maxheight:signed":null,"maxspeed":null,"maxweight:signed":null,"min_height":null,"motor_vehicle":null,"motorcar":null,"museum":null,"music":null,"name":null,"name:ar":null,"name:bg":null,"name:de":null,"name:en":null,"name:es":null,"name:etymology:wikidata":null,"name:fa":null,"name:it":null,"name:ko":null,"name:ru":null,"name:signed":null,"navigationaid":null,"network":null,"nobrand":null,"note":null,"office":null,"official_name":null,"official_name:it":null,"official_name:ru":null,"old_name":null,"oneway":null,"opening_hours":null,"operator":null,"operator:wikidata":null,"operator:wikipedia":null,"parking":null,"passengers":null,"payment:cash":null,"payment:credit_cards":null,"payment:mastercard":null,"payment:visa":null,"phone":null,"psv":null,"public_transport":null,"railway":null,"ref":null,"ref:mise":null,"religion":null,"roof:colour":null,"roof:height":null,"roof:levels":null,"roof:shape":null,"ruins":null,"runway":null,"self_service":null,"service":null,"shelter_type":null,"shop":null,"short_operator":null,"sidewalk":null,"smoothness":null,"source":null,"source:date":null,"start_date":null,"surface":null,"takeaway":null,"taxi":null,"toilets":null,"toilets:disposal":null,"toilets:wheelchair":null,"tourism":null,"tourist_bus":null,"tower:type":null,"tracktype":null,"train":null,"tunnel":null,"type":null,"website":null,"website_1":null,"wheelchair":null,"width":null,"wikidata":null,"wikimedia_commons":null,"wikipedia":null},"geometry":{"type":"Polygon","coordinates":[[[12.2700486,41.8044121],[12.2703843,41.8037327],[12.2723024,41.8042494],[12.2722649,41.8043262],[12.272328,41.8043435],[12.2720217,41.8049516],[12.2700486,41.8044121]]]}},
{"type":"Feature","properties":{"id":"way/1232946915","@id":"way/1232946915","abandoned":null,"access":null,"addr:city":null,"addr:housenumber":null,"addr:postcode":null,"addr:street":null,"addr:suburb":null,"aerodrome":null,"aerodrome:type":null,"aeroway":"apron","air_conditioning":null,"amenity":null,"archaeological_site":null,"baby_feeding":null,"barrier":null,"bicycle":null,"branch":null,"brand":null,"brand:wikidata":null,"brand:wikipedia":null,"bridge":null,"building":null,"building:colour":null,"building:height":null,"building:levels":null,"changing_table":null,"check_date":null,"check_date:opening_hours":null,"city_served":null,"compressed_air":null,"contact:email":null,"contact:phone":null,"contact:website":null,"content":null,"covered":null,"created_by":null,"cuisine":null,"cutting":null,"denomination":null,"description":null,"drinking_water":null,"ele":null,"email":null,"emergency":null,"fee":null,"female":null,"fixme":null,"foot":null,"fuel:diesel":null,"fuel:lpg":null,"fuel:octane_95":null,"healthcare":null,"height":null,"highway":null,"historic":null,"historic:civilization":null,"holding_position:type":null,"horse":null,"iata":null,"icao":null,"indoor":null,"internet_access":null,"landuse":null,"lanes":null,"layer":null,"leisure":null,"length":null,"level":null,"lit":null,"local_ref":null,"male":null,"man_made":null,"maxheight":null,"maxheight:signed":null,"maxspeed":null,"maxweight:signed":null,"min_height":null,"motor_vehicle":null,"motorcar":null,"museum":null,"music":null,"name":null,"name:ar":null,"name:bg":null,"name:de":null,"name:en":null,"name:es":null,"name:etymology:wikidata":null,"name:fa":null,"name:it":null,"name:ko":null,"name:ru":null,"name:signed":null,"navigationaid":null,"network":null,"nobrand":null,"note":null,"office":null,"official_name":null,"official_name:it":null,"official_name:ru":null,"old_name":null,"oneway":null,"opening_hours":null,"operator":null,"operator:wikidata":null,"operator:wikipedia":null,"parking":null,"passengers":null,"payment:cash":null,"payment:credit_cards":null,"payment:mastercard":null,"payment:visa":null,"phone":null,"psv":null,"public_transport":null,"railway":null,"ref":null,"ref:mise":null,"religion":null,"roof:colour":null,"roof:height":null,"roof:levels":null,"roof:shape":null,"ruins":null,"runway":null,"self_service":null,"service":null,"shelter_type":null,"shop":null,"short_operator":null,"sidewalk":null,"smoothness":null,"source":null,"source:date":null,"start_date":null,"surface":null,"takeaway":null,"taxi":null,"toilets":null,"toilets:disposal":null,"toilets:wheelchair":null,"tourism":null,"tourist_bus":null,"tower:type":null,"tracktype":null,"train":null,"tunnel":null,"type":null,"website":null,"website_1":null,"wheelchair":null,"width":null,"wikidata":null,"wikimedia_commons":null,"wikipedia":null},"geometry":{"type":"Polygon","coordinates":[[[12.2740015,41.7958905],[12.274219,41.7956739],[12.2745088,41.7958338],[12.2742979,41.7960493],[12.2740015,41.7958905]]]}}
]
}
