{
"type": "FeatureCollection",
"name": "runways",
"crs": { "type": "name", "properties": { "name": "urn:ogc:def:crs:OGC:1.3:CRS84" } },
"features": [
{"type":"Feature","properties":{"id":"way/12825095","@id":"way/12825095","abandoned":null,"access":null,"addr:city":null,"addr:housenumber":null,"addr:postcode":null,"addr:street":null,"addr:suburb":null,"aerodrome":null,"aerodrome:type":null,"aeroway":"runway","air_conditioning":null,"amenity":null,"archaeological_site":null,"baby_feeding":null,"barrier":null,"bicycle":null,"branch":null,"brand":null,"brand:wikidata":null,"brand:wikipedia":null,"bridge":null,"building":null,"building:colour":null,"building:height":null,"building:levels":null,"changing_table":null,"check_date":null,"check_date:opening_hours":null,"city_served":null,"compressed_air":null,"contact:email":null,"contact:phone":null,"contact:website":null,"content":null,"covered":null,"created_by":null,"cuisine":null,"cutting":null,"denomination":null,"description":null,"drinking_water":null,"ele":null,"email":null,"emergency":null,"fee":null,"female":null,"fixme":null,"foot":null,"fuel:diesel":null,"fuel:lpg":null,"fuel:octane_95":null,"healthcare":null,"height":null,"highway":null,"historic":null,"historic:civilization":null,"holding_position:type":null,"horse":null,"iata":null,"icao":null,"indoor":null,"internet_access":null,"landuse":null,"lanes":null,"layer":null,"leisure":null,"length":"3900","level":null,"lit":null,"local_ref":null,"male":null,"man_made":null,"maxheight":null,"maxheight:signed":null,"maxspeed":null,"maxweight:signed":null,"min_height":null,"motor_vehicle":null,"motorcar":null,"museum":null,"music":null,"name":null,"name:ar":null,"name:bg":null,"name:de":null,"name:en":null,"name:es":null,"name:etymology:wikidata":null,"name:fa":null,"name:it":null,"name:ko":null,"name:ru":null,"name:signed":null,"navigationaid":null,"network":null,"nobrand":null,"note":null,"office":null,"official_name":null,"official_name:it":null,"official_name:ru":null,"old_name":null,"oneway":null,"opening_hours":null,"operator":null,"operator:wikidata":null,"operator:wikipedia":null,"parking":null,"passengers":null,"payment:cash":null,"payment:credit_cards":null,"payment:mastercard":null,"payment:visa":null,"phone":null,"psv":null,"public_transport":null,"railway":null,"ref":"16R/34L","ref:mise":null,"religion":null,"roof:colour":null,"roof:height":null,"roof:levels":null,"roof:shape":null,"ruins":null,"runway":null,"self_service":null,"service":null,"shelter_type":null,"shop":null,"short_operator":null,"sidewalk":null,"smoothness":null,"source":null,"source:date":null,"start_date":null,"surface":"paved","takeaway":null,"taxi":null,"toilets":null,"toilets:disposal":null,"toilets:wheelchair":null,"tourism":null,"tourist_bus":null,"tower:type":null,"tracktype":null,"train":null,"tunnel":null,"type":null,"website":null,"website_1":null,"wheelchair":null,"width":"60","wikidata":null,"wikimedia_commons":null,"wikipedia":null},"geometry":{"type":"LineString","coordinates":[[12.2263624,41.8155228],[12.2266386,41.8148935],[12.2268353,41.8144451],[12.227615,41.8125247],[12.229849,41.807177],[12.2317552,41.802604],[12.2323437,41.801313],[12.2324247,41.8011063],[12.2330712,41.7995624],[12.233938,41.7974287],[12.2341332,41.7969416],[12.2342346,41.7967186],[12.2342914,41.7965939],[12.234441,41.796264],[12.2346345,41.7958048],[12.235244,41.7943512],[12.2354654,41.7938287],[12.2357648,41.7931222],[12.2363196,41.7917646],[12.2399811,41.7830279],[12.2400058,41.782969],[12.2404062,41.7820135]]}},
{"type":"Feature","properties":{"id":"way/22883159","@id":"way/22883159","abandoned":null,"access":null,"addr:city":null,"addr:housenumber":null,"addr:postcode":null,"addr:street":null,"addr:suburb":null,"aerodrome":null,"aerodrome:type":null,"aeroway":"runway","air_conditioning":null,"amenity":null,"archaeological_site":null,"baby_feeding":null,"barrier":null,"bicycle":null,"branch":null,"brand":null,"brand:wikidata":null,"brand:wikipedia":null,"bridge":null,"building":null,"building:colour":null,"building:height":null,"building:levels":null,"changing_table":null,"check_date":null,"check_date:opening_hours":null,"city_served":null,"compressed_air":null,"contact:email":null,"contact:phone":null,"contact:website":null,"content":null,"covered":null,"created_by":null,"cuisine":null,"cutting":null,"denomination":null,"description":null,"drinking_water":null,"ele":null,"email":null,"emergency":null,"fee":null,"female":null,"fixme":null,"foot":null,"fuel:diesel":null,"fuel:lpg":null,"fuel:octane_95":null,"healthcare":null,"height":null,"highway":null,"historic":null,"historic:civilization":null,"holding_position:type":null,"horse":null,"iata":null,"icao":null,"indoor":null,"internet_access":null,"landuse":null,"lanes":null,"layer":null,"leisure":null,"length":"3900","level":null,"lit":null,"local_ref":null,"male":null,"man_made":null,"maxheight":null,"maxheight:signed":null,"maxspeed":null,"maxweight:signed":null,"min_height":null,"motor_vehicle":null,"motorcar":null,"museum":null,"music":null,"name":null,"name:ar":null,"name:bg":null,"name:de":null,"name:en":null,"name:es":null,"name:etymology:wikidata":null,"name:fa":null,"name:it":null,"name:ko":null,"name:ru":null,"name:signed":null,"navigationaid":null,"network":null,"nobrand":null,"note":null,"office":null,"official_name":null,"official_name:it":null,"official_name:ru":null,"old_name":null,"oneway":null,"opening_hours":null,"operator":null,"operator:wikidata":null,"operator:wikipedia":null,"parking":null,"passengers":null,"payment:cash":null,"payment:credit_cards":null,"payment:mastercard":null,"payment:visa":null,"phone":null,"psv":null,"public_transport":null,"railway":null,"ref":"16L/34R","ref:mise":null,"religion":null,"roof:colour":null,"roof:height":null,"roof:levels":null,"roof:shape":null,"ruins":null,"runway":null,"self_service":null,"service":null,"shelter_type":null,"shop":null,"short_operator":null,"sidewalk":null,"smoothness":null,"source":null,"source:date":null,"start_date":null,"surface":"paved","takeaway":null,"taxi":null,"toilets":null,"toilets:disposal":null,"toilets:wheelchair":null,"tourism":null,"tourist_bus":null,"tower:type":null,"tracktype":null,"train":null,"tunnel":null,"type":null,"website":null,"website_1":null,"wheelchair":null,"width":"60","wikidata":null,"wikimedia_commons":null,"wikipedia":null},"geometry":{"type":"LineString","coordinates":[[12.2755095,41.8124762],[12.2751952,41.8132282],[12.2749237,41.813878],[12.2740579,41.8159494],[12.2708801,41.8235523],[12.2688257,41.828467],[12.2681221,41.8301499],[12.2660972,41.8349937],[12.2625072,41.8435799],[12.2620454,41.8446845],[12.2615514,41.8459163]]}},
{"type":"Feature","properties":{"id":"way/42030559","@id":"way/42030559","abandoned":null,"access":null,"addr:city":null,"addr:housenumber":null,"addr:postcode":null,"addr:street":null,"addr:suburb":null,"aerodrome":null,"aerodrome:type":null,"aeroway":"runway","air_conditioning":null,"amenity":null,"archaeological_site":null,"baby_feeding":null,"barrier":null,"bicycle":null,"branch":null,"brand":null,"brand:wikidata":null,"brand:wikipedia":null,"bridge":null,"building":null,"building:colour":null,"building:height":null,"building:levels":null,"changing_table":null,"check_date":null,"check_date:opening_hours":null,"city_served":null,"compressed_air":null,"contact:email":null,"contact:phone":null,"contact:website":null,"content":null,"covered":null,"created_by":null,"cuisine":null,"cutting":null,"denomination":null,"description":null,"drinking_water":null,"ele":null,"email":null,"emergency":null,"fee":null,"female":null,"fixme":null,"foot":null,"fuel:diesel":null,"fuel:lpg":null,"fuel:octane_95":null,"healthcare":null,"height":null,"highway":null,"historic":null,"historic:civilization":null,"holding_position:type":null,"horse":null,"iata":null,"icao":null,"indoor":null,"internet_access":null,"landuse":null,"lanes":null,"layer":null,"leisure":null,"length":"3300","level":null,"lit":null,"local_ref":null,"male":null,"man_made":null,"maxheight":null,"maxheight:signed":null,"maxspeed":null,"maxweight:signed":null,"min_height":null,"motor_vehicle":null,"motorcar":null,"museum":null,"music":null,"name":null,"name:ar":null,"name:bg":null,"name:de":null,"name:en":null,"name:es":null,"name:etymology:wikidata":null,"name:fa":null,"name:it":null,"name:ko":null,"name:ru":null,"name:signed":null,"navigationaid":null,"network":null,"nobrand":null,"note":null,"office":null,"official_name":null,"official_name:it":null,"official_name:ru":null,"old_name":null,"oneway":null,"opening_hours":null,"operator":null,"operator:wikidata":null,"operator:wikipedia":null,"parking":null,"passengers":null,"payment:cash":null,"payment:credit_cards":null,"payment:mastercard":null,"payment:visa":null,"phone":null,"psv":null,"public_transport":null,"railway":null,"ref":"07/25","ref:mise":null,"religion":null,"roof:colour":null,"roof:height":null,"roof:levels":null,"roof:shape":null,"ruins":null,"runway":null,"self_service":null,"service":null,"shelter_type":null,"shop":null,"short_operator":null,"sidewalk":null,"smoothness":null,"source":null,"source:date":null,"start_date":null,"surface":"paved","takeaway":null,"taxi":null,"toilets":null,"toilets:disposal":null,"toilets:wheelchair":null,"tourism":null,"tourist_bus":null,"tower:type":null,"tracktype":null,"train":null,"tunnel":null,"type":null,"website":null,"website_1":null,"wheelchair":null,"width":"45","wikidata":null,"wikimedia_commons":null,"wikipedia":null},"geometry":{"type":"LineString","coordinates":[[12.2367931,41.8006084],[12.2387058,41.8011257],[12.2404083,41.8015986],[12.2409468,41.8017482],[12.2461576,41.8031958],[12.2469709,41.8034217],[12.2477996,41.8036491],[12.2485296,41.8038494],[12.2523109,41.804887],[12.2535787,41.8052349],[12.253739,41.8052793],[12.2537702,41.8052879],[12.2549306,41.8056088],[12.2692592,41.8095634],[12.2694814,41.8096247]]}},
{"type":"Feature","properties":{"id":"way/510282854","@id":"way/510282854","abandoned":null,"access":null,"addr:city":null,"addr:housenumber":null,"addr:postcode":null,"addr:street":null,"addr:suburb":null,"aerodrome":null,"aerodrome:type":null,"aeroway":"runway","air_conditioning":null,"amenity":null,"archaeological_site":null,"baby_feeding":null,"barrier":null,"bicycle":null,"branch":null,"brand":null,"brand:wikidata":null,"brand:wikipedia":null,"bridge":null,"building":null,"building:colour":null,"building:height":null,"building:levels":null,"changing_table":null,"check_date":null,"check_date:opening_hours":null,"city_served":null,"compressed_air":null,"contact:email":null,"contact:phone":null,"contact:website":null,"content":null,"covered":null,"created_by":null,"cuisine":null,"cutting":null,"denomination":null,"description":null,"drinking_water":null,"ele":null,"email":null,"emergency":null,"fee":null,"female":null,"fixme":null,"foot":null,"fuel:diesel":null,"fuel:lpg":null,"fuel:octane_95":null,"healthcare":null,"height":null,"highway":null,"historic":null,"historic:civilization":null,"holding_position:type":null,"horse":null,"iata":null,"icao":null,"indoor":null,"internet_access":null,"landuse":null,"lanes":null,"layer":null,"leisure":null,"length":null,"level":null,"lit":null,"local_ref":null,"male":null,"man_made":null,"maxheight":null,"maxheight:signed":null,"maxspeed":null,"maxweight:signed":null,"min_height":null,"motor_vehicle":null,"motorcar":null,"museum":null,"music":null,"name":null,"name:ar":null,"name:bg":null,"name:de":null,"name:en":null,"name:es":null,"name:etymology:wikidata":null,"name:fa":null,"name:it":null,"name:ko":null,"name:ru":null,"name:signed":null,"navigationaid":null,"network":null,"nobrand":null,"note":null,"office":null,"official_name":null,"official_name:it":null,"official_name:ru":null,"old_name":null,"oneway":null,"opening_hours":null,"operator":null,"operator:wikidata":null,"operator:wikipedia":null,"parking":null,"passengers":null,"payment:cash":null,"payment:credit_cards":null,"payment:mastercard":null,"payment:visa":null,"phone":null,"psv":null,"public_transport":null,"railway":null,"ref":null,"ref:mise":null,"religion":null,"roof:colour":null,"roof:height":null,"roof:levels":null,"roof:shape":null,"ruins":null,"runway":"displaced_threshold","self_service":null,"service":null,"shelter_type":null,"shop":null,"short_operator":null,"sidewalk":null,"smoothness":null,"source":null,"source:date":null,"start_date":null,"surface":null,"takeaway":null,"taxi":null,"toilets":null,"toilets:disposal":null,"toilets:wheelchair":null,"tourism":null,"tourist_bus":null,"tower:type":null,"tracktype":null,"train":null,"tunnel":null,"type":null,"website":null,"website_1":null,"wheelchair":null,"width":"45","wikidata":null,"wikimedia_commons":null,"wikipedia":null},"geometry":{"type":"LineString","coordinates":[[12.2322142,41.7993314],[12.2330712,41.7995624],[12.2334051,41.7996633],[12.2359864,41.8003903],[12.2366436,41.800568],[12.2367931,41.8006084]]}}
]
}
